,origin,time_hour,tailnum,year,month,day,dep_time,sched_dep_time,dep_delay,arr_delay,carrier,flight,dest,air_time,distance,hour,minute,seats,temp,dewp,humid,wind_dir,wind_speed,precip,pressure,visib,week_day,wknd,evening_rush_hour,wind_sin,wind_cos,precip_indic
1,EWR,2013-07-01 5:00,N428UA,2013,7,1,600,559,1,-20,UA,597,BOS,40,200,5,59,200,75.02,71.06,87.5,140,4.60312,0,1013.3,10,Monday,FALSE,FALSE,2.958828502,-3.526194497,FALSE
5,EWR,2013-07-01 8:00,N76265,2013,7,1,900,800,60,121,UA,1199,BOS,40,200,8,0,149,78.08,71.96,81.5,140,6.90468,0,1013.7,10,Monday,FALSE,FALSE,4.438242753,-5.289291746,FALSE
6,EWR,2013-07-01 8:00,N265JB,2013,7,1,826,836,-10,-8,B6,2280,BOS,44,200,8,36,20,78.08,71.96,81.5,140,6.90468,0,1013.7,10,Monday,FALSE,FALSE,4.438242753,-5.289291746,FALSE
10,EWR,2013-07-01 12:00,N37298,2013,7,1,1223,1214,9,-2,UA,1037,BOS,41,200,12,14,149,78.08,73.04,84.53,150,3.45234,0,1015,10,Monday,FALSE,FALSE,1.72617,-2.989814143,FALSE
12,EWR,2013-07-01 15:00,N493UA,2013,7,1,1506,1500,6,0,UA,205,BOS,48,200,15,0,200,77,73.04,87.6,110,8.05546,0.01,1014.8,9,Monday,FALSE,FALSE,7.569656319,-2.755129584,TRUE
13,EWR,2013-07-01 16:00,N34282,2013,7,1,1740,1621,79,57,UA,1028,BOS,41,200,16,21,149,77,73.94,90.29,150,5.7539,0,1014.8,10,Monday,FALSE,FALSE,2.87695,-4.983023571,FALSE
16,EWR,2013-07-01 19:00,N76269,2013,7,1,2008,1924,44,26,UA,1703,BOS,42,200,19,24,149,77,73.04,87.6,160,8.05546,0,1016.1,10,Monday,FALSE,FALSE,2.755129584,-7.569656319,FALSE
17,EWR,2013-07-01 20:00,N354JB,2013,7,1,2142,2045,57,42,B6,2680,BOS,41,200,20,45,20,75.92,71.96,87.55,170,9.20624,0,1016.4,10,Monday,FALSE,FALSE,1.598646799,-9.066376528,FALSE
27,EWR,2013-07-02 14:00,N179JB,2013,7,2,1411,1400,11,-4,B6,2480,BOS,41,200,14,0,20,84.92,73.04,67.65,200,10.35702,0,1019.3,10,Tuesday,FALSE,FALSE,-3.542309465,-9.732415267,FALSE
28,EWR,2013-07-02 14:00,N815UA,2013,7,2,1523,1459,24,-1,UA,209,BOS,34,200,14,59,179,84.92,73.04,67.65,200,10.35702,0,1019.3,10,Tuesday,FALSE,FALSE,-3.542309465,-9.732415267,FALSE
29,EWR,2013-07-02 16:00,N822UA,2013,7,2,1706,1659,7,8,UA,634,BOS,37,200,16,59,179,84.02,71.06,65.13,200,12.65858,0,1019,10,Tuesday,FALSE,FALSE,-4.329489346,-11.89517422,FALSE
30,EWR,2013-07-02 17:00,N192JB,2013,7,2,1802,1730,32,19,B6,2580,BOS,37,200,17,30,20,82.94,71.06,67.44,200,10.35702,0,1019.3,10,Tuesday,FALSE,TRUE,-3.542309465,-9.732415267,FALSE
35,EWR,2013-07-03 6:00,N443UA,2013,7,3,629,623,6,-8,UA,230,BOS,42,200,6,23,200,73.94,71.06,90.73,230,8.05546,0,1023.5,10,Wednesday,FALSE,FALSE,-6.17084037,-5.177949878,FALSE
36,EWR,2013-07-03 6:00,N442UA,2013,7,3,931,659,152,134,UA,751,BOS,44,200,6,59,200,73.94,71.06,90.73,230,8.05546,0,1023.5,10,Wednesday,FALSE,FALSE,-6.17084037,-5.177949878,FALSE
37,EWR,2013-07-03 6:00,N368JB,2013,7,3,604,608,-4,-8,B6,2180,BOS,42,200,6,8,20,73.94,71.06,90.73,230,8.05546,0,1023.5,10,Wednesday,FALSE,FALSE,-6.17084037,-5.177949878,FALSE
38,EWR,2013-07-03 8:00,N849UA,2013,7,3,802,807,-5,-14,UA,740,BOS,39,200,8,7,179,77,71.06,81.92,220,3.45234,0,1024,10,Wednesday,FALSE,FALSE,-2.219121376,-2.644645873,FALSE
40,EWR,2013-07-03 10:00,N32404,2013,7,3,1132,1015,77,73,UA,1163,BOS,46,200,10,15,191,80.06,71.06,74.07,230,12.65858,0,1024.1,10,Wednesday,FALSE,FALSE,-9.697034867,-8.13677838,FALSE
41,EWR,2013-07-03 11:00,N374JB,2013,7,3,1117,1125,-8,-11,B6,2380,BOS,45,200,11,25,20,82.04,71.96,71.59,260,8.05546,0,1023.8,10,Wednesday,FALSE,FALSE,-7.933079462,-1.398815949,FALSE
42,EWR,2013-07-03 12:00,N76505,2013,7,3,1241,1237,4,-9,UA,1248,BOS,44,200,12,37,149,84.02,71.96,67.15,190,6.90468,0,1023.6,10,Wednesday,FALSE,FALSE,-1.198985099,-6.799782396,FALSE
45,EWR,2013-07-03 16:00,N819UA,2013,7,3,1653,1659,-6,16,UA,244,BOS,42,200,16,59,179,86,71.96,63.01,210,11.5078,0,1021.6,10,Wednesday,FALSE,FALSE,-5.7539,-9.966047142,FALSE
47,EWR,2013-07-03 17:00,N37298,2013,7,3,1745,1742,3,18,UA,1686,BOS,42,200,17,42,149,84.92,71.96,65.23,230,11.5078,0,1021.3,10,Wednesday,FALSE,TRUE,-8.815486243,-7.397071255,FALSE
48,EWR,2013-07-03 19:00,N15712,2013,7,3,1914,1906,8,15,UA,148,BOS,44,200,19,6,149,82.04,75.02,79.35,160,4.60312,0,1022.1,10,Wednesday,FALSE,FALSE,1.574359762,-4.325517897,FALSE
49,EWR,2013-07-03 20:00,N452UA,2013,7,3,2114,2059,15,-3,UA,994,BOS,44,200,20,59,200,80.06,75.02,84.64,190,3.45234,0,1022.3,10,Wednesday,FALSE,FALSE,-0.59949255,-3.399891198,FALSE
50,EWR,2013-07-03 20:00,N236JB,2013,7,3,2040,2045,-5,0,B6,2680,BOS,45,200,20,45,20,80.06,75.02,84.64,190,3.45234,0,1022.3,10,Wednesday,FALSE,FALSE,-0.59949255,-3.399891198,FALSE
51,EWR,2013-07-03 21:00,N38458,2013,7,3,2259,2149,70,61,UA,1451,BOS,43,200,21,49,191,80.06,75.02,84.64,180,3.45234,0,1022.9,10,Wednesday,FALSE,FALSE,4.23E-16,-3.45234,FALSE
55,EWR,2013-07-04 8:00,N206JB,2013,7,4,830,836,-6,-19,B6,2280,BOS,40,200,8,36,20,80.96,73.04,76.9,230,10.35702,0,1024.4,10,Thursday,FALSE,FALSE,-7.933937618,-6.657364129,FALSE
57,EWR,2013-07-04 11:00,N296JB,2013,7,4,1117,1125,-8,-15,B6,2380,BOS,45,200,11,25,20,86,73.04,65.35,200,12.65858,0,1023.7,10,Thursday,FALSE,FALSE,-4.329489346,-11.89517422,FALSE
59,EWR,2013-07-04 14:00,N498UA,2013,7,4,1527,1459,28,9,UA,209,BOS,39,200,14,59,200,89.06,71.06,55.46,210,12.65858,0,1022.4,10,Thursday,FALSE,FALSE,-6.32929,-10.96265186,FALSE
60,EWR,2013-07-04 14:00,N236JB,2013,7,4,1404,1400,4,-7,B6,2480,BOS,42,200,14,0,20,89.06,71.06,55.46,210,12.65858,0,1022.4,10,Thursday,FALSE,FALSE,-6.32929,-10.96265186,FALSE
62,EWR,2013-07-04 17:00,N820UA,2013,7,4,1747,1742,5,-18,UA,245,BOS,42,200,17,42,179,87.98,69.98,55.31,200,16.11092,0,1021,10,Thursday,FALSE,TRUE,-5.510259168,-15.13931264,FALSE
63,EWR,2013-07-04 19:00,N37471,2013,7,4,1911,1906,5,-13,UA,1142,BOS,45,200,19,6,191,86,69.98,58.91,210,11.5078,0,1021.3,10,Thursday,FALSE,FALSE,-5.7539,-9.966047142,FALSE
64,EWR,2013-07-04 20:00,N339JB,2013,7,4,2032,2045,-13,-27,B6,2680,BOS,43,200,20,45,20,84.92,69.08,59.14,200,12.65858,0,1021.6,10,Thursday,FALSE,FALSE,-4.329489346,-11.89517422,FALSE
65,EWR,2013-07-04 21:00,N847UA,2013,7,4,2057,2100,-3,-29,UA,994,BOS,42,200,21,0,179,82.04,71.06,69.43,210,12.65858,0,1022.1,10,Thursday,FALSE,FALSE,-6.32929,-10.96265186,FALSE
68,EWR,2013-07-05 8:00,N76265,2013,7,5,759,807,-8,-14,UA,1199,BOS,42,200,8,7,149,80.96,73.04,76.9,260,10.35702,0,1023.1,10,Friday,FALSE,FALSE,-10.19967359,-1.798477649,FALSE
69,EWR,2013-07-05 8:00,N206JB,2013,7,5,835,836,-1,-7,B6,2280,BOS,44,200,8,36,20,80.96,73.04,76.9,260,10.35702,0,1023.1,10,Friday,FALSE,FALSE,-10.19967359,-1.798477649,FALSE
70,EWR,2013-07-05 10:00,N37468,2013,7,5,1019,1015,4,-19,UA,1163,BOS,39,200,10,15,191,86,73.04,65.35,260,8.05546,0,1022.5,10,Friday,FALSE,FALSE,-7.933079462,-1.398815949,FALSE
71,EWR,2013-07-05 11:00,N316JB,2013,7,5,1117,1125,-8,-12,B6,2380,BOS,43,200,11,25,20,87.98,71.06,57.39,210,10.35702,0,1022.1,10,Friday,FALSE,FALSE,-5.17851,-8.969442428,FALSE
74,EWR,2013-07-05 14:00,N841UA,2013,7,5,1502,1459,3,-6,UA,436,BOS,41,200,14,59,179,91.04,73.04,55.72,190,5.7539,0,1020.6,10,Friday,FALSE,FALSE,-0.999154249,-5.66648533,FALSE
75,EWR,2013-07-05 17:00,N374JB,2013,7,5,1721,1730,-9,-12,B6,2580,BOS,45,200,17,30,20,89.96,69.98,51.96,210,14.96014,0,1018.9,10,Friday,FALSE,TRUE,-7.48007,-12.95586128,FALSE
76,EWR,2013-07-05 17:00,N73275,2013,7,5,1745,1742,3,-12,UA,1053,BOS,41,200,17,42,149,89.96,69.98,51.96,210,14.96014,0,1018.9,10,Friday,FALSE,TRUE,-7.48007,-12.95586128,FALSE
77,EWR,2013-07-05 19:00,N37420,2013,7,5,1919,1906,13,-8,UA,1116,BOS,41,200,19,6,191,87.98,68,51.68,220,14.96014,0,1018.8,10,Friday,FALSE,FALSE,-9.616192631,-11.46013212,FALSE
80,EWR,2013-07-06 6:00,N12922,2013,7,6,637,639,-2,-10,EV,4179,BOS,41,200,6,39,55,78.98,73.04,82.06,230,10.35702,0,1020.5,10,Saturday,TRUE,FALSE,-7.933937618,-6.657364129,FALSE
81,EWR,2013-07-06 8:00,N368JB,2013,7,6,828,830,-2,-11,B6,2280,BOS,41,200,8,30,20,84.02,73.94,71.78,240,9.20624,0,1020.6,10,Saturday,TRUE,FALSE,-7.972837713,-4.60312,FALSE
83,EWR,2013-07-06 11:00,N358JB,2013,7,6,1114,1125,-11,-20,B6,2380,BOS,39,200,11,25,20,91.04,69.98,50.23,240,11.5078,0,1019.5,10,Saturday,TRUE,FALSE,-9.966047142,-5.7539,FALSE
84,EWR,2013-07-06 14:00,N238JB,2013,7,6,1352,1400,-8,-23,B6,2480,BOS,41,200,14,0,20,93.02,69.08,45.79,270,13.80936,0,1018.3,10,Saturday,TRUE,FALSE,-13.80936,-2.54E-15,FALSE
86,EWR,2013-07-06 17:00,N228JB,2013,7,6,1722,1730,-8,-6,B6,2580,BOS,40,200,17,30,20,93.92,68,42.91,250,13.80936,0,1017.1,10,Saturday,TRUE,TRUE,-12.97655369,-4.723079286,FALSE
87,EWR,2013-07-06 19:00,N76265,2013,7,6,1930,1912,18,0,UA,1116,BOS,40,200,19,12,149,91.04,69.08,48.71,260,11.5078,0,1016.5,10,Saturday,TRUE,FALSE,-11.33297066,-1.998308499,FALSE
90,EWR,2013-07-07 7:00,N578UA,2013,7,7,750,720,30,16,UA,440,BOS,41,200,7,20,178,82.04,71.06,69.43,220,11.5078,0,1017.6,10,Sunday,TRUE,FALSE,-7.397071255,-8.815486243,FALSE
92,EWR,2013-07-07 8:00,N17984,2013,7,7,809,810,-1,-10,EV,6069,BOS,42,200,8,10,55,84.02,71.06,65.13,230,9.20624,0,1017.5,10,Sunday,TRUE,FALSE,-7.052388994,-5.917657004,FALSE
93,EWR,2013-07-07 11:00,N316JB,2013,7,7,1119,1125,-6,-10,B6,2380,BOS,45,200,11,25,20,89.96,71.96,55.58,210,6.90468,0,1016.2,10,Sunday,TRUE,FALSE,-3.45234,-5.979628285,FALSE
94,EWR,2013-07-07 12:00,N430UA,2013,7,7,1230,1234,-4,-25,UA,244,BOS,40,200,12,34,200,91.94,71.06,50.67,220,8.05546,0,1015.8,10,Sunday,TRUE,FALSE,-5.177949878,-6.17084037,FALSE
95,EWR,2013-07-07 14:00,N39450,2013,7,7,1504,1455,9,44,UA,1116,BOS,46,200,14,55,191,95,69.98,44.42,250,14.96014,0,1014.6,10,Sunday,TRUE,FALSE,-14.05793316,-5.116669227,FALSE
96,EWR,2013-07-07 14:00,N206JB,2013,7,7,1358,1400,-2,-11,B6,2480,BOS,45,200,14,0,20,95,69.98,44.42,250,14.96014,0,1014.6,10,Sunday,TRUE,FALSE,-14.05793316,-5.116669227,FALSE
97,EWR,2013-07-07 16:00,N37466,2013,7,7,1627,1630,-3,14,UA,1090,BOS,48,200,16,30,191,93.92,69.98,45.92,230,17.2617,0,1013.4,10,Sunday,TRUE,FALSE,-13.22322936,-11.09560688,FALSE
98,EWR,2013-07-07 17:00,N33714,2013,7,7,1737,1742,-5,7,UA,1248,BOS,48,200,17,42,149,93.92,69.98,45.92,240,17.2617,0,1013.4,10,Sunday,TRUE,TRUE,-14.94907071,-8.63085,FALSE
99,EWR,2013-07-07 17:00,N348JB,2013,7,7,1727,1730,-3,5,B6,2580,BOS,58,200,17,30,20,93.92,69.98,45.92,240,17.2617,0,1013.4,10,Sunday,TRUE,TRUE,-14.94907071,-8.63085,FALSE
100,EWR,2013-07-07 19:00,N440UA,2013,7,7,1941,1920,21,-3,UA,994,BOS,42,200,19,20,200,91.04,69.08,48.71,260,13.80936,0,1013.9,10,Sunday,TRUE,FALSE,-13.59956479,-2.397970199,FALSE
104,EWR,2013-07-08 6:00,N832UA,2013,7,8,601,604,-3,0,UA,230,BOS,40,200,6,4,179,73.04,66.92,81.14,240,6.90468,0,1016.8,10,Monday,FALSE,FALSE,-5.979628285,-3.45234,FALSE
106,EWR,2013-07-08 6:00,N323JB,2013,7,8,733,608,85,77,B6,2180,BOS,41,200,6,8,20,73.04,66.92,81.14,240,6.90468,0,1016.8,10,Monday,FALSE,FALSE,-5.979628285,-3.45234,FALSE
107,EWR,2013-07-08 6:00,N425UA,2013,7,8,653,659,-6,-23,UA,751,BOS,40,200,6,59,200,73.04,66.92,81.14,240,6.90468,0,1016.8,10,Monday,FALSE,FALSE,-5.979628285,-3.45234,FALSE
108,EWR,2013-07-08 8:00,N16732,2013,7,8,813,807,6,-2,UA,1199,BOS,42,200,8,7,149,80.06,68,66.7,280,9.20624,0,1017.2,10,Monday,FALSE,FALSE,-9.066376528,1.598646799,FALSE
109,EWR,2013-07-08 8:00,N329JB,2013,7,8,829,836,-7,-13,B6,2280,BOS,43,200,8,36,20,80.06,68,66.7,280,9.20624,0,1017.2,10,Monday,FALSE,FALSE,-9.066376528,1.598646799,FALSE
111,EWR,2013-07-08 11:00,N348JB,2013,7,8,1121,1125,-4,-15,B6,2380,BOS,37,200,11,25,20,87.08,66.92,51.24,240,6.90468,0,1016.8,10,Monday,FALSE,FALSE,-5.979628285,-3.45234,FALSE
112,EWR,2013-07-08 12:00,N77525,2013,7,8,1232,1237,-5,-25,UA,1248,BOS,35,200,12,37,149,87.98,66.92,49.79,270,10.35702,0,1016.6,10,Monday,FALSE,FALSE,-10.35702,-1.90E-15,FALSE
113,EWR,2013-07-08 14:00,N197JB,2013,7,8,1403,1400,3,-9,B6,2480,BOS,35,200,14,0,20,91.04,66.02,43.83,280,11.5078,0,1015.6,10,Monday,FALSE,FALSE,-11.33297066,1.998308499,FALSE
115,EWR,2013-07-08 16:00,N818UA,2013,7,8,1656,1659,-3,-2,UA,248,BOS,51,200,16,59,179,89.06,64.94,44.92,240,12.65858,0,1015,10,Monday,FALSE,FALSE,-10.96265186,-6.32929,FALSE
116,EWR,2013-07-08 17:00,N24729,2013,7,8,1738,1742,-4,43,UA,1686,BOS,43,200,17,42,149,87.98,64.94,46.48,250,10.35702,0,1014.6,10,Monday,FALSE,TRUE,-9.732415267,-3.542309465,FALSE
117,EWR,2013-07-08 17:00,N353JB,2013,7,8,1925,1730,115,169,B6,2580,BOS,58,200,17,30,20,87.98,64.94,46.48,250,10.35702,0,1014.6,10,Monday,FALSE,TRUE,-9.732415267,-3.542309465,FALSE
119,EWR,2013-07-08 20:00,N823UA,2013,7,8,2155,2059,56,44,UA,994,BOS,39,200,20,59,179,82.94,66.92,58.51,240,12.65858,0,1016.3,10,Monday,FALSE,FALSE,-10.96265186,-6.32929,FALSE
120,EWR,2013-07-08 20:00,N339JB,2013,7,8,2229,2045,104,93,B6,2680,BOS,37,200,20,45,20,82.94,66.92,58.51,240,12.65858,0,1016.3,10,Monday,FALSE,FALSE,-10.96265186,-6.32929,FALSE
121,EWR,2013-07-08 21:00,N78448,2013,7,8,2245,2149,56,51,UA,1451,BOS,37,200,21,49,191,80.96,62.96,54.35,230,11.5078,0,1017.2,10,Monday,FALSE,FALSE,-8.815486243,-7.397071255,FALSE
122,EWR,2013-07-09 6:00,N274JB,2013,7,9,557,608,-11,-6,B6,2180,BOS,37,200,6,8,20,75.02,69.08,81.79,220,5.7539,0,1017.9,9,Tuesday,FALSE,FALSE,-3.698535627,-4.407743121,FALSE
124,EWR,2013-07-09 6:00,N822UA,2013,7,9,600,604,-4,-27,UA,230,BOS,36,200,6,4,179,75.02,69.08,81.79,220,5.7539,0,1017.9,9,Tuesday,FALSE,FALSE,-3.698535627,-4.407743121,FALSE
125,EWR,2013-07-09 8:00,N23707,2013,7,9,758,807,-9,-18,UA,1199,BOS,36,200,8,7,149,80.06,69.08,69.23,250,3.45234,0,1018.3,10,Tuesday,FALSE,FALSE,-3.244138422,-1.180769822,FALSE
126,EWR,2013-07-09 8:00,N236JB,2013,7,9,826,836,-10,-3,B6,2280,BOS,38,200,8,36,20,80.06,69.08,69.23,250,3.45234,0,1018.3,10,Tuesday,FALSE,FALSE,-3.244138422,-1.180769822,FALSE
127,EWR,2013-07-09 10:00,N23721,2013,7,9,1014,1015,-1,-11,UA,1163,BOS,44,200,10,15,149,86,68,55.04,240,9.20624,0,1017.8,10,Tuesday,FALSE,FALSE,-7.972837713,-4.60312,FALSE
129,EWR,2013-07-09 12:00,N78511,2013,7,9,1259,1237,22,32,UA,1248,BOS,43,200,12,37,149,89.06,64.94,44.92,270,10.35702,0,1017.2,10,Tuesday,FALSE,FALSE,-10.35702,-1.90E-15,FALSE
130,EWR,2013-07-09 14:00,N846UA,2013,7,9,1523,1459,24,77,UA,236,BOS,42,200,14,59,179,89.96,68,48.55,220,13.80936,0,1016.4,10,Tuesday,FALSE,FALSE,-8.876485506,-10.57858349,FALSE
131,EWR,2013-07-09 14:00,N281JB,2013,7,9,1359,1400,-1,1,B6,2480,BOS,45,200,14,0,20,89.96,68,48.55,220,13.80936,0,1016.4,10,Tuesday,FALSE,FALSE,-8.876485506,-10.57858349,FALSE
133,EWR,2013-07-09 17:00,N29717,2013,7,9,1805,1742,23,22,UA,1686,BOS,42,200,17,42,149,89.06,66.02,46.64,250,14.96014,0,1015.5,10,Tuesday,FALSE,TRUE,-14.05793316,-5.116669227,FALSE
134,EWR,2013-07-09 17:00,N317JB,2013,7,9,1744,1730,14,41,B6,2580,BOS,42,200,17,30,20,89.06,66.02,46.64,250,14.96014,0,1015.5,10,Tuesday,FALSE,TRUE,-14.05793316,-5.116669227,FALSE
136,EWR,2013-07-09 20:00,N822UA,2013,7,9,2141,2059,42,40,UA,994,BOS,37,200,20,59,179,77,69.98,78.96,260,8.05546,0,1015.9,10,Tuesday,FALSE,FALSE,-7.933079462,-1.398815949,FALSE
137,EWR,2013-07-09 20:00,N324JB,2013,7,9,2139,2045,54,61,B6,2680,BOS,39,200,20,45,20,77,69.98,78.96,260,8.05546,0,1015.9,10,Tuesday,FALSE,FALSE,-7.933079462,-1.398815949,FALSE
138,EWR,2013-07-09 21:00,N31412,2013,7,9,2213,2129,44,36,UA,1451,BOS,38,200,21,29,191,78.08,69.08,73.88,240,5.7539,0,1016.6,10,Tuesday,FALSE,FALSE,-4.983023571,-2.87695,FALSE
139,EWR,2013-07-10 6:00,N487UA,2013,7,10,711,659,12,2,UA,751,BOS,52,200,6,59,200,75.92,71.96,87.55,210,3.45234,0,1014.6,8,Wednesday,FALSE,FALSE,-1.72617,-2.989814143,FALSE
146,EWR,2013-07-10 12:00,N33294,2013,7,10,1248,1237,11,-11,UA,1248,BOS,36,200,12,37,149,84.02,73.04,69.64,220,13.80936,0,1012.4,10,Wednesday,FALSE,FALSE,-8.876485506,-10.57858349,FALSE
147,EWR,2013-07-10 14:00,N836UA,2013,7,10,2120,1459,381,396,UA,236,BOS,44,200,14,59,179,87.08,69.98,56.92,230,18.41248,0,1010.9,10,Wednesday,FALSE,FALSE,-14.10477799,-11.83531401,FALSE
148,EWR,2013-07-10 14:00,N197JB,2013,7,10,1525,1400,85,92,B6,2480,BOS,40,200,14,0,20,87.08,69.98,56.92,230,18.41248,0,1010.9,10,Wednesday,FALSE,FALSE,-14.10477799,-11.83531401,FALSE
149,EWR,2013-07-10 16:00,N848UA,2013,7,10,1659,1659,0,-9,UA,244,BOS,47,200,16,59,179,89.06,69.98,53.46,230,13.80936,0,1009.8,10,Wednesday,FALSE,FALSE,-10.57858349,-8.876485506,FALSE
150,EWR,2013-07-10 17:00,N16732,2013,7,10,1746,1742,4,34,UA,1686,BOS,44,200,17,42,149,87.98,68,51.68,240,12.65858,0,1009.4,10,Wednesday,FALSE,TRUE,-10.96265186,-6.32929,FALSE
151,EWR,2013-07-10 17:00,N273JB,2013,7,10,2110,1730,220,227,B6,2580,BOS,42,200,17,30,20,87.98,68,51.68,240,12.65858,0,1009.4,10,Wednesday,FALSE,TRUE,-10.96265186,-6.32929,FALSE
152,EWR,2013-07-10 19:00,N54711,2013,7,10,2344,1906,278,271,UA,1142,BOS,58,200,19,6,149,86,69.08,57.12,250,13.80936,0,1010.3,10,Wednesday,FALSE,FALSE,-12.97655369,-4.723079286,FALSE
154,EWR,2013-07-10 20:00,N296JB,2013,7,10,2249,2045,124,133,B6,2680,BOS,46,200,20,45,20,84.92,69.98,60.98,220,10.35702,0,1010.1,10,Wednesday,FALSE,FALSE,-6.657364129,-7.933937618,FALSE
156,EWR,2013-07-11 6:00,N855UA,2013,7,11,601,604,-3,-24,UA,230,BOS,41,200,6,4,179,80.06,71.06,74.07,240,11.5078,0,1010.2,10,Thursday,FALSE,FALSE,-9.966047142,-5.7539,FALSE
157,EWR,2013-07-11 6:00,N178JB,2013,7,11,602,608,-6,-13,B6,2180,BOS,44,200,6,8,20,80.06,71.06,74.07,240,11.5078,0,1010.2,10,Thursday,FALSE,FALSE,-9.966047142,-5.7539,FALSE
158,EWR,2013-07-11 6:00,N415UA,2013,7,11,708,659,9,-11,UA,751,BOS,44,200,6,59,200,80.06,71.06,74.07,240,11.5078,0,1010.2,10,Thursday,FALSE,FALSE,-9.966047142,-5.7539,FALSE
159,EWR,2013-07-11 8:00,N296JB,2013,7,11,831,836,-5,24,B6,2280,BOS,42,200,8,36,20,80.06,71.06,74.07,250,12.65858,0,1010.9,10,Thursday,FALSE,FALSE,-11.89517422,-4.329489346,FALSE
160,EWR,2013-07-11 8:00,N77430,2013,7,11,807,807,0,-10,UA,1199,BOS,50,200,8,7,191,80.06,71.06,74.07,250,12.65858,0,1010.9,10,Thursday,FALSE,FALSE,-11.89517422,-4.329489346,FALSE
162,EWR,2013-07-11 11:00,N329JB,2013,7,11,1118,1125,-7,-8,B6,2380,BOS,42,200,11,25,20,80.96,64.94,58.25,300,10.35702,0,1011.2,10,Thursday,FALSE,FALSE,-8.969442428,5.17851,FALSE
164,EWR,2013-07-11 14:00,N274JB,2013,7,11,1447,1400,47,36,B6,2480,BOS,39,200,14,0,20,84.92,66.02,53.21,300,8.05546,0,1010.9,10,Thursday,FALSE,FALSE,-6.976232999,4.02773,FALSE
165,EWR,2013-07-11 14:00,N811UA,2013,7,11,1523,1459,24,25,UA,236,BOS,39,200,14,59,179,84.92,66.02,53.21,300,8.05546,0,1010.9,10,Thursday,FALSE,FALSE,-6.976232999,4.02773,FALSE
166,EWR,2013-07-11 16:00,N844UA,2013,7,11,1721,1659,22,7,UA,244,BOS,40,200,16,59,179,87.08,66.02,49.66,300,6.90468,0,1010.5,10,Thursday,FALSE,FALSE,-5.979628285,3.45234,FALSE
167,EWR,2013-07-11 17:00,N24702,2013,7,11,1748,1742,6,-8,UA,1686,BOS,44,200,17,42,149,86,62.96,46.19,300,9.20624,0,1010.7,10,Thursday,FALSE,TRUE,-7.972837713,4.60312,FALSE
168,EWR,2013-07-11 17:00,N368JB,2013,7,11,1721,1730,-9,-21,B6,2580,BOS,41,200,17,30,20,86,62.96,46.19,300,9.20624,0,1010.7,10,Thursday,FALSE,TRUE,-7.972837713,4.60312,FALSE
170,EWR,2013-07-11 20:00,N833UA,2013,7,11,2139,2059,40,24,UA,994,BOS,37,200,20,59,179,82.04,60.98,48.93,340,11.5078,0,1012.2,10,Thursday,FALSE,FALSE,-3.935899405,10.81379474,FALSE
171,EWR,2013-07-11 20:00,N238JB,2013,7,11,2035,2045,-10,-18,B6,2680,BOS,41,200,20,45,20,82.04,60.98,48.93,340,11.5078,0,1012.2,10,Thursday,FALSE,FALSE,-3.935899405,10.81379474,FALSE
172,EWR,2013-07-11 21:00,N38454,2013,7,11,2234,2129,65,49,UA,1451,BOS,39,200,21,29,191,80.06,62.96,55.97,10,11.5078,0,1012.9,10,Thursday,FALSE,FALSE,1.998308499,11.33297066,FALSE
173,EWR,2013-07-12 6:00,N416UA,2013,7,12,618,604,14,-11,UA,230,BOS,38,200,6,4,200,73.04,62.96,70.68,20,13.80936,0,1015.4,10,Friday,FALSE,FALSE,4.723079286,12.97655369,FALSE
174,EWR,2013-07-12 6:00,N373JB,2013,7,12,600,608,-8,-22,B6,2180,BOS,37,200,6,8,20,73.04,62.96,70.68,20,13.80936,0,1015.4,10,Friday,FALSE,FALSE,4.723079286,12.97655369,FALSE
175,EWR,2013-07-12 6:00,N33266,2013,7,12,642,650,-8,-23,UA,1106,BOS,34,200,6,50,149,73.04,62.96,70.68,20,13.80936,0,1015.4,10,Friday,FALSE,FALSE,4.723079286,12.97655369,FALSE
176,EWR,2013-07-12 8:00,N76529,2013,7,12,1013,807,126,115,UA,1199,BOS,41,200,8,7,149,75.02,64.04,68.69,30,11.5078,0,1016.1,10,Friday,FALSE,FALSE,5.7539,9.966047142,FALSE
178,EWR,2013-07-12 10:00,N24715,2013,7,12,1007,1015,-8,-20,UA,1163,BOS,37,200,10,15,149,78.08,64.04,62.05,40,14.96014,0,1016.5,10,Friday,FALSE,FALSE,9.616192631,11.46013212,FALSE
182,EWR,2013-07-12 14:00,N416UA,2013,7,12,1458,1459,-1,-8,UA,779,BOS,37,200,14,59,200,75.92,66.92,73.68,30,14.96014,0,1017,9,Friday,FALSE,FALSE,7.48007,12.95586128,FALSE
189,EWR,2013-07-12 21:00,N36476,2013,7,12,2224,2149,35,28,UA,1451,BOS,35,200,21,49,191,71.06,66.92,86.77,50,14.96014,0,1018.5,5,Friday,FALSE,FALSE,11.46013212,9.616192631,FALSE
190,EWR,2013-07-13 6:00,N48901,2013,7,13,704,639,25,8,EV,4179,BOS,35,200,6,39,55,71.96,69.98,93.49,30,6.90468,0,1021.6,5,Saturday,TRUE,FALSE,3.45234,5.979628285,FALSE
191,EWR,2013-07-13 8:00,N183JB,2013,7,13,824,830,-6,-12,B6,2280,BOS,35,200,8,30,20,73.04,71.06,93.52,40,6.90468,0,1023.1,4,Saturday,TRUE,FALSE,4.438242753,5.289291746,FALSE
193,EWR,2013-07-13 11:00,N292JB,2013,7,13,1115,1125,-10,2,B6,2380,BOS,35,200,11,25,20,78.08,73.94,87.12,50,4.60312,0,1023.5,9,Saturday,TRUE,FALSE,3.526194497,2.958828502,FALSE
196,EWR,2013-07-13 17:00,N323JB,2013,7,13,1718,1730,-12,-27,B6,2580,BOS,40,200,17,30,20,78.08,75.02,90.33,70,5.7539,0.02,1023.9,8,Saturday,TRUE,TRUE,5.406897371,1.967949703,TRUE
201,EWR,2013-07-14 8:00,N348JB,2013,7,14,822,830,-8,-5,B6,2280,BOS,47,200,8,30,20,80.96,73.94,79.27,260,10.35702,0,1027.1,10,Sunday,TRUE,FALSE,-10.19967359,-1.798477649,FALSE
202,EWR,2013-07-14 11:00,N324JB,2013,7,14,1110,1125,-15,-28,B6,2380,BOS,37,200,11,25,20,87.08,73.04,63.14,250,11.5078,0,1026.3,10,Sunday,TRUE,FALSE,-10.81379474,-3.935899405,FALSE
204,EWR,2013-07-14 14:00,N373JB,2013,7,14,1354,1400,-6,-18,B6,2480,BOS,42,200,14,0,20,91.04,71.06,52.11,250,9.20624,0,1025.2,10,Sunday,TRUE,FALSE,-8.651035793,-3.148719524,FALSE
205,EWR,2013-07-14 14:00,N39461,2013,7,14,1532,1455,37,24,UA,1116,BOS,35,200,14,55,191,91.04,71.06,52.11,250,9.20624,0,1025.2,10,Sunday,TRUE,FALSE,-8.651035793,-3.148719524,FALSE
208,EWR,2013-07-14 17:00,N25705,2013,7,14,1742,1742,0,-21,UA,1248,BOS,38,200,17,42,149,89.96,69.08,50.39,250,8.05546,0,1023.8,10,Sunday,TRUE,TRUE,-7.569656319,-2.755129584,FALSE
209,EWR,2013-07-14 19:00,N407UA,2013,7,14,1926,1920,6,-16,UA,994,BOS,38,200,19,20,200,89.06,68,49.95,240,12.65858,0,1023.7,10,Sunday,TRUE,FALSE,-10.96265186,-6.32929,FALSE
210,EWR,2013-07-14 20:00,N236JB,2013,7,14,2249,2045,124,120,B6,2680,BOS,49,200,20,45,20,87.08,66.92,51.24,240,8.05546,0,1023.9,10,Sunday,TRUE,FALSE,-6.976232999,-4.02773,FALSE
212,EWR,2013-07-14 21:00,N76528,2013,7,14,2120,2106,14,2,UA,1163,BOS,44,200,21,6,149,86,69.08,57.12,230,6.90468,0,1024.2,10,Sunday,TRUE,FALSE,-5.289291746,-4.438242753,FALSE
213,EWR,2013-07-15 6:00,N436UA,2013,7,15,711,659,12,-7,UA,751,BOS,37,200,6,59,200,78.98,71.96,79.12,220,3.45234,0,1024.2,10,Monday,FALSE,FALSE,-2.219121376,-2.644645873,FALSE
215,EWR,2013-07-15 6:00,N430UA,2013,7,15,701,649,12,4,UA,475,BOS,41,200,6,49,200,78.98,71.96,79.12,220,3.45234,0,1024.2,10,Monday,FALSE,FALSE,-2.219121376,-2.644645873,FALSE
216,EWR,2013-07-15 6:00,N353JB,2013,7,15,558,608,-10,-18,B6,2180,BOS,45,200,6,8,20,78.98,71.96,79.12,220,3.45234,0,1024.2,10,Monday,FALSE,FALSE,-2.219121376,-2.644645873,FALSE
217,EWR,2013-07-15 8:00,N348JB,2013,7,15,826,836,-10,-12,B6,2280,BOS,48,200,8,36,20,86,71.06,61.12,280,9.20624,0,1024,10,Monday,FALSE,FALSE,-9.066376528,1.598646799,FALSE
219,EWR,2013-07-15 10:00,N24729,2013,7,15,1010,1015,-5,-14,UA,1163,BOS,39,200,10,15,149,91.04,71.06,52.11,310,8.05546,0,1023.1,10,Monday,FALSE,FALSE,-6.17084037,5.177949878,FALSE
220,EWR,2013-07-15 11:00,N304JB,2013,7,15,1121,1125,-4,-11,B6,2380,BOS,37,200,11,25,20,93.02,71.96,50.51,300,8.05546,0,1022.7,10,Monday,FALSE,FALSE,-6.976232999,4.02773,FALSE
221,EWR,2013-07-15 12:00,N17244,2013,7,15,1234,1237,-3,-15,UA,1248,BOS,36,200,12,37,149,93.92,71.06,47.64,320,12.65858,0,1022.2,10,Monday,FALSE,FALSE,-8.13677838,9.697034867,FALSE
222,EWR,2013-07-15 14:00,N353JB,2013,7,15,1412,1400,12,-7,B6,2480,BOS,35,200,14,0,20,93.92,69.98,45.92,330,10.35702,0,1021.3,10,Monday,FALSE,FALSE,-5.17851,8.969442428,FALSE
223,EWR,2013-07-15 14:00,N810UA,2013,7,15,1515,1459,16,0,UA,236,BOS,37,200,14,59,179,93.92,69.98,45.92,330,10.35702,0,1021.3,10,Monday,FALSE,FALSE,-5.17851,8.969442428,FALSE
224,EWR,2013-07-15 16:00,N802UA,2013,7,15,1658,1659,-1,-21,UA,248,BOS,35,200,16,59,179,95,69.08,43.07,340,14.96014,0,1020.4,10,Monday,FALSE,FALSE,-5.116669227,14.05793316,FALSE
225,EWR,2013-07-15 17:00,N23721,2013,7,15,1740,1742,-2,-12,UA,1686,BOS,42,200,17,42,149,93.92,69.08,44.53,350,16.11092,0,1020.2,10,Monday,FALSE,TRUE,-2.797631899,15.86615892,FALSE
226,EWR,2013-07-15 17:00,N184JB,2013,7,15,1727,1730,-3,-25,B6,2580,BOS,39,200,17,30,20,93.92,69.08,44.53,350,16.11092,0,1020.2,10,Monday,FALSE,TRUE,-2.797631899,15.86615892,FALSE
227,EWR,2013-07-15 19:00,N17719,2013,7,15,1905,1906,-1,-5,UA,1116,BOS,41,200,19,6,149,91.94,66.92,43.96,320,11.5078,0,1020.2,10,Monday,FALSE,FALSE,-7.397071255,8.815486243,FALSE
228,EWR,2013-07-15 20:00,N820UA,2013,7,15,2052,2059,-7,-28,UA,994,BOS,39,200,20,59,179,91.04,68,46.93,320,9.20624,0,1020.4,10,Monday,FALSE,FALSE,-5.917657004,7.052388994,FALSE
229,EWR,2013-07-15 20:00,N258JB,2013,7,15,2040,2045,-5,-5,B6,2680,BOS,41,200,20,45,20,91.04,68,46.93,320,9.20624,0,1020.4,10,Monday,FALSE,FALSE,-5.917657004,7.052388994,FALSE
230,EWR,2013-07-15 21:00,N39423,2013,7,15,2142,2149,-7,-13,UA,1451,BOS,44,200,21,49,191,89.96,69.08,50.39,340,9.20624,0,1020.8,10,Monday,FALSE,FALSE,-3.148719524,8.651035793,FALSE
231,EWR,2013-07-16 6:00,N830UA,2013,7,16,559,604,-5,-26,UA,230,BOS,36,200,6,4,179,80.06,66.02,62.29,10,10.35702,0,1022.1,10,Tuesday,FALSE,FALSE,1.798477649,10.19967359,FALSE
232,EWR,2013-07-16 6:00,N492UA,2013,7,16,653,659,-6,-25,UA,751,BOS,37,200,6,59,200,80.06,66.02,62.29,10,10.35702,0,1022.1,10,Tuesday,FALSE,FALSE,1.798477649,10.19967359,FALSE
233,EWR,2013-07-16 6:00,N216JB,2013,7,16,559,608,-9,-21,B6,2180,BOS,37,200,6,8,20,80.06,66.02,62.29,10,10.35702,0,1022.1,10,Tuesday,FALSE,FALSE,1.798477649,10.19967359,FALSE
234,EWR,2013-07-16 8:00,N368JB,2013,7,16,836,836,0,-2,B6,2280,BOS,36,200,8,36,20,84.92,66.02,53.21,10,14.96014,0,1022.5,10,Tuesday,FALSE,FALSE,2.597801049,14.73286186,FALSE
235,EWR,2013-07-16 8:00,N16703,2013,7,16,814,807,7,5,UA,1199,BOS,38,200,8,7,149,84.92,66.02,53.21,10,14.96014,0,1022.5,10,Tuesday,FALSE,FALSE,2.597801049,14.73286186,FALSE
236,EWR,2013-07-16 10:00,N16701,2013,7,16,1025,1015,10,-4,UA,1163,BOS,35,200,10,15,149,89.96,64.94,43.67,360,9.20624,0,1022.1,10,Tuesday,FALSE,FALSE,-2.25E-15,9.20624,FALSE
237,EWR,2013-07-16 11:00,N373JB,2013,7,16,1118,1125,-7,-21,B6,2380,BOS,35,200,11,25,20,91.94,64.94,41.04,330,13.80936,0,1021.9,10,Tuesday,FALSE,FALSE,-6.90468,11.95925657,FALSE
239,EWR,2013-07-16 14:00,N808UA,2013,7,16,1507,1459,8,1,UA,236,BOS,44,200,14,59,179,93.92,62.96,36.01,360,10.35702,0,1020.8,10,Tuesday,FALSE,FALSE,-2.54E-15,10.35702,FALSE
241,EWR,2013-07-16 16:00,N820UA,2013,7,16,1729,1659,30,27,UA,244,BOS,36,200,16,59,179,93.92,62.96,36.01,20,11.5078,0,1020.3,10,Tuesday,FALSE,FALSE,3.935899405,10.81379474,FALSE
242,EWR,2013-07-16 17:00,N25705,2013,7,16,1753,1742,11,15,UA,1686,BOS,39,200,17,42,149,89.96,64.04,42.31,20,11.5078,0,1020.1,10,Tuesday,FALSE,TRUE,3.935899405,10.81379474,FALSE
243,EWR,2013-07-16 17:00,N179JB,2013,7,16,1727,1730,-3,-11,B6,2580,BOS,37,200,17,30,20,89.96,64.04,42.31,20,11.5078,0,1020.1,10,Tuesday,FALSE,TRUE,3.935899405,10.81379474,FALSE
244,EWR,2013-07-16 19:00,N16703,2013,7,16,1901,1906,-5,8,UA,1142,BOS,35,200,19,6,149,89.06,62.96,41.91,30,11.5078,0,1020.6,10,Tuesday,FALSE,FALSE,5.7539,9.966047142,FALSE
245,EWR,2013-07-16 20:00,N183JB,2013,7,16,2036,2045,-9,2,B6,2680,BOS,39,200,20,45,20,87.08,64.04,46.35,30,9.20624,0,1020.7,10,Tuesday,FALSE,FALSE,4.60312,7.972837713,FALSE
247,EWR,2013-07-16 21:00,N37471,2013,7,16,2131,2129,2,10,UA,1451,BOS,38,200,21,29,191,84.92,64.04,49.66,20,5.7539,0,1021.3,10,Tuesday,FALSE,FALSE,1.967949703,5.406897371,FALSE
249,EWR,2013-07-17 6:00,N424UA,2013,7,17,657,659,-2,-24,UA,751,BOS,36,200,6,59,200,80.06,69.98,71.39,10,4.60312,0,1022,10,Wednesday,FALSE,FALSE,0.7993234,4.533188264,FALSE
250,EWR,2013-07-17 6:00,N229JB,2013,7,17,556,608,-12,-26,B6,2180,BOS,36,200,6,8,20,80.06,69.98,71.39,10,4.60312,0,1022,10,Wednesday,FALSE,FALSE,0.7993234,4.533188264,FALSE
251,EWR,2013-07-17 8:00,N37466,2013,7,17,803,807,-4,-13,UA,1199,BOS,34,200,8,7,191,87.08,69.98,56.92,10,8.05546,0,1022.2,10,Wednesday,FALSE,FALSE,1.398815949,7.933079462,FALSE
252,EWR,2013-07-17 8:00,N187JB,2013,7,17,825,836,-11,-7,B6,2280,BOS,49,200,8,36,20,87.08,69.98,56.92,10,8.05546,0,1022.2,10,Wednesday,FALSE,FALSE,1.398815949,7.933079462,FALSE
253,EWR,2013-07-17 10:00,N828UA,2013,7,17,1008,1015,-7,-13,UA,222,BOS,42,200,10,15,179,91.94,69.08,47.36,0,0,0,1021.9,10,Wednesday,FALSE,FALSE,0,0,FALSE
255,EWR,2013-07-17 12:00,N11206,2013,7,17,1229,1237,-8,-16,UA,1248,BOS,41,200,12,37,149,93.02,68,44.12,0,0,0,1020.8,10,Wednesday,FALSE,FALSE,0,0,FALSE
256,EWR,2013-07-17 14:00,N808UA,2013,7,17,1501,1459,2,-7,UA,236,BOS,38,200,14,59,179,93.02,66.02,41.2,0,0,0,1019.7,10,Wednesday,FALSE,FALSE,0,0,FALSE
257,EWR,2013-07-17 14:00,N316JB,2013,7,17,1357,1400,-3,-11,B6,2480,BOS,43,200,14,0,20,93.02,66.02,41.2,0,0,0,1019.7,10,Wednesday,FALSE,FALSE,0,0,FALSE
258,EWR,2013-07-17 16:00,N806UA,2013,7,17,1732,1659,33,30,UA,244,BOS,47,200,16,59,179,91.94,69.08,47.36,180,9.20624,0,1018.3,10,Wednesday,FALSE,FALSE,1.13E-15,-9.20624,FALSE
259,EWR,2013-07-17 17:00,N38403,2013,7,17,1747,1742,5,-7,UA,1686,BOS,45,200,17,42,191,91.04,69.98,50.23,170,8.05546,0,1018.1,10,Wednesday,FALSE,TRUE,1.398815949,-7.933079462,FALSE
260,EWR,2013-07-17 17:00,N274JB,2013,7,17,1726,1730,-4,0,B6,2580,BOS,51,200,17,30,20,91.04,69.98,50.23,170,8.05546,0,1018.1,10,Wednesday,FALSE,TRUE,1.398815949,-7.933079462,FALSE
262,EWR,2013-07-17 20:00,N317JB,2013,7,17,2050,2045,5,-3,B6,2680,BOS,43,200,20,45,20,87.98,71.06,57.39,150,4.60312,0,1017.8,10,Wednesday,FALSE,FALSE,2.30156,-3.986418857,FALSE
263,EWR,2013-07-17 20:00,N436UA,2013,7,17,2152,2059,53,41,UA,994,BOS,47,200,20,59,200,87.98,71.06,57.39,150,4.60312,0,1017.8,10,Wednesday,FALSE,FALSE,2.30156,-3.986418857,FALSE
264,EWR,2013-07-17 21:00,N38417,2013,7,17,2125,2129,-4,-3,UA,1451,BOS,46,200,21,29,191,86,71.06,61.12,190,9.20624,0,1018.4,10,Wednesday,FALSE,FALSE,-1.598646799,-9.066376528,FALSE
265,EWR,2013-07-18 6:00,N854UA,2013,7,18,557,604,-7,-12,UA,230,BOS,43,200,6,4,179,82.04,71.06,69.43,260,5.7539,0,1017.3,9,Thursday,FALSE,FALSE,-5.66648533,-0.999154249,FALSE
266,EWR,2013-07-18 6:00,N316JB,2013,7,18,557,608,-11,-8,B6,2180,BOS,42,200,6,8,20,82.04,71.06,69.43,260,5.7539,0,1017.3,9,Thursday,FALSE,FALSE,-5.66648533,-0.999154249,FALSE
267,EWR,2013-07-18 6:00,N451UA,2013,7,18,653,659,-6,-27,UA,751,BOS,41,200,6,59,200,82.04,71.06,69.43,260,5.7539,0,1017.3,9,Thursday,FALSE,FALSE,-5.66648533,-0.999154249,FALSE
268,EWR,2013-07-18 8:00,N23707,2013,7,18,758,807,-9,-16,UA,1199,BOS,34,200,8,7,149,89.06,73.04,59.3,310,4.60312,0,1017.5,9,Thursday,FALSE,FALSE,-3.526194497,2.958828502,FALSE
271,EWR,2013-07-18 11:00,N198JB,2013,7,18,1121,1125,-4,-18,B6,2380,BOS,35,200,11,25,20,96.08,71.06,44.57,320,9.20624,0,1017,10,Thursday,FALSE,FALSE,-5.917657004,7.052388994,FALSE
272,EWR,2013-07-18 12:00,N87531,2013,7,18,1236,1237,-1,-25,UA,1248,BOS,36,200,12,37,149,98.06,69.08,39.22,300,9.20624,0,1016.7,10,Thursday,FALSE,FALSE,-7.972837713,4.60312,FALSE
275,EWR,2013-07-18 16:00,N802UA,2013,7,18,1656,1659,-3,2,UA,244,BOS,42,200,16,59,179,98.06,66.92,36.4,310,6.90468,0,1014.6,10,Thursday,FALSE,FALSE,-5.289291746,4.438242753,FALSE
278,EWR,2013-07-18 19:00,N23707,2013,7,18,2033,1906,87,78,UA,1142,BOS,40,200,19,6,149,95,69.08,43.07,270,6.90468,0,1014.8,10,Thursday,FALSE,FALSE,-6.90468,-1.27E-15,FALSE
279,EWR,2013-07-18 20:00,N836UA,2013,7,18,2140,2059,41,97,UA,994,BOS,45,200,20,59,179,93.92,69.98,45.92,260,8.05546,0,1014.8,10,Thursday,FALSE,FALSE,-7.933079462,-1.398815949,FALSE
280,EWR,2013-07-18 20:00,N309JB,2013,7,18,2205,2045,80,101,B6,2680,BOS,46,200,20,45,20,93.92,69.98,45.92,260,8.05546,0,1014.8,10,Thursday,FALSE,FALSE,-7.933079462,-1.398815949,FALSE
282,EWR,2013-07-19 6:00,N37273,2013,7,19,658,650,8,-15,UA,1106,BOS,41,200,6,50,149,82.94,75.92,79.42,240,10.35702,0,1013.9,8,Friday,FALSE,FALSE,-8.969442428,-5.17851,FALSE
283,EWR,2013-07-19 6:00,N229JB,2013,7,19,555,608,-13,-7,B6,2180,BOS,44,200,6,8,20,82.94,75.92,79.42,240,10.35702,0,1013.9,8,Friday,FALSE,FALSE,-8.969442428,-5.17851,FALSE
286,EWR,2013-07-19 8:00,N354JB,2013,7,19,821,836,-15,-11,B6,2280,BOS,47,200,8,36,20,89.06,75.92,65.31,240,9.20624,0,1014.2,9,Friday,FALSE,FALSE,-7.972837713,-4.60312,FALSE
287,EWR,2013-07-19 10:00,N27724,2013,7,19,1011,1015,-4,-14,UA,1163,BOS,43,200,10,15,149,93.92,75.92,56.11,220,11.5078,0,1013.7,9,Friday,FALSE,FALSE,-7.397071255,-8.815486243,FALSE
288,EWR,2013-07-19 11:00,N324JB,2013,7,19,1114,1125,-11,-8,B6,2380,BOS,40,200,11,25,20,96.08,75.02,50.94,240,13.80936,0,1013.1,10,Friday,FALSE,FALSE,-11.95925657,-6.90468,FALSE
289,EWR,2013-07-19 12:00,N76503,2013,7,19,1237,1237,0,-9,UA,1248,BOS,44,200,12,37,149,98.06,73.04,44.86,250,18.41248,0,1012.4,10,Friday,FALSE,FALSE,-17.30207159,-6.297439049,FALSE
290,EWR,2013-07-19 14:00,N198JB,2013,7,19,1408,1400,8,-5,B6,2480,BOS,40,200,14,0,20,98.96,71.06,40.82,250,20.71404,0,1011,10,Friday,FALSE,FALSE,-19.46483053,-7.08461893,FALSE
291,EWR,2013-07-19 14:00,N850UA,2013,7,19,1506,1459,7,-9,UA,779,BOS,47,200,14,59,179,98.96,71.06,40.82,250,20.71404,0,1011,10,Friday,FALSE,FALSE,-19.46483053,-7.08461893,FALSE
292,EWR,2013-07-19 16:00,N836UA,2013,7,19,1716,1659,17,-1,UA,244,BOS,49,200,16,59,179,100.04,71.06,39.51,230,20.71404,0,1009.4,10,Friday,FALSE,FALSE,-15.86787524,-13.31472826,FALSE
294,EWR,2013-07-19 17:00,N17719,2013,7,19,1750,1742,8,12,UA,1136,BOS,42,200,17,42,149,98.06,69.98,40.44,240,19.56326,0,1008.7,10,Friday,FALSE,TRUE,-16.94228014,-9.78163,FALSE
295,EWR,2013-07-19 19:00,N13718,2013,7,19,2021,1906,75,52,UA,1116,BOS,41,200,19,6,149,93.02,73.04,52.39,220,17.2617,0,1009.1,9,Friday,FALSE,FALSE,-11.09560688,-13.22322936,FALSE
296,EWR,2013-07-19 20:00,N346JB,2013,7,19,2243,2045,118,118,B6,2680,BOS,43,200,20,45,20,91.94,73.04,54.18,230,16.11092,0,1010.1,10,Friday,FALSE,FALSE,-12.34168074,-10.35589976,FALSE
298,EWR,2013-07-19 21:00,N38451,2013,7,19,2225,2149,36,42,UA,1451,BOS,43,200,21,49,191,91.04,75.02,59.55,220,16.11092,0,1010.1,10,Friday,FALSE,FALSE,-10.35589976,-12.34168074,FALSE
299,EWR,2013-07-20 6:00,N13908,2013,7,20,634,639,-5,-19,EV,4179,BOS,39,200,6,39,55,80.96,69.08,67.22,240,16.11092,0,1009.1,10,Saturday,TRUE,FALSE,-13.952466,-8.05546,FALSE
300,EWR,2013-07-20 8:00,N238JB,2013,7,20,825,830,-5,-19,B6,2280,BOS,41,200,8,30,20,82.94,69.98,65,230,14.96014,0,1009.3,10,Saturday,TRUE,FALSE,-11.46013212,-9.616192631,FALSE
301,EWR,2013-07-20 8:00,N14905,2013,7,20,817,808,9,1,EV,4162,BOS,40,200,8,8,55,82.94,69.98,65,230,14.96014,0,1009.3,10,Saturday,TRUE,FALSE,-11.46013212,-9.616192631,FALSE
302,EWR,2013-07-20 11:00,N355JB,2013,7,20,1119,1125,-6,-14,B6,2380,BOS,41,200,11,25,20,91.04,69.98,50.23,220,16.11092,0,1008.1,10,Saturday,TRUE,FALSE,-10.35589976,-12.34168074,FALSE
303,EWR,2013-07-20 14:00,N294JB,2013,7,20,1357,1400,-3,-18,B6,2480,BOS,39,200,14,0,20,93.92,71.06,47.64,270,16.11092,0,1007.2,10,Saturday,TRUE,FALSE,-16.11092,-2.96E-15,FALSE
304,EWR,2013-07-20 15:00,N14230,2013,7,20,1514,1508,6,-1,UA,1425,BOS,48,200,15,8,149,93.02,71.06,48.99,260,14.96014,0,1006.8,10,Saturday,TRUE,FALSE,-14.73286186,-2.597801049,FALSE
305,EWR,2013-07-20 17:00,N354JB,2013,7,20,1724,1730,-6,-12,B6,2580,BOS,50,200,17,30,20,93.92,69.08,44.53,260,16.11092,0,1006.8,10,Saturday,TRUE,TRUE,-15.86615892,-2.797631899,FALSE
306,EWR,2013-07-20 19:00,N77261,2013,7,20,2106,1912,114,95,UA,1116,BOS,42,200,19,12,149,80.96,73.04,76.9,200,6.90468,0,1008.4,9,Saturday,TRUE,FALSE,-2.361539643,-6.488276845,FALSE
309,EWR,2013-07-21 7:00,N547UA,2013,7,21,716,720,-4,-12,UA,440,BOS,34,200,7,20,178,78.08,62.06,57.87,30,9.20624,0,1012.5,10,Sunday,TRUE,FALSE,4.60312,7.972837713,FALSE
310,EWR,2013-07-21 8:00,N193JB,2013,7,21,821,830,-9,-32,B6,2280,BOS,33,200,8,30,20,80.06,62.96,55.97,20,9.20624,0,1013,10,Sunday,TRUE,FALSE,3.148719524,8.651035793,FALSE
311,EWR,2013-07-21 11:00,N279JB,2013,7,21,1127,1125,2,-7,B6,2380,BOS,37,200,11,25,20,84.92,57.92,39.97,90,4.60312,0,1013.5,10,Sunday,TRUE,FALSE,4.60312,2.82E-16,FALSE
312,EWR,2013-07-21 12:00,N462UA,2013,7,21,1222,1234,-12,-33,UA,244,BOS,33,200,12,34,200,86,59,40.14,60,4.60312,0,1013.7,10,Sunday,TRUE,FALSE,3.986418857,2.30156,FALSE
314,EWR,2013-07-21 14:00,N355JB,2013,7,21,1350,1400,-10,-33,B6,2480,BOS,36,200,14,0,20,87.08,64.04,46.35,130,9.20624,0,1013.4,10,Sunday,TRUE,FALSE,7.052388994,-5.917657004,FALSE
318,EWR,2013-07-21 19:00,N498UA,2013,7,21,1956,1920,36,46,UA,994,BOS,36,200,19,20,200,80.06,64.94,59.99,160,6.90468,0,1013.2,10,Sunday,TRUE,FALSE,2.361539643,-6.488276845,FALSE
319,EWR,2013-07-21 20:00,N353JB,2013,7,21,2038,2045,-7,-11,B6,2680,BOS,35,200,20,45,20,78.98,64.94,62.16,150,4.60312,0,1013.9,10,Sunday,TRUE,FALSE,2.30156,-3.986418857,FALSE
320,EWR,2013-07-21 21:00,N37464,2013,7,21,2154,2155,-1,-29,UA,1686,BOS,36,200,21,55,191,78.98,66.92,66.58,0,0,0,1014.4,10,Sunday,TRUE,FALSE,0,0,FALSE
321,EWR,2013-07-21 21:00,N73291,2013,7,21,2110,2106,4,-19,UA,1163,BOS,35,200,21,6,149,78.98,66.92,66.58,0,0,0,1014.4,10,Sunday,TRUE,FALSE,0,0,FALSE
322,EWR,2013-07-22 6:00,N407UA,2013,7,22,648,649,-1,-23,UA,475,BOS,35,200,6,49,200,77,71.06,81.92,50,4.60312,0,1013.8,9,Monday,FALSE,FALSE,3.526194497,2.958828502,FALSE
323,EWR,2013-07-22 6:00,N453UA,2013,7,22,653,659,-6,-29,UA,751,BOS,34,200,6,59,200,77,71.06,81.92,50,4.60312,0,1013.8,9,Monday,FALSE,FALSE,3.526194497,2.958828502,FALSE
324,EWR,2013-07-22 6:00,N410UA,2013,7,22,601,604,-3,-30,UA,230,BOS,32,200,6,4,200,77,71.06,81.92,50,4.60312,0,1013.8,9,Monday,FALSE,FALSE,3.526194497,2.958828502,FALSE
329,EWR,2013-07-22 11:00,N228JB,2013,7,22,1121,1125,-4,-19,B6,2380,BOS,39,200,11,25,20,82.94,71.06,67.44,50,6.90468,0,1013.5,9,Monday,FALSE,FALSE,5.289291746,4.438242753,FALSE
331,EWR,2013-07-22 14:00,N829UA,2013,7,22,1502,1459,3,-12,UA,236,BOS,33,200,14,59,179,86,71.06,61.12,120,9.20624,0,1011.9,9,Monday,FALSE,FALSE,7.972837713,-4.60312,FALSE
332,EWR,2013-07-22 14:00,N292JB,2013,7,22,1359,1400,-1,-2,B6,2480,BOS,35,200,14,0,20,86,71.06,61.12,120,9.20624,0,1011.9,9,Monday,FALSE,FALSE,7.972837713,-4.60312,FALSE
333,EWR,2013-07-22 16:00,N832UA,2013,7,22,1708,1659,9,11,UA,248,BOS,37,200,16,59,179,82.94,73.04,72.11,150,6.90468,0,1010.8,10,Monday,FALSE,FALSE,3.45234,-5.979628285,FALSE
334,EWR,2013-07-22 17:00,N38727,2013,7,22,1832,1742,50,55,UA,1686,BOS,37,200,17,42,149,80.06,73.94,81.63,130,9.20624,0,1010.5,10,Monday,FALSE,TRUE,7.052388994,-5.917657004,FALSE
335,EWR,2013-07-22 17:00,N294JB,2013,7,22,1859,1730,89,149,B6,2580,BOS,38,200,17,30,20,80.06,73.94,81.63,130,9.20624,0,1010.5,10,Monday,FALSE,TRUE,7.052388994,-5.917657004,FALSE
338,EWR,2013-07-22 20:00,N306JB,2013,7,22,2114,2045,29,38,B6,2680,BOS,37,200,20,45,20,77,75.02,93.62,140,4.60312,0,1010.2,6,Monday,FALSE,FALSE,2.958828502,-3.526194497,FALSE
340,EWR,2013-07-23 6:00,N442UA,2013,7,23,654,659,-5,-11,UA,751,BOS,55,200,6,59,200,73.94,71.06,90.73,210,9.20624,0,1004.9,10,Tuesday,FALSE,FALSE,-4.60312,-7.972837713,FALSE
341,EWR,2013-07-23 6:00,N316JB,2013,7,23,602,608,-6,-17,B6,2180,BOS,36,200,6,8,20,73.94,71.06,90.73,210,9.20624,0,1004.9,10,Tuesday,FALSE,FALSE,-4.60312,-7.972837713,FALSE
342,EWR,2013-07-23 6:00,N845UA,2013,7,23,600,604,-4,-32,UA,230,BOS,34,200,6,4,179,73.94,71.06,90.73,210,9.20624,0,1004.9,10,Tuesday,FALSE,FALSE,-4.60312,-7.972837713,FALSE
343,EWR,2013-07-23 8:00,N38727,2013,7,23,800,807,-7,-23,UA,1199,BOS,40,200,8,7,149,75.92,71.06,84.92,250,10.35702,0,1004.3,10,Tuesday,FALSE,FALSE,-9.732415267,-3.542309465,FALSE
346,EWR,2013-07-23 11:00,N358JB,2013,7,23,1123,1125,-2,-8,B6,2380,BOS,45,200,11,25,20,84.02,71.06,65.13,250,9.20624,0,1003.5,10,Tuesday,FALSE,FALSE,-8.651035793,-3.148719524,FALSE
347,EWR,2013-07-23 12:00,N76522,2013,7,23,1242,1237,5,46,UA,1248,BOS,92,200,12,37,149,84.02,71.06,65.13,240,9.20624,0,1003.3,10,Tuesday,FALSE,FALSE,-7.972837713,-4.60312,FALSE
348,EWR,2013-07-23 14:00,N284JB,2013,7,23,1605,1400,125,200,B6,2480,BOS,99,200,14,0,20,87.08,69.98,56.92,220,12.65858,0,1002.2,10,Tuesday,FALSE,FALSE,-8.13677838,-9.697034867,FALSE
350,EWR,2013-07-23 16:00,N854UA,2013,7,23,1934,1659,155,187,UA,244,BOS,42,200,16,59,179,87.08,69.98,56.92,280,16.11092,0,1001.5,8,Tuesday,FALSE,FALSE,-15.86615892,2.797631899,FALSE
351,EWR,2013-07-23 17:00,N16732,2013,7,23,2017,1742,155,149,UA,1686,BOS,42,200,17,42,149,84.92,69.08,59.14,240,16.11092,0,1001.3,10,Tuesday,FALSE,TRUE,-13.952466,-8.05546,FALSE
352,EWR,2013-07-23 17:00,N249JB,2013,7,23,2006,1730,156,157,B6,2580,BOS,44,200,17,30,20,84.92,69.08,59.14,240,16.11092,0,1001.3,10,Tuesday,FALSE,TRUE,-13.952466,-8.05546,FALSE
355,EWR,2013-07-23 20:00,N193JB,2013,7,23,2301,2045,136,133,B6,2680,BOS,44,200,20,45,20,82.94,71.06,67.44,290,9.20624,0,1002.2,10,Tuesday,FALSE,FALSE,-8.651035793,3.148719524,FALSE
356,EWR,2013-07-23 21:00,N39475,2013,7,23,2306,2129,97,88,UA,1451,BOS,47,200,21,29,191,82.04,69.98,66.93,280,8.05546,0,1003,10,Tuesday,FALSE,FALSE,-7.933079462,1.398815949,FALSE
357,EWR,2013-07-24 6:00,N438UA,2013,7,24,656,659,-3,-20,UA,751,BOS,42,200,6,59,200,73.94,66.92,78.72,270,5.7539,0,1004.3,10,Wednesday,FALSE,FALSE,-5.7539,-1.06E-15,FALSE
358,EWR,2013-07-24 6:00,N833UA,2013,7,24,600,604,-4,-16,UA,252,BOS,45,200,6,4,179,73.94,66.92,78.72,270,5.7539,0,1004.3,10,Wednesday,FALSE,FALSE,-5.7539,-1.06E-15,FALSE
359,EWR,2013-07-24 6:00,N203JB,2013,7,24,613,608,5,8,B6,2180,BOS,42,200,6,8,20,73.94,66.92,78.72,270,5.7539,0,1004.3,10,Wednesday,FALSE,FALSE,-5.7539,-1.06E-15,FALSE
360,EWR,2013-07-24 8:00,N247JB,2013,7,24,904,836,28,26,B6,2280,BOS,34,200,8,36,20,80.06,64.04,58.14,320,12.65858,0,1005.7,10,Wednesday,FALSE,FALSE,-8.13677838,9.697034867,FALSE
362,EWR,2013-07-24 10:00,N839UA,2013,7,24,1009,1015,-6,-18,UA,439,BOS,36,200,10,15,179,82.94,64.94,54.63,310,10.35702,0,1006.6,10,Wednesday,FALSE,FALSE,-7.933937618,6.657364129,FALSE
364,EWR,2013-07-24 12:00,N18220,2013,7,24,1237,1237,0,-17,UA,1248,BOS,40,200,12,37,149,80.96,64.04,56.45,310,13.80936,0,1007.9,10,Wednesday,FALSE,FALSE,-10.57858349,8.876485506,FALSE
366,EWR,2013-07-24 14:00,N298JB,2013,7,24,1450,1400,50,37,B6,2480,BOS,42,200,14,0,20,82.94,62.06,49.37,310,12.65858,0,1008.6,10,Wednesday,FALSE,FALSE,-9.697034867,8.13677838,FALSE
367,EWR,2013-07-24 16:00,N470UA,2013,7,24,1654,1659,-5,-29,UA,244,BOS,45,200,16,59,200,80.06,60.08,50.55,340,11.5078,0,1008.5,10,Wednesday,FALSE,FALSE,-3.935899405,10.81379474,FALSE
368,EWR,2013-07-24 17:00,N15710,2013,7,24,1817,1742,35,46,UA,1686,BOS,33,200,17,42,149,80.06,59,48.64,350,8.05546,0,1008.8,10,Wednesday,FALSE,TRUE,-1.398815949,7.933079462,FALSE
369,EWR,2013-07-24 17:00,N179JB,2013,7,24,1759,1730,29,45,B6,2580,BOS,34,200,17,30,20,80.06,59,48.64,350,8.05546,0,1008.8,10,Wednesday,FALSE,TRUE,-1.398815949,7.933079462,FALSE
370,EWR,2013-07-24 19:00,N33714,2013,7,24,1908,1906,2,15,UA,1142,BOS,33,200,19,6,149,78.08,55.04,45,320,12.65858,0,1010.4,10,Wednesday,FALSE,FALSE,-8.13677838,9.697034867,FALSE
371,EWR,2013-07-24 20:00,N819UA,2013,7,24,2102,2059,3,8,UA,994,BOS,33,200,20,59,179,75.92,55.04,48.34,320,14.96014,0,1011.2,10,Wednesday,FALSE,FALSE,-9.616192631,11.46013212,FALSE
372,EWR,2013-07-24 20:00,N296JB,2013,7,24,2114,2045,29,43,B6,2680,BOS,37,200,20,45,20,75.92,55.04,48.34,320,14.96014,0,1011.2,10,Wednesday,FALSE,FALSE,-9.616192631,11.46013212,FALSE
373,EWR,2013-07-24 21:00,N75425,2013,7,24,2134,2129,5,11,UA,1451,BOS,34,200,21,29,191,73.04,55.04,53.24,330,11.5078,0,1012.3,10,Wednesday,FALSE,FALSE,-5.7539,9.966047142,FALSE
375,EWR,2013-07-25 6:00,N825UA,2013,7,25,600,604,-4,-7,UA,230,BOS,34,200,6,4,179,64.04,48.02,55.95,20,19.56326,0,1014.7,10,Thursday,FALSE,FALSE,6.691028989,18.38345106,FALSE
376,EWR,2013-07-25 6:00,N316JB,2013,7,25,603,608,-5,-12,B6,2180,BOS,35,200,6,8,20,64.04,48.02,55.95,20,19.56326,0,1014.7,10,Thursday,FALSE,FALSE,6.691028989,18.38345106,FALSE
377,EWR,2013-07-25 8:00,N337JB,2013,7,25,831,836,-5,-21,B6,2280,BOS,38,200,8,36,20,64.94,51.08,60.77,20,14.96014,0,1016.4,10,Thursday,FALSE,FALSE,5.116669227,14.05793316,FALSE
378,EWR,2013-07-25 8:00,N23707,2013,7,25,803,807,-4,-17,UA,1199,BOS,36,200,8,7,149,64.94,51.08,60.77,20,14.96014,0,1016.4,10,Thursday,FALSE,FALSE,5.116669227,14.05793316,FALSE
381,EWR,2013-07-25 12:00,N33284,2013,7,25,1239,1237,2,-18,UA,1248,BOS,37,200,12,37,149,66.92,53.96,63.08,20,14.96014,0,1017.2,10,Thursday,FALSE,FALSE,5.116669227,14.05793316,FALSE
382,EWR,2013-07-25 14:00,N809UA,2013,7,25,1458,1459,-1,-17,UA,236,BOS,42,200,14,59,179,66.92,55.94,67.79,10,12.65858,0,1017.2,10,Thursday,FALSE,FALSE,2.198139349,12.46626773,FALSE
384,EWR,2013-07-25 16:00,N819UA,2013,7,25,1736,1659,37,40,UA,244,BOS,50,200,16,59,179,66.92,57.02,70.49,30,13.80936,0,1017.1,10,Thursday,FALSE,FALSE,6.90468,11.95925657,FALSE
385,EWR,2013-07-25 17:00,N13718,2013,7,25,1936,1742,114,97,UA,1686,BOS,38,200,17,42,149,68,57.02,67.91,30,12.65858,0,1016.9,10,Thursday,FALSE,TRUE,6.32929,10.96265186,FALSE
386,EWR,2013-07-25 17:00,N265JB,2013,7,25,1831,1730,61,64,B6,2580,BOS,42,200,17,30,20,68,57.02,67.91,30,12.65858,0,1016.9,10,Thursday,FALSE,TRUE,6.32929,10.96265186,FALSE
388,EWR,2013-07-25 20:00,N334JB,2013,7,25,6,2045,201,183,B6,2680,BOS,36,200,20,45,20,68,57.02,67.91,30,9.20624,0,1017.2,10,Thursday,FALSE,FALSE,4.60312,7.972837713,FALSE
392,EWR,2013-07-26 6:00,N33264,2013,7,26,646,650,-4,-10,UA,1106,BOS,54,200,6,50,149,68,59,72.92,360,11.5078,0,1016.4,10,Friday,FALSE,FALSE,-2.82E-15,11.5078,FALSE
393,EWR,2013-07-26 6:00,N817UA,2013,7,26,600,604,-4,-22,UA,230,BOS,38,200,6,4,179,68,59,72.92,360,11.5078,0,1016.4,10,Friday,FALSE,FALSE,-2.82E-15,11.5078,FALSE
394,EWR,2013-07-26 8:00,N39726,2013,7,26,801,807,-6,-17,UA,1199,BOS,39,200,8,7,149,69.98,59,68.13,340,11.5078,0,1017,10,Friday,FALSE,FALSE,-3.935899405,10.81379474,FALSE
395,EWR,2013-07-26 8:00,N292JB,2013,7,26,827,836,-9,8,B6,2280,BOS,46,200,8,36,20,69.98,59,68.13,340,11.5078,0,1017,10,Friday,FALSE,FALSE,-3.935899405,10.81379474,FALSE
397,EWR,2013-07-26 11:00,N346JB,2013,7,26,1124,1125,-1,24,B6,2380,BOS,48,200,11,25,20,75.02,59,57.47,280,5.7539,0,1017,10,Friday,FALSE,FALSE,-5.66648533,0.999154249,FALSE
398,EWR,2013-07-26 12:00,N26226,2013,7,26,1235,1237,-2,4,UA,1248,BOS,45,200,12,37,149,80.06,60.08,50.55,300,4.60312,0,1016.6,10,Friday,FALSE,FALSE,-3.986418857,2.30156,FALSE
399,EWR,2013-07-26 14:00,N817UA,2013,7,26,1453,1459,-6,-19,UA,779,BOS,43,200,14,59,179,82.94,55.94,39.67,270,8.05546,0,1016,10,Friday,FALSE,FALSE,-8.05546,-1.48E-15,FALSE
400,EWR,2013-07-26 14:00,N239JB,2013,7,26,1446,1400,46,39,B6,2480,BOS,45,200,14,0,20,82.94,55.94,39.67,270,8.05546,0,1016,10,Friday,FALSE,FALSE,-8.05546,-1.48E-15,FALSE
401,EWR,2013-07-26 16:00,N810UA,2013,7,26,1654,1659,-5,-6,UA,244,BOS,45,200,16,59,179,82.04,59,45.6,260,9.20624,0,1015.7,10,Friday,FALSE,FALSE,-9.066376528,-1.598646799,FALSE
402,EWR,2013-07-26 17:00,N14704,2013,7,26,1739,1742,-3,-8,UA,1136,BOS,43,200,17,42,149,82.94,57.02,41.25,260,14.96014,0,1015.5,10,Friday,FALSE,TRUE,-14.73286186,-2.597801049,FALSE
404,EWR,2013-07-26 19:00,N17730,2013,7,26,1948,1906,42,34,UA,1116,BOS,43,200,19,6,149,80.96,55.04,40.94,240,9.20624,0,1015.9,10,Friday,FALSE,FALSE,-7.972837713,-4.60312,FALSE
405,EWR,2013-07-26 20:00,N274JB,2013,7,26,2113,2045,28,29,B6,2680,BOS,42,200,20,45,20,78.98,55.04,43.68,230,11.5078,0,1016.2,10,Friday,FALSE,FALSE,-8.815486243,-7.397071255,FALSE
406,EWR,2013-07-26 20:00,N459UA,2013,7,26,2054,2059,-5,-10,UA,994,BOS,42,200,20,59,200,78.98,55.04,43.68,230,11.5078,0,1016.2,10,Friday,FALSE,FALSE,-8.815486243,-7.397071255,FALSE
407,EWR,2013-07-26 21:00,N39463,2013,7,26,2143,2149,-6,-8,UA,1451,BOS,42,200,21,49,191,75.92,57.92,53.65,200,10.35702,0,1016.8,10,Friday,FALSE,FALSE,-3.542309465,-9.732415267,FALSE
408,EWR,2013-07-27 6:00,N13994,2013,7,27,649,639,10,-7,EV,4179,BOS,40,200,6,39,55,69.08,64.94,86.66,250,4.60312,0,1017.4,9,Saturday,TRUE,FALSE,-4.325517897,-1.574359762,FALSE
410,EWR,2013-07-27 8:00,N236JB,2013,7,27,823,830,-7,-20,B6,2280,BOS,41,200,8,30,20,75.02,64.94,70.88,230,5.7539,0,1017.5,10,Saturday,TRUE,FALSE,-4.407743121,-3.698535627,FALSE
411,EWR,2013-07-27 11:00,N265JB,2013,7,27,1111,1125,-14,-24,B6,2380,BOS,41,200,11,25,20,80.06,62.06,54.23,210,5.7539,0,1017.6,10,Saturday,TRUE,FALSE,-2.87695,-4.983023571,FALSE
413,EWR,2013-07-27 15:00,N78501,2013,7,27,1526,1508,18,8,UA,1425,BOS,35,200,15,8,149,82.04,62.06,50.84,130,11.5078,0,1015.6,10,Saturday,TRUE,FALSE,8.815486243,-7.397071255,FALSE
414,EWR,2013-07-27 17:00,N358JB,2013,7,27,1723,1730,-7,-14,B6,2580,BOS,41,200,17,30,20,78.98,60.08,52.37,140,11.5078,0,1014.7,10,Saturday,TRUE,TRUE,7.397071255,-8.815486243,FALSE
415,EWR,2013-07-27 19:00,N37263,2013,7,27,1933,1912,21,-2,UA,1116,BOS,40,200,19,12,149,75.02,64.04,68.69,150,11.5078,0,1015.3,10,Saturday,TRUE,FALSE,5.7539,-9.966047142,FALSE
417,EWR,2013-07-27 21:00,N37252,2013,7,27,2137,2129,8,-19,UA,1248,BOS,42,200,21,29,149,73.04,64.94,75.75,180,4.60312,0,1015.8,10,Saturday,TRUE,FALSE,5.64E-16,-4.60312,FALSE
418,EWR,2013-07-28 7:00,N566UA,2013,7,28,723,720,3,-10,UA,440,BOS,37,200,7,20,178,71.96,68,87.35,160,4.60312,0,1015.2,10,Sunday,TRUE,FALSE,1.574359762,-4.325517897,FALSE
420,EWR,2013-07-28 11:00,N339JB,2013,7,28,1119,1125,-6,3,B6,2380,BOS,47,200,11,25,20,75.92,68,76.48,140,10.35702,0,1014.6,10,Sunday,TRUE,FALSE,6.657364129,-7.933937618,FALSE
421,EWR,2013-07-28 12:00,N439UA,2013,7,28,1231,1234,-3,-18,UA,244,BOS,39,200,12,34,200,75.02,68,78.81,140,10.35702,0,1014.7,10,Sunday,TRUE,FALSE,6.657364129,-7.933937618,FALSE
422,EWR,2013-07-28 14:00,N292JB,2013,7,28,1405,1400,5,-9,B6,2480,BOS,36,200,14,0,20,78.08,69.08,73.88,150,6.90468,0,1013.6,10,Sunday,TRUE,FALSE,3.45234,-5.979628285,FALSE
423,EWR,2013-07-28 14:00,N73406,2013,7,28,1450,1455,-5,-16,UA,1116,BOS,39,200,14,55,191,78.08,69.08,73.88,150,6.90468,0,1013.6,10,Sunday,TRUE,FALSE,3.45234,-5.979628285,FALSE
424,EWR,2013-07-28 16:00,N36444,2013,7,28,1627,1630,-3,-17,UA,1090,BOS,43,200,16,30,191,78.08,69.08,73.88,130,12.65858,0,1013.2,10,Sunday,TRUE,FALSE,9.697034867,-8.13677838,FALSE
431,EWR,2013-07-29 6:00,N474UA,2013,7,29,618,604,14,-14,UA,230,BOS,35,200,6,4,200,69.98,68,93.44,270,5.7539,0,1015.5,10,Monday,FALSE,FALSE,-5.7539,-1.06E-15,FALSE
432,EWR,2013-07-29 6:00,N238JB,2013,7,29,603,608,-5,-20,B6,2180,BOS,35,200,6,8,20,69.98,68,93.44,270,5.7539,0,1015.5,10,Monday,FALSE,FALSE,-5.7539,-1.06E-15,FALSE
433,EWR,2013-07-29 6:00,N498UA,2013,7,29,707,649,18,12,UA,475,BOS,36,200,6,49,200,69.98,68,93.44,270,5.7539,0,1015.5,10,Monday,FALSE,FALSE,-5.7539,-1.06E-15,FALSE
434,EWR,2013-07-29 6:00,N431UA,2013,7,29,657,659,-2,-27,UA,751,BOS,33,200,6,59,200,69.98,68,93.44,270,5.7539,0,1015.5,10,Monday,FALSE,FALSE,-5.7539,-1.06E-15,FALSE
435,EWR,2013-07-29 8:00,N236JB,2013,7,29,840,836,4,-2,B6,2280,BOS,42,200,8,36,20,77,62.06,59.98,350,5.7539,0,1016.4,10,Monday,FALSE,FALSE,-0.999154249,5.66648533,FALSE
439,EWR,2013-07-29 12:00,N24212,2013,7,29,1237,1237,0,-8,UA,1248,BOS,48,200,12,37,149,84.02,64.04,51.12,220,6.90468,0,1016.3,10,Monday,FALSE,FALSE,-4.438242753,-5.289291746,FALSE
440,EWR,2013-07-29 14:00,N358JB,2013,7,29,1514,1400,74,59,B6,2480,BOS,39,200,14,0,20,86,62.06,44.75,280,9.20624,0,1016.2,10,Monday,FALSE,FALSE,-9.066376528,1.598646799,FALSE
441,EWR,2013-07-29 14:00,N843UA,2013,7,29,1548,1459,49,28,UA,236,BOS,37,200,14,59,179,86,62.06,44.75,280,9.20624,0,1016.2,10,Monday,FALSE,FALSE,-9.066376528,1.598646799,FALSE
442,EWR,2013-07-29 16:00,N806UA,2013,7,29,1703,1659,4,-7,UA,248,BOS,47,200,16,59,179,86,57.02,37.38,260,17.2617,0,1016.3,10,Monday,FALSE,FALSE,-16.99945599,-2.997462748,FALSE
443,EWR,2013-07-29 17:00,N23721,2013,7,29,1739,1742,-3,-7,UA,1686,BOS,37,200,17,42,149,84.02,48.02,28.6,280,12.65858,0,1016.5,10,Monday,FALSE,TRUE,-12.46626773,2.198139349,FALSE
444,EWR,2013-07-29 17:00,N238JB,2013,7,29,1740,1730,10,19,B6,2580,BOS,38,200,17,30,20,84.02,48.02,28.6,280,12.65858,0,1016.5,10,Monday,FALSE,TRUE,-12.46626773,2.198139349,FALSE
445,EWR,2013-07-29 19:00,N24702,2013,7,29,1904,1906,-2,4,UA,1116,BOS,39,200,19,6,149,80.06,51.98,37.69,260,12.65858,0,1017.5,10,Monday,FALSE,FALSE,-12.46626773,-2.198139349,FALSE
446,EWR,2013-07-29 20:00,N853UA,2013,7,29,2102,2059,3,-11,UA,994,BOS,44,200,20,59,179,78.08,53.06,41.86,260,8.05546,0,1018.1,10,Monday,FALSE,FALSE,-7.933079462,-1.398815949,FALSE
447,EWR,2013-07-29 20:00,N346JB,2013,7,29,2028,2045,-17,-9,B6,2680,BOS,44,200,20,45,20,78.08,53.06,41.86,260,8.05546,0,1018.1,10,Monday,FALSE,FALSE,-7.933079462,-1.398815949,FALSE
450,EWR,2013-07-30 6:00,N353JB,2013,7,30,603,608,-5,-19,B6,2180,BOS,35,200,6,8,20,66.92,55.94,67.79,270,5.7539,0,1021.1,10,Tuesday,FALSE,FALSE,-5.7539,-1.06E-15,FALSE
451,EWR,2013-07-30 6:00,N841UA,2013,7,30,626,604,22,5,UA,230,BOS,38,200,6,4,179,66.92,55.94,67.79,270,5.7539,0,1021.1,10,Tuesday,FALSE,FALSE,-5.7539,-1.06E-15,FALSE
453,EWR,2013-07-30 8:00,N292JB,2013,7,30,829,836,-7,-11,B6,2280,BOS,35,200,8,36,20,73.94,53.96,49.66,320,12.65858,0,1021.6,10,Tuesday,FALSE,FALSE,-8.13677838,9.697034867,FALSE
454,EWR,2013-07-30 10:00,N27724,2013,7,30,1008,1015,-7,-24,UA,1163,BOS,36,200,10,15,149,78.98,55.94,45.14,320,6.90468,0,1021.2,10,Tuesday,FALSE,FALSE,-4.438242753,5.289291746,FALSE
455,EWR,2013-07-30 11:00,N373JB,2013,7,30,1114,1125,-11,-17,B6,2380,BOS,43,200,11,25,20,80.96,53.96,39.36,300,9.20624,0,1020.9,10,Tuesday,FALSE,FALSE,-7.972837713,4.60312,FALSE
456,EWR,2013-07-30 12:00,N73251,2013,7,30,1238,1237,1,-17,UA,1248,BOS,38,200,12,37,149,82.04,53.96,38,320,16.11092,0,1020.5,10,Tuesday,FALSE,FALSE,-10.35589976,12.34168074,FALSE
459,EWR,2013-07-30 16:00,N830UA,2013,7,30,1738,1659,39,35,UA,244,BOS,36,200,16,59,179,80.96,53.06,38.08,320,10.35702,0,1019.3,10,Tuesday,FALSE,FALSE,-6.657364129,7.933937618,FALSE
460,EWR,2013-07-30 17:00,N304JB,2013,7,30,1729,1730,-1,-15,B6,2580,BOS,36,200,17,30,20,80.06,53.06,39.22,310,9.20624,0,1019.4,10,Tuesday,FALSE,TRUE,-7.052388994,5.917657004,FALSE
461,EWR,2013-07-30 17:00,N14230,2013,7,30,1749,1742,7,-7,UA,1686,BOS,40,200,17,42,149,80.06,53.06,39.22,310,9.20624,0,1019.4,10,Tuesday,FALSE,TRUE,-7.052388994,5.917657004,FALSE
463,EWR,2013-07-30 20:00,N274JB,2013,7,30,2035,2045,-10,-27,B6,2680,BOS,38,200,20,45,20,75.92,55.94,49.95,280,6.90468,0,1020,10,Tuesday,FALSE,FALSE,-6.799782396,1.198985099,FALSE
464,EWR,2013-07-30 20:00,N841UA,2013,7,30,2056,2059,-3,-31,UA,994,BOS,36,200,20,59,179,75.92,55.94,49.95,280,6.90468,0,1020,10,Tuesday,FALSE,FALSE,-6.799782396,1.198985099,FALSE
465,EWR,2013-07-30 21:00,N37420,2013,7,30,2125,2129,-4,-27,UA,1451,BOS,35,200,21,29,191,75.02,57.02,53.52,280,4.60312,0,1020.3,10,Tuesday,FALSE,FALSE,-4.533188264,0.7993234,FALSE
466,EWR,2013-07-31 6:00,N249JB,2013,7,31,924,608,196,202,B6,2180,BOS,35,200,6,8,20,68,57.92,70.15,260,3.45234,0,1021.1,10,Wednesday,FALSE,FALSE,-3.399891198,-0.59949255,FALSE
467,EWR,2013-07-31 6:00,N484UA,2013,7,31,654,659,-5,-24,UA,751,BOS,38,200,6,59,200,68,57.92,70.15,260,3.45234,0,1021.1,10,Wednesday,FALSE,FALSE,-3.399891198,-0.59949255,FALSE
468,EWR,2013-07-31 6:00,N853UA,2013,7,31,609,604,5,-19,UA,252,BOS,36,200,6,4,179,68,57.92,70.15,260,3.45234,0,1021.1,10,Wednesday,FALSE,FALSE,-3.399891198,-0.59949255,FALSE
469,EWR,2013-07-31 8:00,N283JB,2013,7,31,832,836,-4,-7,B6,2280,BOS,38,200,8,36,20,75.92,55.94,49.95,360,4.60312,0,1021.2,10,Wednesday,FALSE,FALSE,-1.13E-15,4.60312,FALSE
470,EWR,2013-07-31 8:00,N24702,2013,7,31,800,807,-7,-12,UA,1199,BOS,37,200,8,7,149,75.92,55.94,49.95,360,4.60312,0,1021.2,10,Wednesday,FALSE,FALSE,-1.13E-15,4.60312,FALSE
471,EWR,2013-07-31 10:00,N833UA,2013,7,31,1008,1015,-7,-18,UA,439,BOS,42,200,10,15,179,80.96,55.04,40.94,0,0,0,1020.6,10,Wednesday,FALSE,FALSE,0,0,FALSE
472,EWR,2013-07-31 11:00,N334JB,2013,7,31,1121,1125,-4,-15,B6,2380,BOS,38,200,11,25,20,78.98,55.94,45.14,0,0,0,1020.2,10,Wednesday,FALSE,FALSE,0,0,FALSE
474,EWR,2013-07-31 14:00,N183JB,2013,7,31,1434,1400,34,20,B6,2480,BOS,37,200,14,0,20,80.06,59,48.64,180,11.5078,0,1018.8,10,Wednesday,FALSE,FALSE,1.41E-15,-11.5078,FALSE
476,EWR,2013-07-31 16:00,N841UA,2013,7,31,1712,1659,13,-14,UA,244,BOS,40,200,16,59,179,80.06,60.08,50.55,160,9.20624,0,1017.9,10,Wednesday,FALSE,FALSE,3.148719524,-8.651035793,FALSE
477,EWR,2013-07-31 17:00,N374JB,2013,7,31,1718,1730,-12,-11,B6,2580,BOS,47,200,17,30,20,78.98,62.06,56.18,150,9.20624,0,1017.6,10,Wednesday,FALSE,TRUE,4.60312,-7.972837713,FALSE
478,EWR,2013-07-31 17:00,N54711,2013,7,31,1803,1742,21,7,UA,1686,BOS,36,200,17,42,149,78.98,62.06,56.18,150,9.20624,0,1017.6,10,Wednesday,FALSE,TRUE,4.60312,-7.972837713,FALSE
480,EWR,2013-07-31 20:00,N197JB,2013,7,31,2040,2045,-5,-5,B6,2680,BOS,45,200,20,45,20,75.92,60.98,59.84,180,11.5078,0,1017.3,10,Wednesday,FALSE,FALSE,1.41E-15,-11.5078,FALSE
481,EWR,2013-07-31 20:00,N818UA,2013,7,31,2056,2059,-3,-21,UA,994,BOS,40,200,20,59,179,75.92,60.98,59.84,180,11.5078,0,1017.3,10,Wednesday,FALSE,FALSE,1.41E-15,-11.5078,FALSE
482,EWR,2013-07-31 21:00,N37419,2013,7,31,2150,2129,21,19,UA,1451,BOS,47,200,21,29,191,73.94,60.98,63.94,200,9.20624,0,1017.6,10,Wednesday,FALSE,FALSE,-3.148719524,-8.651035793,FALSE
483,JFK,2013-07-01 6:00,N298JB,2013,7,1,646,645,1,2,B6,318,BOS,41,187,6,45,20,71.96,69.98,93.49,180,8.05546,0,1014.2,0.5,Monday,FALSE,FALSE,9.86E-16,-8.05546,FALSE
485,JFK,2013-07-01 9:00,N326NB,2013,7,1,929,915,14,12,DL,867,BOS,40,187,9,15,145,75.02,71.06,87.5,180,18.41248,0,1014.9,1,Monday,FALSE,FALSE,2.25E-15,-18.41248,FALSE
492,JFK,2013-07-01 16:00,N341NB,2013,7,1,1931,1615,196,178,DL,402,BOS,36,187,16,15,145,73.04,69.98,90.14,180,12.65858,0,1015.9,9,Monday,FALSE,FALSE,1.55E-15,-12.65858,FALSE
494,JFK,2013-07-01 16:00,N294JB,2013,7,1,1914,1636,158,139,B6,918,BOS,38,187,16,36,20,73.04,69.98,90.14,180,12.65858,0,1015.9,9,Monday,FALSE,FALSE,1.55E-15,-12.65858,FALSE
497,JFK,2013-07-01 20:00,N318JB,2013,7,1,2255,2000,175,144,B6,418,BOS,41,187,20,0,20,71.96,69.98,93.49,180,14.96014,0,1017.4,9,Monday,FALSE,FALSE,1.83E-15,-14.96014,FALSE
498,JFK,2013-07-01 21:00,N341NB,2013,7,1,2320,2145,95,69,DL,985,BOS,40,187,21,45,145,71.96,69.98,93.49,180,13.80936,0,1017.8,9,Monday,FALSE,FALSE,1.69E-15,-13.80936,FALSE
499,JFK,2013-07-01 23:00,N351JB,2013,7,1,2319,2300,19,19,B6,718,BOS,42,187,23,0,20,71.06,69.08,93.47,180,10.35702,0,1018.1,9,Monday,FALSE,FALSE,1.27E-15,-10.35702,FALSE
505,JFK,2013-07-02 12:00,N328NB,2013,7,2,1200,1200,0,-11,DL,1006,BOS,38,187,12,0,145,73.94,71.06,90.73,180,14.96014,0,1021.2,7,Tuesday,FALSE,FALSE,1.83E-15,-14.96014,FALSE
511,JFK,2013-07-02 16:00,N328NB,2013,7,2,1630,1625,5,35,DL,402,BOS,36,187,16,25,145,75.92,69.08,79.37,180,18.41248,0,1020,10,Tuesday,FALSE,FALSE,2.25E-15,-18.41248,FALSE
512,JFK,2013-07-02 16:00,N373JB,2013,7,2,1742,1636,66,52,B6,918,BOS,37,187,16,36,20,75.92,69.08,79.37,180,18.41248,0,1020,10,Tuesday,FALSE,FALSE,2.25E-15,-18.41248,FALSE
517,JFK,2013-07-03 6:00,N239JB,2013,7,3,643,645,-2,-8,B6,318,BOS,39,187,6,45,20,71.96,69.08,90.66,180,8.05546,0,1024.1,10,Wednesday,FALSE,FALSE,9.86E-16,-8.05546,FALSE
519,JFK,2013-07-03 9:00,N302NB,2013,7,3,913,915,-2,-21,DL,867,BOS,45,187,9,15,145,75.02,69.98,84.34,190,6.90468,0,1024.9,10,Wednesday,FALSE,FALSE,-1.198985099,-6.799782396,FALSE
520,JFK,2013-07-03 10:00,N266JB,2013,7,3,1018,1017,1,-5,B6,518,BOS,44,187,10,17,20,77,71.06,81.92,170,6.90468,0,1024.9,10,Wednesday,FALSE,FALSE,1.198985099,-6.799782396,FALSE
521,JFK,2013-07-03 12:00,N324US,2013,7,3,1156,1200,-4,-11,DL,1006,BOS,41,187,12,0,182,80.06,71.96,76.36,170,11.5078,0,1024.7,10,Wednesday,FALSE,FALSE,1.998308499,-11.33297066,FALSE
522,JFK,2013-07-03 12:00,N337JB,2013,7,3,1255,1255,0,-9,B6,1318,BOS,41,187,12,55,20,80.06,71.96,76.36,170,11.5078,0,1024.7,10,Wednesday,FALSE,FALSE,1.998308499,-11.33297066,FALSE
524,JFK,2013-07-03 13:00,N266JB,2013,7,3,1407,1349,18,-2,B6,118,BOS,39,187,13,49,20,73.94,71.06,90.73,180,14.96014,0,1024.5,7,Wednesday,FALSE,FALSE,1.83E-15,-14.96014,FALSE
532,JFK,2013-07-03 21:00,N373NW,2013,7,3,2143,2145,-2,15,DL,985,BOS,39,187,21,45,182,73.04,69.98,90.14,190,8.05546,0,1023.6,10,Wednesday,FALSE,FALSE,-1.398815949,-7.933079462,FALSE
537,JFK,2013-07-04 12:00,N306JB,2013,7,4,1305,1255,10,4,B6,1318,BOS,38,187,12,55,20,82.04,73.04,74.25,190,11.5078,0,1024.2,10,Thursday,FALSE,FALSE,-1.998308499,-11.33297066,FALSE
539,JFK,2013-07-04 12:00,N316NB,2013,7,4,1154,1200,-6,-18,DL,1006,BOS,36,187,12,0,145,82.04,73.04,74.25,190,11.5078,0,1024.2,10,Thursday,FALSE,FALSE,-1.998308499,-11.33297066,FALSE
540,JFK,2013-07-04 13:00,N187JB,2013,7,4,1348,1349,-1,-6,B6,118,BOS,42,187,13,49,20,82.94,73.94,74.33,180,14.96014,0,1024,10,Thursday,FALSE,FALSE,1.83E-15,-14.96014,FALSE
541,JFK,2013-07-04 14:00,N704X,2013,7,4,1509,1455,14,4,DL,1164,BOS,36,187,14,55,178,80.96,71.96,74.15,200,17.2617,0,1023.5,10,Thursday,FALSE,FALSE,-5.903849108,-16.22069211,FALSE
543,JFK,2013-07-04 16:00,N306JB,2013,7,4,1647,1636,11,-5,B6,918,BOS,37,187,16,36,20,80.06,71.06,74.07,190,13.80936,0,1022.4,10,Thursday,FALSE,FALSE,-2.397970199,-13.59956479,FALSE
544,JFK,2013-07-04 19:00,N345NB,2013,7,4,1928,1930,-2,-20,DL,667,BOS,37,187,19,30,145,75.92,69.98,81.85,190,16.11092,0,1022.1,10,Thursday,FALSE,FALSE,-2.797631899,-15.86615892,FALSE
546,JFK,2013-07-04 20:00,N348JB,2013,7,4,2000,2000,0,-19,B6,418,BOS,42,187,20,0,20,75.02,71.06,87.5,190,13.80936,0,1022.4,10,Thursday,FALSE,FALSE,-2.397970199,-13.59956479,FALSE
547,JFK,2013-07-04 21:00,N915XJ,2013,7,4,2143,2145,-2,-24,9E,3302,BOS,39,187,21,45,95,75.92,71.96,87.55,200,10.35702,0,1022.8,10,Thursday,FALSE,FALSE,-3.542309465,-9.732415267,FALSE
548,JFK,2013-07-04 23:00,N298JB,2013,7,4,2257,2300,-3,-16,B6,718,BOS,37,187,23,0,20,77,71.96,84.46,220,10.35702,0,1023.2,10,Thursday,FALSE,FALSE,-6.657364129,-7.933937618,FALSE
549,JFK,2013-07-05 6:00,N351JB,2013,7,5,640,645,-5,-1,B6,318,BOS,37,187,6,45,20,75.92,71.96,87.55,240,8.05546,0,1023.5,10,Friday,FALSE,FALSE,-6.976232999,-4.02773,FALSE
551,JFK,2013-07-05 9:00,N361NB,2013,7,5,909,915,-6,-28,DL,867,BOS,38,187,9,15,145,82.04,73.04,74.25,210,9.20624,0,1023.2,10,Friday,FALSE,FALSE,-4.60312,-7.972837713,FALSE
554,JFK,2013-07-05 12:00,N324JB,2013,7,5,1256,1255,1,-11,B6,1318,BOS,36,187,12,55,20,86,73.04,65.35,200,11.5078,0,1022.6,10,Friday,FALSE,FALSE,-3.935899405,-10.81379474,FALSE
555,JFK,2013-07-05 12:00,N344NB,2013,7,5,1155,1200,-5,-9,DL,1006,BOS,39,187,12,0,145,86,73.04,65.35,200,11.5078,0,1022.6,10,Friday,FALSE,FALSE,-3.935899405,-10.81379474,FALSE
556,JFK,2013-07-05 13:00,N281JB,2013,7,5,1507,1349,78,75,B6,118,BOS,40,187,13,49,20,84.02,73.04,69.64,180,12.65858,0,1022.2,10,Friday,FALSE,FALSE,1.55E-15,-12.65858,FALSE
557,JFK,2013-07-05 14:00,N711ZX,2013,7,5,1452,1455,-3,-18,DL,1164,BOS,35,187,14,55,178,82.94,71.96,69.53,170,14.96014,0,1021.9,10,Friday,FALSE,FALSE,2.597801049,-14.73286186,FALSE
558,JFK,2013-07-05 16:00,N324JB,2013,7,5,1631,1636,-5,-26,B6,918,BOS,38,187,16,36,20,82.94,71.96,69.53,180,16.11092,0,1020.3,10,Friday,FALSE,FALSE,1.97E-15,-16.11092,FALSE
560,JFK,2013-07-05 19:00,N901XJ,2013,7,5,2044,1935,69,40,9E,3385,BOS,35,187,19,35,95,78.98,69.98,73.97,190,10.35702,0,1019.5,10,Friday,FALSE,FALSE,-1.798477649,-10.19967359,FALSE
562,JFK,2013-07-05 20:00,N353JB,2013,7,5,1954,2000,-6,-16,B6,418,BOS,40,187,20,0,20,77,69.98,78.96,190,11.5078,0,1019.5,10,Friday,FALSE,FALSE,-1.998308499,-11.33297066,FALSE
563,JFK,2013-07-05 21:00,N322NB,2013,7,5,2140,2145,-5,-25,DL,985,BOS,43,187,21,45,145,77,69.98,78.96,190,9.20624,0,1020.3,10,Friday,FALSE,FALSE,-1.598646799,-9.066376528,FALSE
564,JFK,2013-07-05 23:00,N283JB,2013,7,5,2258,2305,-7,-18,B6,718,BOS,41,187,23,5,20,75.92,71.06,84.92,200,6.90468,0,1021,10,Friday,FALSE,FALSE,-2.361539643,-6.488276845,FALSE
566,JFK,2013-07-06 9:00,N322NB,2013,7,6,910,915,-5,-21,DL,867,BOS,39,187,9,15,145,84.92,73.94,69.73,240,9.20624,0,1020.4,10,Saturday,TRUE,FALSE,-7.972837713,-4.60312,FALSE
569,JFK,2013-07-06 12:00,N341NB,2013,7,6,1200,1200,0,11,DL,1006,BOS,38,187,12,0,145,91.04,71.96,53.73,230,18.41248,0,1019.5,10,Saturday,TRUE,FALSE,-14.10477799,-11.83531401,FALSE
572,JFK,2013-07-06 16:00,N341NB,2013,7,6,1621,1625,-4,-27,DL,402,BOS,42,187,16,25,145,87.08,71.96,60.88,190,12.65858,0,1017.9,10,Saturday,TRUE,FALSE,-2.198139349,-12.46626773,FALSE
575,JFK,2013-07-06 19:00,N910XJ,2013,7,6,1951,1929,22,-14,9E,3385,BOS,37,187,19,29,95,82.04,71.06,69.43,200,8.05546,0,1016.9,10,Saturday,TRUE,FALSE,-2.755129584,-7.569656319,FALSE
577,JFK,2013-07-06 20:00,N236JB,2013,7,6,2006,2010,-4,-31,B6,418,BOS,36,187,20,10,20,80.06,71.06,74.07,200,8.05546,0,1017.2,10,Saturday,TRUE,FALSE,-2.755129584,-7.569656319,FALSE
578,JFK,2013-07-06 21:00,N324JB,2013,7,6,2116,2125,-9,-27,B6,618,BOS,37,187,21,25,20,82.04,73.04,74.25,210,9.20624,0,1017.7,10,Saturday,TRUE,FALSE,-4.60312,-7.972837713,FALSE
580,JFK,2013-07-06 23:00,N323JB,2013,7,6,2302,2305,-3,35,B6,718,BOS,39,187,23,5,20,82.04,71.96,71.59,230,13.80936,0,1018.3,10,Saturday,TRUE,FALSE,-10.57858349,-8.876485506,FALSE
581,JFK,2013-07-07 6:00,N258JB,2013,7,7,644,645,-1,-2,B6,318,BOS,40,187,6,45,20,78.98,73.04,82.06,230,8.05546,0,1017.9,10,Sunday,TRUE,FALSE,-6.17084037,-5.177949878,FALSE
583,JFK,2013-07-07 9:00,N330NB,2013,7,7,906,915,-9,-26,DL,867,BOS,39,187,9,15,145,84.02,73.04,69.64,230,10.35702,0,1017.5,10,Sunday,TRUE,FALSE,-7.933937618,-6.657364129,FALSE
584,JFK,2013-07-07 10:00,N374JB,2013,7,7,1016,1017,-1,-12,B6,518,BOS,40,187,10,17,20,86,73.04,65.35,210,9.20624,0,1017.3,10,Sunday,TRUE,FALSE,-4.60312,-7.972837713,FALSE
585,JFK,2013-07-07 12:00,N361NB,2013,7,7,1154,1200,-6,0,DL,1006,BOS,36,187,12,0,145,84.92,71.96,65.23,200,9.20624,0,1016.8,10,Sunday,TRUE,FALSE,-3.148719524,-8.651035793,FALSE
587,JFK,2013-07-07 13:00,N274JB,2013,7,7,1355,1354,1,-20,B6,118,BOS,37,187,13,54,20,84.92,71.96,65.23,190,12.65858,0,1016.5,10,Sunday,TRUE,FALSE,-2.198139349,-12.46626773,FALSE
589,JFK,2013-07-07 16:00,N238JB,2013,7,7,1655,1636,19,43,B6,918,BOS,57,187,16,36,20,86,73.04,65.35,180,11.5078,0,1014.3,10,Sunday,TRUE,FALSE,1.41E-15,-11.5078,FALSE
590,JFK,2013-07-07 16:00,N361NB,2013,7,7,1937,1625,192,188,DL,402,BOS,37,187,16,25,145,86,73.04,65.35,180,11.5078,0,1014.3,10,Sunday,TRUE,FALSE,1.41E-15,-11.5078,FALSE
594,JFK,2013-07-07 20:00,N339JB,2013,7,7,2112,2000,72,113,B6,418,BOS,40,187,20,0,20,84.92,71.96,65.23,240,12.65858,0,1015.1,10,Sunday,TRUE,FALSE,-10.96265186,-6.32929,FALSE
596,JFK,2013-07-07 21:00,N329JB,2013,7,7,26,2125,181,170,B6,618,BOS,41,187,21,25,20,84.02,73.04,69.64,210,10.35702,0,1014.4,10,Sunday,TRUE,FALSE,-5.17851,-8.969442428,FALSE
597,JFK,2013-07-07 23:00,N178JB,2013,7,7,231,2305,206,195,B6,718,BOS,39,187,23,5,20,82.04,66.02,58.4,260,16.11092,0,1015.7,10,Sunday,TRUE,FALSE,-15.86615892,-2.797631899,FALSE
598,JFK,2013-07-08 6:00,N354JB,2013,7,8,642,645,-3,-7,B6,318,BOS,38,187,6,45,20,75.02,66.92,75.93,260,12.65858,0,1017.1,10,Monday,FALSE,FALSE,-12.46626773,-2.198139349,FALSE
600,JFK,2013-07-08 9:00,N345NB,2013,7,8,913,915,-2,-16,DL,867,BOS,35,187,9,15,145,82.94,69.08,63.03,270,9.20624,0,1016.9,10,Monday,FALSE,FALSE,-9.20624,-1.69E-15,FALSE
601,JFK,2013-07-08 10:00,N324JB,2013,7,8,1014,1017,-3,-3,B6,518,BOS,43,187,10,17,20,84.02,69.08,60.87,230,10.35702,0,1017.2,10,Monday,FALSE,FALSE,-7.933937618,-6.657364129,FALSE
602,JFK,2013-07-08 12:00,N351NB,2013,7,8,1205,1200,5,-10,DL,1006,BOS,34,187,12,0,145,86,68,55.04,200,14.96014,0,1017.1,10,Monday,FALSE,FALSE,-5.116669227,-14.05793316,FALSE
604,JFK,2013-07-08 12:00,N198JB,2013,7,8,1235,1242,-7,-17,B6,1318,BOS,37,187,12,42,20,86,68,55.04,200,14.96014,0,1017.1,10,Monday,FALSE,FALSE,-5.116669227,-14.05793316,FALSE
605,JFK,2013-07-08 13:00,N324JB,2013,7,8,1355,1354,1,-20,B6,118,BOS,33,187,13,54,20,84.92,69.98,60.98,190,14.96014,0,1016.8,10,Monday,FALSE,FALSE,-2.597801049,-14.73286186,FALSE
608,JFK,2013-07-08 16:00,N317JB,2013,7,8,1800,1636,84,99,B6,918,BOS,46,187,16,36,20,84.02,69.08,60.87,180,16.11092,0,1015.7,10,Monday,FALSE,FALSE,1.97E-15,-16.11092,FALSE
612,JFK,2013-07-08 20:00,N273JB,2013,7,8,2249,2000,169,139,B6,418,BOS,33,187,20,0,20,77,68,73.78,220,10.35702,0,1016.8,10,Monday,FALSE,FALSE,-6.657364129,-7.933937618,FALSE
613,JFK,2013-07-08 21:00,N351NB,2013,7,8,216,2145,271,236,DL,985,BOS,33,187,21,45,145,78.98,69.98,73.97,230,14.96014,0,1017.4,10,Monday,FALSE,FALSE,-11.46013212,-9.616192631,FALSE
614,JFK,2013-07-08 23:00,N306JB,2013,7,8,2351,2305,46,32,B6,718,BOS,34,187,23,5,20,78.08,66.02,66.48,250,11.5078,0,1017.6,10,Monday,FALSE,FALSE,-10.81379474,-3.935899405,FALSE
615,JFK,2013-07-09 6:00,N184JB,2013,7,9,641,645,-4,-20,B6,318,BOS,36,187,6,45,20,73.94,69.08,84.8,220,6.90468,0,1018.4,10,Tuesday,FALSE,FALSE,-4.438242753,-5.289291746,FALSE
616,JFK,2013-07-09 7:00,N646JB,2013,7,9,747,749,-2,7,B6,1818,BOS,35,187,7,49,200,75.02,69.08,81.79,220,8.05546,0,1018.6,9,Tuesday,FALSE,FALSE,-5.177949878,-6.17084037,FALSE
618,JFK,2013-07-09 9:00,N351NB,2013,7,9,913,915,-2,-27,DL,867,BOS,33,187,9,15,145,80.06,69.08,69.23,220,9.20624,0,1018.5,10,Tuesday,FALSE,FALSE,-5.917657004,-7.052388994,FALSE
620,JFK,2013-07-09 12:00,N179JB,2013,7,9,1307,1254,13,14,B6,1318,BOS,37,187,12,54,20,84.92,66.92,54.9,180,11.5078,0,1018.1,10,Tuesday,FALSE,FALSE,1.41E-15,-11.5078,FALSE
622,JFK,2013-07-09 12:00,N319NB,2013,7,9,1208,1200,8,-1,DL,1006,BOS,36,187,12,0,145,84.92,66.92,54.9,180,11.5078,0,1018.1,10,Tuesday,FALSE,FALSE,1.41E-15,-11.5078,FALSE
623,JFK,2013-07-09 13:00,N190JB,2013,7,9,1346,1354,-8,-19,B6,118,BOS,36,187,13,54,20,82.94,71.06,67.44,180,11.5078,0,1017.9,10,Tuesday,FALSE,FALSE,1.41E-15,-11.5078,FALSE
624,JFK,2013-07-09 14:00,N326NB,2013,7,9,1450,1455,-5,-4,DL,1164,BOS,41,187,14,55,145,84.02,71.96,67.15,170,12.65858,0,1017.4,10,Tuesday,FALSE,FALSE,2.198139349,-12.46626773,FALSE
625,JFK,2013-07-09 16:00,N179JB,2013,7,9,1650,1636,14,29,B6,918,BOS,49,187,16,36,20,82.04,69.98,66.93,240,10.35702,0,1016.4,10,Tuesday,FALSE,FALSE,-8.969442428,-5.17851,FALSE
626,JFK,2013-07-09 16:00,N319NB,2013,7,9,1635,1625,10,22,DL,402,BOS,50,187,16,25,145,82.04,69.98,66.93,240,10.35702,0,1016.4,10,Tuesday,FALSE,FALSE,-8.969442428,-5.17851,FALSE
629,JFK,2013-07-09 19:00,N931XJ,2013,7,9,2114,1930,104,82,9E,3385,BOS,34,187,19,30,95,77,71.06,81.92,190,11.5078,0,1016.4,10,Tuesday,FALSE,FALSE,-1.998308499,-11.33297066,FALSE
630,JFK,2013-07-09 20:00,N353JB,2013,7,9,1958,2000,-2,-6,B6,418,BOS,35,187,20,0,20,78.08,71.96,81.5,200,8.05546,0,1016.1,10,Tuesday,FALSE,FALSE,-2.755129584,-7.569656319,FALSE
632,JFK,2013-07-09 23:00,N183JB,2013,7,9,2349,2305,44,39,B6,718,BOS,37,187,23,5,20,78.08,69.98,76.19,230,5.7539,0,1017,10,Tuesday,FALSE,FALSE,-4.407743121,-3.698535627,FALSE
633,JFK,2013-07-10 6:00,N190JB,2013,7,10,641,645,-4,9,B6,318,BOS,63,187,6,45,20,73.04,69.98,90.14,180,6.90468,0,1015.3,8,Wednesday,FALSE,FALSE,8.46E-16,-6.90468,FALSE
635,JFK,2013-07-10 9:00,N324NB,2013,7,10,907,915,-8,-22,DL,867,BOS,36,187,9,15,145,77,71.06,81.92,180,6.90468,0,1014.3,9,Wednesday,FALSE,FALSE,8.46E-16,-6.90468,FALSE
637,JFK,2013-07-10 12:00,N238JB,2013,7,10,1259,1242,17,69,B6,1318,BOS,67,187,12,42,20,84.02,73.94,71.78,210,13.80936,0,1013.1,10,Wednesday,FALSE,FALSE,-6.90468,-11.95925657,FALSE
638,JFK,2013-07-10 12:00,N362NB,2013,7,10,1223,1200,23,30,DL,1006,BOS,34,187,12,0,145,84.02,73.94,71.78,210,13.80936,0,1013.1,10,Wednesday,FALSE,FALSE,-6.90468,-11.95925657,FALSE
643,JFK,2013-07-10 16:00,N307JB,2013,7,10,2257,1636,381,412,B6,918,BOS,54,187,16,36,20,82.04,73.04,74.25,180,6.90468,0.04,1010.6,10,Wednesday,FALSE,FALSE,8.46E-16,-6.90468,TRUE
647,JFK,2013-07-10 20:00,N317JB,2013,7,10,2330,2000,210,233,B6,418,BOS,43,187,20,0,20,75.02,71.06,87.5,190,8.05546,0,1010.7,10,Wednesday,FALSE,FALSE,-1.398815949,-7.933079462,FALSE
649,JFK,2013-07-10 23:00,N373JB,2013,7,10,144,2305,159,142,B6,718,BOS,39,187,23,5,20,75.02,71.96,90.22,210,6.90468,0,1010.5,10,Wednesday,FALSE,FALSE,-3.45234,-5.979628285,FALSE
650,JFK,2013-07-11 6:00,N309JB,2013,7,11,644,645,-1,-7,B6,318,BOS,39,187,6,45,20,75.02,69.98,84.34,210,8.05546,0,1010.7,10,Thursday,FALSE,FALSE,-4.02773,-6.976232999,FALSE
652,JFK,2013-07-11 9:00,N364NB,2013,7,11,926,915,11,10,DL,867,BOS,56,187,9,15,145,77,71.96,84.46,230,12.65858,0,1011.3,10,Thursday,FALSE,FALSE,-9.697034867,-8.13677838,FALSE
653,JFK,2013-07-11 10:00,N355JB,2013,7,11,1043,1017,26,23,B6,518,BOS,40,187,10,17,20,80.96,71.06,71.92,290,8.05546,0,1011.4,10,Thursday,FALSE,FALSE,-7.569656319,2.755129584,FALSE
655,JFK,2013-07-11 12:00,N355NB,2013,7,11,1157,1200,-3,-23,DL,1006,BOS,37,187,12,0,145,82.04,64.94,56.24,330,8.05546,0,1011.6,10,Thursday,FALSE,FALSE,-4.02773,6.976232999,FALSE
657,JFK,2013-07-11 13:00,N318JB,2013,7,11,1639,1354,165,168,B6,118,BOS,43,187,13,54,20,82.94,64.94,54.63,350,6.90468,0,1011.3,10,Thursday,FALSE,FALSE,-1.198985099,6.799782396,FALSE
658,JFK,2013-07-11 14:00,N722TW,2013,7,11,1450,1455,-5,-20,DL,1164,BOS,40,187,14,55,178,84.92,64.94,51.25,320,5.7539,0,1011.1,10,Thursday,FALSE,FALSE,-3.698535627,4.407743121,FALSE
659,JFK,2013-07-11 16:00,N326NB,2013,7,11,1639,1625,14,4,DL,402,BOS,41,187,16,25,145,87.08,64.94,47.83,0,0,0,1010.9,10,Thursday,FALSE,FALSE,0,0,FALSE
663,JFK,2013-07-11 19:00,N604LR,2013,7,11,1932,1930,2,-11,9E,3385,BOS,40,187,19,30,95,77,69.08,76.57,190,8.05546,0,1012.2,10,Thursday,FALSE,FALSE,-1.398815949,-7.933079462,FALSE
664,JFK,2013-07-11 20:00,N358JB,2013,7,11,2008,2000,8,3,B6,418,BOS,44,187,20,0,20,75.02,69.98,84.34,0,0,0,1012.7,10,Thursday,FALSE,FALSE,0,0,FALSE
665,JFK,2013-07-11 21:00,N326NB,2013,7,11,2147,2145,2,-28,DL,985,BOS,37,187,21,45,145,75.92,69.98,81.85,10,3.45234,0,1013.1,10,Thursday,FALSE,FALSE,0.59949255,3.399891198,FALSE
666,JFK,2013-07-11 23:00,N328JB,2013,7,11,2354,2305,49,33,B6,718,BOS,31,187,23,5,20,77,64.04,64.3,40,4.60312,0,1013.4,10,Thursday,FALSE,FALSE,2.958828502,3.526194497,FALSE
667,JFK,2013-07-12 6:00,N190JB,2013,7,12,707,645,22,16,B6,318,BOS,35,187,6,45,20,73.94,62.06,66.43,30,11.5078,0,1015.6,10,Friday,FALSE,FALSE,5.7539,9.966047142,FALSE
671,JFK,2013-07-12 12:00,N374JB,2013,7,12,1241,1242,-1,-1,B6,1318,BOS,39,187,12,42,20,77,66.02,68.9,50,12.65858,0,1017.2,10,Friday,FALSE,FALSE,9.697034867,8.13677838,FALSE
672,JFK,2013-07-12 12:00,N323NB,2013,7,12,1156,1200,-4,-14,DL,1006,BOS,36,187,12,0,145,77,66.02,68.9,50,12.65858,0,1017.2,10,Friday,FALSE,FALSE,9.697034867,8.13677838,FALSE
674,JFK,2013-07-12 13:00,N348JB,2013,7,12,1353,1354,-1,-4,B6,118,BOS,35,187,13,54,20,77,66.92,71.08,50,13.80936,0,1017.2,10,Friday,FALSE,FALSE,10.57858349,8.876485506,FALSE
675,JFK,2013-07-12 14:00,N704X,2013,7,12,1454,1455,-1,-30,DL,1164,BOS,35,187,14,55,178,75.92,68,76.48,50,14.96014,0,1017.2,10,Friday,FALSE,FALSE,11.46013212,9.616192631,FALSE
676,JFK,2013-07-12 16:00,N374JB,2013,7,12,1656,1636,20,46,B6,918,BOS,36,187,16,36,20,71.96,68,87.35,100,12.65858,0,1017.2,7,Friday,FALSE,FALSE,12.46626773,-2.198139349,FALSE
677,JFK,2013-07-12 16:00,N329NB,2013,7,12,1625,1625,0,14,DL,402,BOS,38,187,16,25,145,71.96,68,87.35,100,12.65858,0,1017.2,7,Friday,FALSE,FALSE,12.46626773,-2.198139349,FALSE
680,JFK,2013-07-12 19:00,N924XJ,2013,7,12,1935,1930,5,49,9E,3385,BOS,32,187,19,30,95,71.06,68,90.06,80,11.5078,0.07,1018.3,4,Friday,FALSE,FALSE,11.33297066,1.998308499,TRUE
689,JFK,2013-07-13 13:00,N298JB,2013,7,13,1423,1354,29,9,B6,118,BOS,32,187,13,54,20,84.02,73.04,69.64,90,8.05546,0,1023.9,10,Saturday,TRUE,FALSE,8.05546,4.93E-16,FALSE
692,JFK,2013-07-13 16:00,N236JB,2013,7,13,1635,1636,-1,-14,B6,918,BOS,36,187,16,36,20,80.06,73.94,81.63,130,8.05546,0,1024.2,9,Saturday,TRUE,FALSE,6.17084037,-5.177949878,FALSE
693,JFK,2013-07-13 16:00,N318NB,2013,7,13,1620,1625,-5,-40,DL,402,BOS,32,187,16,25,145,80.06,73.94,81.63,130,8.05546,0,1024.2,9,Saturday,TRUE,FALSE,6.17084037,-5.177949878,FALSE
696,JFK,2013-07-13 20:00,N316JB,2013,7,13,2038,2010,28,64,B6,418,BOS,40,187,20,10,20,77,73.04,87.6,150,8.05546,0,1025,9,Saturday,TRUE,FALSE,4.02773,-6.976232999,FALSE
698,JFK,2013-07-13 21:00,N228JB,2013,7,13,2231,2125,66,66,B6,618,BOS,42,187,21,25,20,75.92,73.04,90.8,170,10.35702,0,1025.4,10,Saturday,TRUE,FALSE,1.798477649,-10.19967359,FALSE
699,JFK,2013-07-13 23:00,N339JB,2013,7,13,52,2305,107,92,B6,718,BOS,35,187,23,5,20,73.94,71.96,93.54,200,3.45234,0,1025.5,6,Saturday,TRUE,FALSE,-1.180769822,-3.244138422,FALSE
700,JFK,2013-07-14 6:00,N273JB,2013,7,14,643,645,-2,-15,B6,318,BOS,34,187,6,45,20,75.02,73.04,93.57,210,9.20624,0,1027.2,10,Sunday,TRUE,FALSE,-4.60312,-7.972837713,FALSE
702,JFK,2013-07-14 9:00,N318NB,2013,7,14,912,915,-3,-18,DL,867,BOS,40,187,9,15,145,84.02,73.04,69.64,270,11.5078,0,1026.9,10,Sunday,TRUE,FALSE,-11.5078,-2.11E-15,FALSE
703,JFK,2013-07-14 10:00,N351JB,2013,7,14,1017,1017,0,-17,B6,518,BOS,35,187,10,17,20,87.08,73.04,63.14,240,13.80936,0,1026.8,10,Sunday,TRUE,FALSE,-11.95925657,-6.90468,FALSE
706,JFK,2013-07-14 13:00,N274JB,2013,7,14,1415,1354,21,0,B6,118,BOS,37,187,13,54,20,87.98,71.96,59.16,200,18.41248,0,1026.1,10,Sunday,TRUE,FALSE,-6.297439049,-17.30207159,FALSE
707,JFK,2013-07-14 14:00,N361NB,2013,7,14,1457,1455,2,-22,DL,1164,BOS,33,187,14,55,145,87.98,71.06,57.39,220,17.2617,0,1025.8,10,Sunday,TRUE,FALSE,-11.09560688,-13.22322936,FALSE
708,JFK,2013-07-14 16:00,N229JB,2013,7,14,1709,1636,33,7,B6,918,BOS,36,187,16,36,20,84.02,71.96,67.15,190,14.96014,0,1024.8,10,Sunday,TRUE,FALSE,-2.597801049,-14.73286186,FALSE
709,JFK,2013-07-14 16:00,N358NB,2013,7,14,1622,1625,-3,-31,DL,402,BOS,35,187,16,25,145,84.02,71.96,67.15,190,14.96014,0,1024.8,10,Sunday,TRUE,FALSE,-2.597801049,-14.73286186,FALSE
711,JFK,2013-07-14 19:00,N937XJ,2013,7,14,1918,1930,-12,-9,9E,3385,BOS,34,187,19,30,95,78.98,71.96,79.12,190,14.96014,0,1024.2,10,Sunday,TRUE,FALSE,-2.597801049,-14.73286186,FALSE
713,JFK,2013-07-14 20:00,N216JB,2013,7,14,1958,2000,-2,-4,B6,418,BOS,35,187,20,0,20,77,71.96,84.46,190,11.5078,0,1024.5,10,Sunday,TRUE,FALSE,-1.998308499,-11.33297066,FALSE
714,JFK,2013-07-14 21:00,N298JB,2013,7,14,2127,2125,2,-14,B6,618,BOS,41,187,21,25,20,78.08,73.04,84.53,200,8.05546,0,1024.8,10,Sunday,TRUE,FALSE,-2.755129584,-7.569656319,FALSE
715,JFK,2013-07-14 21:00,N358NB,2013,7,14,2139,2145,-6,-23,DL,985,BOS,39,187,21,45,145,78.08,73.04,84.53,200,8.05546,0,1024.8,10,Sunday,TRUE,FALSE,-2.755129584,-7.569656319,FALSE
716,JFK,2013-07-14 23:00,N206JB,2013,7,14,2301,2305,-4,-10,B6,718,BOS,40,187,23,5,20,78.98,73.04,82.06,220,8.05546,0,1024.4,10,Sunday,TRUE,FALSE,-5.177949878,-6.17084037,FALSE
717,JFK,2013-07-15 6:00,N190JB,2013,7,15,642,645,-3,-6,B6,318,BOS,35,187,6,45,20,78.98,71.06,76.74,270,10.35702,0,1024.3,10,Monday,FALSE,FALSE,-10.35702,-1.90E-15,FALSE
719,JFK,2013-07-15 9:00,N321NB,2013,7,15,912,915,-3,-27,DL,867,BOS,40,187,9,15,145,89.96,69.08,50.39,300,10.35702,0,1023.6,10,Monday,FALSE,FALSE,-8.969442428,5.17851,FALSE
721,JFK,2013-07-15 12:00,N258JB,2013,7,15,1238,1242,-4,-12,B6,1318,BOS,38,187,12,42,20,91.94,68,45.63,310,4.60312,0,1022.3,10,Monday,FALSE,FALSE,-3.526194497,2.958828502,FALSE
723,JFK,2013-07-15 12:00,N333NB,2013,7,15,1150,1200,-10,-6,DL,1006,BOS,32,187,12,0,145,91.94,68,45.63,310,4.60312,0,1022.3,10,Monday,FALSE,FALSE,-3.526194497,2.958828502,FALSE
724,JFK,2013-07-15 13:00,N306JB,2013,7,15,1352,1354,-2,-21,B6,118,BOS,35,187,13,54,20,91.94,71.96,52.24,200,9.20624,0,1021.8,10,Monday,FALSE,FALSE,-3.148719524,-8.651035793,FALSE
725,JFK,2013-07-15 14:00,N710TW,2013,7,15,1447,1455,-8,-39,DL,1164,BOS,34,187,14,55,178,91.94,71.06,50.67,260,4.60312,0,1021.6,10,Monday,FALSE,FALSE,-4.533188264,-0.7993234,FALSE
726,JFK,2013-07-15 16:00,N331NB,2013,7,15,1625,1625,0,-17,DL,402,BOS,33,187,16,25,145,95,68,41.5,360,8.05546,0,1020.5,10,Monday,FALSE,FALSE,-1.97E-15,8.05546,FALSE
729,JFK,2013-07-15 19:00,N933XJ,2013,7,15,1925,1930,-5,-30,9E,3385,BOS,38,187,19,30,95,91.04,71.06,52.11,50,4.60312,0,1020.4,10,Monday,FALSE,FALSE,3.526194497,2.958828502,FALSE
731,JFK,2013-07-15 20:00,N324JB,2013,7,15,1957,2000,-3,-31,B6,418,BOS,41,187,20,0,20,84.02,71.06,65.13,170,3.45234,0,1020.7,10,Monday,FALSE,FALSE,0.59949255,-3.399891198,FALSE
732,JFK,2013-07-15 21:00,N331NB,2013,7,15,2146,2145,1,-24,DL,985,BOS,45,187,21,45,145,84.02,71.96,67.15,0,0,0,1021.1,10,Monday,FALSE,FALSE,0,0,FALSE
733,JFK,2013-07-15 23:00,N316JB,2013,7,15,2301,2305,-4,-3,B6,718,BOS,46,187,23,5,20,82.94,71.06,67.44,0,0,0,1021.3,10,Monday,FALSE,FALSE,0,0,FALSE
734,JFK,2013-07-16 6:00,N355JB,2013,7,16,642,645,-3,-9,B6,318,BOS,37,187,6,45,20,80.96,66.02,60.49,350,14.96014,0,1022.1,10,Tuesday,FALSE,FALSE,-2.597801049,14.73286186,FALSE
735,JFK,2013-07-16 7:00,N570JB,2013,7,16,800,749,11,-6,B6,1818,BOS,33,187,7,49,200,82.94,66.02,56.72,350,12.65858,0,1022.4,10,Tuesday,FALSE,FALSE,-2.198139349,12.46626773,FALSE
737,JFK,2013-07-16 9:00,N337NB,2013,7,16,1144,915,149,124,DL,867,BOS,32,187,9,15,145,87.98,64.94,46.48,350,14.96014,0,1022.3,10,Tuesday,FALSE,FALSE,-2.597801049,14.73286186,FALSE
740,JFK,2013-07-16 12:00,N198JB,2013,7,16,1245,1254,-9,-16,B6,1318,BOS,35,187,12,54,20,93.92,62.06,34.88,20,13.80936,0,1021.6,10,Tuesday,FALSE,FALSE,4.723079286,12.97655369,FALSE
742,JFK,2013-07-16 13:00,N183JB,2013,7,16,1427,1354,33,16,B6,118,BOS,38,187,13,54,20,95,60.08,31.45,20,13.80936,0,1021.2,10,Tuesday,FALSE,FALSE,4.723079286,12.97655369,FALSE
743,JFK,2013-07-16 14:00,N333NB,2013,7,16,1453,1455,-2,2,DL,1164,BOS,35,187,14,55,145,96.08,62.06,32.64,360,12.65858,0,1021,10,Tuesday,FALSE,FALSE,-3.10E-15,12.65858,FALSE
745,JFK,2013-07-16 16:00,N368NB,2013,7,16,1624,1625,-1,-10,DL,402,BOS,33,187,16,25,145,93.92,60.98,33.57,360,11.5078,0,1020.5,10,Tuesday,FALSE,FALSE,-2.82E-15,11.5078,FALSE
747,JFK,2013-07-16 19:00,N931XJ,2013,7,16,1939,1930,9,-14,9E,3385,BOS,34,187,19,30,95,91.04,60.08,35.57,360,12.65858,0,1020.7,10,Tuesday,FALSE,FALSE,-3.10E-15,12.65858,FALSE
749,JFK,2013-07-16 20:00,N258JB,2013,7,16,1957,2000,-3,-23,B6,418,BOS,34,187,20,0,20,89.06,60.98,39.08,10,9.20624,0,1021,10,Tuesday,FALSE,FALSE,1.598646799,9.066376528,FALSE
751,JFK,2013-07-16 23:00,N304JB,2013,7,16,232,2305,207,192,B6,718,BOS,39,187,23,5,20,84.92,62.96,47.82,350,5.7539,0,1021.4,10,Tuesday,FALSE,FALSE,-0.999154249,5.66648533,FALSE
752,JFK,2013-07-17 6:00,N334JB,2013,7,17,650,645,5,1,B6,318,BOS,35,187,6,45,20,82.94,68,60.74,360,6.90468,0,1022,10,Wednesday,FALSE,FALSE,-1.69E-15,6.90468,FALSE
754,JFK,2013-07-17 9:00,N323NB,2013,7,17,911,915,-4,-25,DL,867,BOS,40,187,9,15,145,91.04,66.92,45.22,0,0,0,1022.3,10,Wednesday,FALSE,FALSE,0,0,FALSE
755,JFK,2013-07-17 10:00,N351JB,2013,7,17,1016,1017,-1,-2,B6,518,BOS,42,187,10,17,20,93.02,66.02,41.2,0,0,0,1022.1,10,Wednesday,FALSE,FALSE,0,0,FALSE
758,JFK,2013-07-17 12:00,N317NB,2013,7,17,1154,1200,-6,-26,DL,1006,BOS,33,187,12,0,145,93.02,68,44.12,180,10.35702,0,1021.3,10,Wednesday,FALSE,FALSE,1.27E-15,-10.35702,FALSE
759,JFK,2013-07-17 13:00,N318JB,2013,7,17,1418,1354,24,12,B6,118,BOS,36,187,13,54,20,93.02,68,44.12,180,10.35702,0,1020.8,10,Wednesday,FALSE,FALSE,1.27E-15,-10.35702,FALSE
760,JFK,2013-07-17 14:00,N3750D,2013,7,17,1454,1455,-1,-17,DL,1164,BOS,34,187,14,55,189,93.02,68,44.12,180,10.35702,0,1020.5,10,Wednesday,FALSE,FALSE,1.27E-15,-10.35702,FALSE
761,JFK,2013-07-17 16:00,N265JB,2013,7,17,1639,1636,3,10,B6,918,BOS,42,187,16,36,20,89.96,66.02,45.34,170,11.5078,0,1019.2,10,Wednesday,FALSE,FALSE,1.998308499,-11.33297066,FALSE
762,JFK,2013-07-17 16:00,N317NB,2013,7,17,1624,1625,-1,-33,DL,402,BOS,41,187,16,25,145,89.96,66.02,45.34,170,11.5078,0,1019.2,10,Wednesday,FALSE,FALSE,1.998308499,-11.33297066,FALSE
765,JFK,2013-07-17 19:00,N930XJ,2013,7,17,1943,1930,13,17,9E,3385,BOS,42,187,19,30,95,82.04,73.04,74.25,190,10.35702,0,1018.9,10,Wednesday,FALSE,FALSE,-1.798477649,-10.19967359,FALSE
766,JFK,2013-07-17 20:00,N239JB,2013,7,17,2000,2000,0,11,B6,418,BOS,43,187,20,0,20,80.96,71.06,71.92,180,8.05546,0,1018.7,10,Wednesday,FALSE,FALSE,9.86E-16,-8.05546,FALSE
767,JFK,2013-07-17 21:00,N317NB,2013,7,17,2145,2145,0,3,DL,985,BOS,44,187,21,45,145,80.06,71.06,74.07,200,5.7539,0,1018.9,10,Wednesday,FALSE,FALSE,-1.967949703,-5.406897371,FALSE
768,JFK,2013-07-17 23:00,N192JB,2013,7,17,9,2305,64,60,B6,718,BOS,35,187,23,5,20,80.96,69.98,69.32,230,9.20624,0,1018.7,10,Wednesday,FALSE,FALSE,-7.052388994,-5.917657004,FALSE
769,JFK,2013-07-18 6:00,N298JB,2013,7,18,644,645,-1,-3,B6,318,BOS,39,187,6,45,20,80.06,73.04,79.2,240,5.7539,0,1017.3,8,Thursday,FALSE,FALSE,-4.983023571,-2.87695,FALSE
772,JFK,2013-07-18 10:00,N304JB,2013,7,18,1027,1017,10,-4,B6,518,BOS,36,187,10,17,20,96.08,66.92,38.68,350,10.35702,0,1017.2,10,Thursday,FALSE,FALSE,-1.798477649,10.19967359,FALSE
773,JFK,2013-07-18 12:00,N314NB,2013,7,18,1155,1200,-5,-24,DL,1006,BOS,33,187,12,0,145,98.06,66.92,36.4,260,12.65858,0,1016.7,10,Thursday,FALSE,FALSE,-12.46626773,-2.198139349,FALSE
777,JFK,2013-07-18 14:00,N706TW,2013,7,18,1517,1455,22,11,DL,1164,BOS,34,187,14,55,178,96.98,71.06,43.36,220,16.11092,0,1015.7,10,Thursday,FALSE,FALSE,-10.35589976,-12.34168074,FALSE
778,JFK,2013-07-18 16:00,N371NB,2013,7,18,1626,1625,1,-10,DL,402,BOS,40,187,16,25,145,91.94,73.94,55.84,190,17.2617,0,1015.2,10,Thursday,FALSE,FALSE,-2.997462748,-16.99945599,FALSE
779,JFK,2013-07-18 16:00,N351JB,2013,7,18,1711,1636,35,22,B6,918,BOS,38,187,16,36,20,91.94,73.94,55.84,190,17.2617,0,1015.2,10,Thursday,FALSE,FALSE,-2.997462748,-16.99945599,FALSE
782,JFK,2013-07-18 19:00,N924XJ,2013,7,18,2011,1930,41,43,9E,3385,BOS,42,187,19,30,95,84.02,75.92,76.7,180,4.60312,0,1015.2,9,Thursday,FALSE,FALSE,5.64E-16,-4.60312,FALSE
783,JFK,2013-07-18 20:00,N238JB,2013,7,18,2002,2000,2,-23,B6,418,BOS,34,187,20,0,20,84.02,75.02,74.43,0,0,0,1015.4,9,Thursday,FALSE,FALSE,0,0,FALSE
784,JFK,2013-07-18 21:00,N371NB,2013,7,18,2143,2145,-2,-20,DL,985,BOS,36,187,21,45,145,86,73.94,67.36,0,0,0,1015.4,10,Thursday,FALSE,FALSE,0,0,FALSE
788,JFK,2013-07-19 9:00,N315NB,2013,7,19,913,915,-2,-14,DL,867,BOS,44,187,9,15,145,87.98,78.08,72.6,210,10.35702,0,1014.4,6,Friday,FALSE,FALSE,-5.17851,-8.969442428,FALSE
789,JFK,2013-07-19 10:00,N353JB,2013,7,19,1016,1017,-1,2,B6,518,BOS,43,187,10,17,20,91.04,77,63.61,210,12.65858,0,1014.1,7,Friday,FALSE,FALSE,-6.32929,-10.96265186,FALSE
790,JFK,2013-07-19 12:00,N336NB,2013,7,19,1158,1200,-2,-20,DL,1006,BOS,42,187,12,0,145,93.92,77,58.16,190,12.65858,0,1013.2,7,Friday,FALSE,FALSE,-2.198139349,-12.46626773,FALSE
793,JFK,2013-07-19 13:00,N187JB,2013,7,19,1413,1354,19,7,B6,118,BOS,41,187,13,54,20,93.02,75.92,57.69,190,13.80936,0,1012.3,8,Friday,FALSE,FALSE,-2.397970199,-13.59956479,FALSE
794,JFK,2013-07-19 14:00,N709TW,2013,7,19,1520,1455,25,23,DL,1164,BOS,39,187,14,55,178,93.02,75.92,57.69,180,14.96014,0,1011.6,9,Friday,FALSE,FALSE,1.83E-15,-14.96014,FALSE
795,JFK,2013-07-19 16:00,N304JB,2013,7,19,1645,1636,9,26,B6,918,BOS,48,187,16,36,20,89.06,75.92,65.31,200,14.96014,0,1010.1,9,Friday,FALSE,FALSE,-5.116669227,-14.05793316,FALSE
796,JFK,2013-07-19 16:00,N342NB,2013,7,19,1626,1625,1,6,DL,402,BOS,48,187,16,25,145,89.06,75.92,65.31,200,14.96014,0,1010.1,9,Friday,FALSE,FALSE,-5.116669227,-14.05793316,FALSE
799,JFK,2013-07-19 19:00,N904XJ,2013,7,19,2050,1930,80,67,9E,3385,BOS,41,187,19,30,95,84.02,75.02,74.43,190,10.35702,0,1009.8,8,Friday,FALSE,FALSE,-1.798477649,-10.19967359,FALSE
802,JFK,2013-07-19 23:00,N292JB,2013,7,19,2342,2305,37,35,B6,718,BOS,40,187,23,5,20,82.94,73.94,74.33,200,9.20624,0,1009.6,8,Friday,FALSE,FALSE,-3.148719524,-8.651035793,FALSE
804,JFK,2013-07-20 9:00,N346NB,2013,7,20,910,915,-5,-22,DL,867,BOS,40,187,9,15,145,84.92,69.98,60.98,230,19.56326,0,1009.5,10,Saturday,TRUE,FALSE,-14.98632661,-12.57502113,FALSE
808,JFK,2013-07-20 13:00,N353JB,2013,7,20,1357,1354,3,-10,B6,118,BOS,41,187,13,54,20,93.02,71.96,50.51,220,17.2617,0,1007.5,10,Saturday,TRUE,FALSE,-11.09560688,-13.22322936,FALSE
809,JFK,2013-07-20 14:00,N335NB,2013,7,20,1455,1455,0,-28,DL,1164,BOS,41,187,14,55,145,93.92,71.96,49.12,230,20.71404,0,1007.3,10,Saturday,TRUE,FALSE,-15.86787524,-13.31472826,FALSE
818,JFK,2013-07-20 23:00,N183JB,2013,7,20,2255,2305,-10,12,B6,718,BOS,35,187,23,5,20,82.04,69.08,64.9,310,3.45234,0,1010.1,10,Saturday,TRUE,FALSE,-2.644645873,2.219121376,FALSE
819,JFK,2013-07-21 6:00,N198JB,2013,7,21,706,645,21,14,B6,318,BOS,33,187,6,45,20,78.98,66.92,66.58,30,12.65858,0,1012.2,10,Sunday,TRUE,FALSE,6.32929,10.96265186,FALSE
822,JFK,2013-07-21 10:00,N368JB,2013,7,21,1013,1017,-4,-17,B6,518,BOS,32,187,10,17,20,84.02,60.08,44.45,40,9.20624,0,1013.6,10,Sunday,TRUE,FALSE,5.917657004,7.052388994,FALSE
824,JFK,2013-07-21 12:00,N328NB,2013,7,21,1155,1200,-5,-26,DL,1006,BOS,32,187,12,0,145,87.98,64.04,45.04,130,8.05546,0,1014.1,10,Sunday,TRUE,FALSE,6.17084037,-5.177949878,FALSE
825,JFK,2013-07-21 13:00,N247JB,2013,7,21,1346,1354,-8,-21,B6,118,BOS,33,187,13,54,20,87.98,62.96,43.37,130,13.80936,0,1013.7,10,Sunday,TRUE,FALSE,10.57858349,-8.876485506,FALSE
828,JFK,2013-07-21 16:00,N353JB,2013,7,21,1632,1636,-4,-7,B6,918,BOS,34,187,16,36,20,82.94,62.96,50.97,130,9.20624,0,1013.5,10,Sunday,TRUE,FALSE,7.052388994,-5.917657004,FALSE
830,JFK,2013-07-21 19:00,N909XJ,2013,7,21,1931,1930,1,5,9E,3385,BOS,37,187,19,30,95,77,69.08,76.57,140,10.35702,0,1013.7,10,Sunday,TRUE,FALSE,6.657364129,-7.933937618,FALSE
832,JFK,2013-07-21 20:00,N292JB,2013,7,21,2008,2000,8,-1,B6,418,BOS,36,187,20,0,20,75.92,69.98,81.85,150,6.90468,0,1014.3,10,Sunday,TRUE,FALSE,3.45234,-5.979628285,FALSE
833,JFK,2013-07-21 21:00,N328NB,2013,7,21,2144,2145,-1,-9,DL,985,BOS,33,187,21,45,145,75.02,71.06,87.5,130,3.45234,0,1014.8,10,Sunday,TRUE,FALSE,2.644645873,-2.219121376,FALSE
836,JFK,2013-07-22 6:00,N339JB,2013,7,22,644,645,-1,-5,B6,318,BOS,34,187,6,45,20,75.02,71.96,90.22,70,5.7539,0.01,1014.1,7,Monday,FALSE,FALSE,5.406897371,1.967949703,TRUE
841,JFK,2013-07-22 12:00,N329NB,2013,7,22,1306,1200,66,66,DL,1006,BOS,31,187,12,0,145,84.92,71.96,65.23,120,10.35702,0,1013.7,10,Monday,FALSE,FALSE,8.969442428,-5.17851,FALSE
842,JFK,2013-07-22 12:00,N179JB,2013,7,22,1241,1242,-1,-16,B6,1318,BOS,34,187,12,42,20,84.92,71.96,65.23,120,10.35702,0,1013.7,10,Monday,FALSE,FALSE,8.969442428,-5.17851,FALSE
843,JFK,2013-07-22 13:00,N258JB,2013,7,22,1355,1354,1,-15,B6,118,BOS,32,187,13,54,20,84.02,71.96,67.15,140,9.20624,0,1013,10,Monday,FALSE,FALSE,5.917657004,-7.052388994,FALSE
845,JFK,2013-07-22 16:00,N298JB,2013,7,22,1759,1636,83,88,B6,918,BOS,35,187,16,36,20,80.96,73.04,76.9,100,10.35702,0,1011.4,10,Monday,FALSE,FALSE,10.19967359,-1.798477649,FALSE
853,JFK,2013-07-23 6:00,N374JB,2013,7,23,828,645,103,95,B6,318,BOS,37,187,6,45,20,73.94,71.06,90.73,200,11.5078,0,1005.4,10,Tuesday,FALSE,FALSE,-3.935899405,-10.81379474,FALSE
854,JFK,2013-07-23 7:00,N580JB,2013,7,23,1040,749,171,168,B6,1818,BOS,44,187,7,49,200,75.02,71.96,90.22,210,10.35702,0,1005.3,10,Tuesday,FALSE,FALSE,-5.17851,-8.969442428,FALSE
859,JFK,2013-07-23 12:00,N334JB,2013,7,23,1337,1254,43,87,B6,1318,BOS,51,187,12,54,20,82.94,71.96,69.53,220,12.65858,0,1003.7,10,Tuesday,FALSE,FALSE,-8.13677838,-9.697034867,FALSE
862,JFK,2013-07-23 14:00,N329NB,2013,7,23,1509,1455,14,61,DL,1164,BOS,73,187,14,55,145,84.92,71.96,65.23,210,12.65858,0,1002.9,10,Tuesday,FALSE,FALSE,-6.32929,-10.96265186,FALSE
863,JFK,2013-07-23 16:00,N231JB,2013,7,23,2111,1636,275,294,B6,918,BOS,42,187,16,36,20,84.02,73.04,69.64,190,13.80936,0,1001.8,10,Tuesday,FALSE,FALSE,-2.397970199,-13.59956479,FALSE
864,JFK,2013-07-23 16:00,N346NB,2013,7,23,1852,1625,147,144,DL,402,BOS,40,187,16,25,145,84.02,73.04,69.64,190,13.80936,0,1001.8,10,Tuesday,FALSE,FALSE,-2.397970199,-13.59956479,FALSE
868,JFK,2013-07-23 20:00,N184JB,2013,7,23,2303,2000,183,178,B6,418,BOS,44,187,20,0,20,82.04,71.06,69.43,230,11.5078,0,1002.3,10,Tuesday,FALSE,FALSE,-8.815486243,-7.397071255,FALSE
869,JFK,2013-07-23 21:00,N346NB,2013,7,23,2336,2145,111,104,DL,985,BOS,38,187,21,45,145,78.98,69.08,71.72,80,3.45234,0,1003,10,Tuesday,FALSE,FALSE,3.399891198,0.59949255,FALSE
870,JFK,2013-07-23 23:00,N183JB,2013,7,23,101,2305,116,104,B6,718,BOS,38,187,23,5,20,80.96,68,64.77,270,9.20624,0,1003.3,10,Tuesday,FALSE,FALSE,-9.20624,-1.69E-15,FALSE
871,JFK,2013-07-24 6:00,N354JB,2013,7,24,655,645,10,5,B6,318,BOS,38,187,6,45,20,75.92,68,76.48,270,10.35702,0,1004.4,10,Wednesday,FALSE,FALSE,-10.35702,-1.90E-15,FALSE
873,JFK,2013-07-24 9:00,N342NB,2013,7,24,952,915,37,15,DL,867,BOS,36,187,9,15,145,84.02,64.04,51.12,320,11.5078,0,1006.3,10,Wednesday,FALSE,FALSE,-7.397071255,8.815486243,FALSE
874,JFK,2013-07-24 10:00,N346JB,2013,7,24,1016,1017,-1,4,B6,518,BOS,37,187,10,17,20,84.02,64.04,51.12,330,12.65858,0,1006.7,10,Wednesday,FALSE,FALSE,-6.32929,10.96265186,FALSE
876,JFK,2013-07-24 12:00,N362NB,2013,7,24,1157,1200,-3,-23,DL,1006,BOS,36,187,12,0,145,84.02,62.96,49.22,310,16.11092,0,1007.3,10,Wednesday,FALSE,FALSE,-12.34168074,10.35589976,FALSE
878,JFK,2013-07-24 13:00,N265JB,2013,7,24,1447,1354,53,40,B6,118,BOS,42,187,13,54,20,84.92,62.06,46.32,310,11.5078,0,1007.7,10,Wednesday,FALSE,FALSE,-8.815486243,7.397071255,FALSE
879,JFK,2013-07-24 14:00,N329NB,2013,7,24,1454,1455,-1,-20,DL,1164,BOS,47,187,14,55,145,84.02,62.06,47.68,290,11.5078,0,1008.4,10,Wednesday,FALSE,FALSE,-10.81379474,3.935899405,FALSE
880,JFK,2013-07-24 16:00,N362NB,2013,7,24,1804,1625,99,94,DL,402,BOS,34,187,16,25,145,82.94,60.08,46.03,340,14.96014,0,1008.3,10,Wednesday,FALSE,FALSE,-5.116669227,14.05793316,FALSE
882,JFK,2013-07-24 16:00,N267JB,2013,7,24,1734,1636,58,43,B6,918,BOS,41,187,16,36,20,82.94,60.08,46.03,340,14.96014,0,1008.3,10,Wednesday,FALSE,FALSE,-5.116669227,14.05793316,FALSE
883,JFK,2013-07-24 19:00,N926XJ,2013,7,24,1927,1930,-3,-21,9E,3385,BOS,35,187,19,30,95,80.06,57.02,45.3,350,12.65858,0,1010.3,10,Wednesday,FALSE,FALSE,-2.198139349,12.46626773,FALSE
885,JFK,2013-07-24 20:00,N294JB,2013,7,24,2002,2000,2,-25,B6,418,BOS,34,187,20,0,20,78.98,55.94,45.14,340,12.65858,0,1011,10,Wednesday,FALSE,FALSE,-4.329489346,11.89517422,FALSE
886,JFK,2013-07-24 21:00,N362NB,2013,7,24,2213,2145,28,5,DL,985,BOS,33,187,21,45,145,75.92,55.04,48.34,340,12.65858,0,1012.1,10,Wednesday,FALSE,FALSE,-4.329489346,11.89517422,FALSE
887,JFK,2013-07-24 23:00,N558JB,2013,7,24,2325,2305,20,9,B6,718,BOS,34,187,23,5,200,71.06,53.06,52.95,10,13.80936,0,1013.4,10,Wednesday,FALSE,FALSE,2.397970199,13.59956479,FALSE
888,JFK,2013-07-25 6:00,N374JB,2013,7,25,640,645,-5,-11,B6,318,BOS,37,187,6,45,20,66.02,53.96,65.07,20,14.96014,0,1014.6,10,Thursday,FALSE,FALSE,5.116669227,14.05793316,FALSE
892,JFK,2013-07-25 12:00,N345NB,2013,7,25,1156,1200,-4,-12,DL,1006,BOS,46,187,12,0,145,66.02,53.06,62.96,40,16.11092,0,1017.4,10,Thursday,FALSE,FALSE,10.35589976,12.34168074,FALSE
894,JFK,2013-07-25 12:00,N284JB,2013,7,25,1245,1242,3,5,B6,1318,BOS,39,187,12,42,20,66.02,53.06,62.96,40,16.11092,0,1017.4,10,Thursday,FALSE,FALSE,10.35589976,12.34168074,FALSE
896,JFK,2013-07-25 14:00,N718TW,2013,7,25,1453,1455,-2,65,DL,1164,BOS,40,187,14,55,178,64.94,55.94,72.62,20,11.5078,0,1017.5,10,Thursday,FALSE,FALSE,3.935899405,10.81379474,FALSE
898,JFK,2013-07-25 16:00,N284JB,2013,7,25,1738,1636,62,64,B6,918,BOS,35,187,16,36,20,66.02,57.02,72.72,10,11.5078,0,1017.4,10,Thursday,FALSE,FALSE,1.998308499,11.33297066,FALSE
900,JFK,2013-07-25 19:00,N902XJ,2013,7,25,2048,1930,78,72,9E,3385,BOS,39,187,19,30,95,66.02,57.02,72.72,30,6.90468,0,1017.5,10,Thursday,FALSE,FALSE,3.45234,5.979628285,FALSE
902,JFK,2013-07-25 20:00,N339JB,2013,7,25,2128,2000,88,99,B6,418,BOS,36,187,20,0,20,66.02,57.02,72.72,40,9.20624,0,1017.4,10,Thursday,FALSE,FALSE,5.917657004,7.052388994,FALSE
905,JFK,2013-07-26 6:00,N192JB,2013,7,26,645,645,0,12,B6,318,BOS,54,187,6,45,20,66.92,57.92,72.81,360,10.35702,0,1016.2,10,Friday,FALSE,FALSE,-2.54E-15,10.35702,FALSE
907,JFK,2013-07-26 9:00,N357NB,2013,7,26,1153,915,158,147,DL,867,BOS,50,187,9,15,145,71.06,59,65.67,10,13.80936,0,1016.8,10,Friday,FALSE,FALSE,2.397970199,13.59956479,FALSE
909,JFK,2013-07-26 12:00,N348NB,2013,7,26,1213,1200,13,4,DL,1006,BOS,47,187,12,0,145,80.06,57.92,46.79,10,6.90468,0,1016.9,10,Friday,FALSE,FALSE,1.198985099,6.799782396,FALSE
911,JFK,2013-07-26 12:00,N324JB,2013,7,26,1238,1242,-4,18,B6,1318,BOS,47,187,12,42,20,80.06,57.92,46.79,10,6.90468,0,1016.9,10,Friday,FALSE,FALSE,1.198985099,6.799782396,FALSE
912,JFK,2013-07-26 13:00,N228JB,2013,7,26,1406,1354,12,5,B6,118,BOS,44,187,13,54,20,80.96,57.92,45.44,350,11.5078,0,1016.5,10,Friday,FALSE,FALSE,-1.998308499,11.33297066,FALSE
915,JFK,2013-07-26 16:00,N345NB,2013,7,26,1644,1625,19,2,DL,402,BOS,43,187,16,25,145,80.96,60.08,49.09,210,10.35702,0,1016.2,10,Friday,FALSE,FALSE,-5.17851,-8.969442428,FALSE
917,JFK,2013-07-26 19:00,N602LR,2013,7,26,1937,1930,7,17,9E,3385,BOS,43,187,19,30,95,73.04,64.94,75.75,190,12.65858,0,1016.6,10,Friday,FALSE,FALSE,-2.198139349,-12.46626773,FALSE
919,JFK,2013-07-26 20:00,N266JB,2013,7,26,2031,2000,31,17,B6,418,BOS,42,187,20,0,20,71.06,66.92,86.77,190,17.2617,0,1016.7,10,Friday,FALSE,FALSE,-2.997462748,-16.99945599,FALSE
920,JFK,2013-07-26 21:00,N345NB,2013,7,26,2138,2145,-7,-33,DL,985,BOS,37,187,21,45,145,71.06,66.92,86.77,190,13.80936,0,1017.4,10,Friday,FALSE,FALSE,-2.397970199,-13.59956479,FALSE
921,JFK,2013-07-26 23:00,N328JB,2013,7,26,2301,2305,-4,0,B6,718,BOS,40,187,23,5,20,71.06,66.02,84.1,220,8.05546,0,1017.9,10,Friday,FALSE,FALSE,-5.177949878,-6.17084037,FALSE
923,JFK,2013-07-27 9:00,N345NB,2013,7,27,904,915,-11,-21,DL,867,BOS,45,187,9,15,145,75.92,66.02,71.42,210,5.7539,0,1018.3,10,Saturday,TRUE,FALSE,-2.87695,-4.983023571,FALSE
926,JFK,2013-07-27 12:00,N331NB,2013,7,27,1156,1200,-4,-25,DL,1006,BOS,35,187,12,0,145,78.98,66.02,64.54,150,11.5078,0,1018,10,Saturday,TRUE,FALSE,5.7539,-9.966047142,FALSE
928,JFK,2013-07-27 14:00,N360NB,2013,7,27,1454,1455,-1,-21,DL,1164,BOS,33,187,14,55,145,78.98,64.94,62.16,170,13.80936,0,1017.3,10,Saturday,TRUE,FALSE,2.397970199,-13.59956479,FALSE
930,JFK,2013-07-27 16:00,N228JB,2013,7,27,1632,1636,-4,-10,B6,918,BOS,40,187,16,36,20,78.98,62.96,57.99,160,13.80936,0,1016.2,10,Saturday,TRUE,FALSE,4.723079286,-12.97655369,FALSE
931,JFK,2013-07-27 16:00,N365NB,2013,7,27,1623,1625,-2,-24,DL,402,BOS,31,187,16,25,145,78.98,62.96,57.99,160,13.80936,0,1016.2,10,Saturday,TRUE,FALSE,4.723079286,-12.97655369,FALSE
935,JFK,2013-07-27 21:00,N179JB,2013,7,27,2233,2125,68,56,B6,618,BOS,39,187,21,25,20,71.06,68,90.06,150,4.60312,0,1016.4,10,Saturday,TRUE,FALSE,2.30156,-3.986418857,FALSE
936,JFK,2013-07-27 21:00,N365NB,2013,7,27,2140,2145,-5,4,DL,985,BOS,38,187,21,45,145,71.06,68,90.06,150,4.60312,0,1016.4,10,Saturday,TRUE,FALSE,2.30156,-3.986418857,FALSE
937,JFK,2013-07-27 23:00,N203JB,2013,7,27,2315,2305,10,-5,B6,718,BOS,37,187,23,5,20,69.98,66.92,90.02,0,0,0,1015.1,10,Saturday,TRUE,FALSE,0,0,FALSE
938,JFK,2013-07-28 6:00,N324JB,2013,7,28,652,645,7,-4,B6,318,BOS,36,187,6,45,20,71.06,69.08,93.47,230,6.90468,0,1015.6,7,Sunday,TRUE,FALSE,-5.289291746,-4.438242753,FALSE
940,JFK,2013-07-28 9:00,N342NB,2013,7,28,912,915,-3,-19,DL,867,BOS,43,187,9,15,145,73.94,68,81.71,150,9.20624,0,1015.4,10,Sunday,TRUE,FALSE,4.60312,-7.972837713,FALSE
941,JFK,2013-07-28 10:00,N283JB,2013,7,28,1017,1017,0,-6,B6,518,BOS,44,187,10,17,20,75.02,68,78.81,120,11.5078,0,1015.3,10,Sunday,TRUE,FALSE,9.966047142,-5.7539,FALSE
943,JFK,2013-07-28 12:00,N315NB,2013,7,28,1156,1200,-4,-12,DL,1006,BOS,40,187,12,0,145,75.02,66.92,75.93,140,12.65858,0,1015.7,10,Sunday,TRUE,FALSE,8.13677838,-9.697034867,FALSE
944,JFK,2013-07-28 13:00,N249JB,2013,7,28,1357,1354,3,-6,B6,118,BOS,34,187,13,54,20,73.94,69.98,87.45,140,11.5078,0,1015.3,10,Sunday,TRUE,FALSE,7.397071255,-8.815486243,FALSE
945,JFK,2013-07-28 14:00,N360NB,2013,7,28,1448,1455,-7,-32,DL,1164,BOS,33,187,14,55,145,75.92,69.08,79.37,140,14.96014,0,1014.8,10,Sunday,TRUE,FALSE,9.616192631,-11.46013212,FALSE
946,JFK,2013-07-28 16:00,N315NB,2013,7,28,1624,1625,-1,41,DL,402,BOS,32,187,16,25,145,77,68,73.78,150,12.65858,0,1014.2,10,Sunday,TRUE,FALSE,6.32929,-10.96265186,FALSE
947,JFK,2013-07-28 16:00,N354JB,2013,7,28,1747,1636,71,117,B6,918,BOS,34,187,16,36,20,77,68,73.78,150,12.65858,0,1014.2,10,Sunday,TRUE,FALSE,6.32929,-10.96265186,FALSE
953,JFK,2013-07-28 21:00,N315NB,2013,7,28,2206,2145,21,58,DL,985,BOS,34,187,21,45,145,73.04,69.98,90.14,180,11.5078,0.01,1015.7,9,Sunday,TRUE,FALSE,1.41E-15,-11.5078,TRUE
954,JFK,2013-07-28 23:00,N296JB,2013,7,28,29,2305,84,82,B6,718,BOS,34,187,23,5,20,73.04,71.06,93.52,0,0,0.02,1014.8,10,Sunday,TRUE,FALSE,0,0,TRUE
956,JFK,2013-07-29 8:00,N347AA,2013,7,29,914,830,44,22,AA,1838,BOS,35,187,8,30,14,75.92,69.08,79.37,290,5.7539,0,1016.7,10,Monday,FALSE,FALSE,-5.406897371,1.967949703,FALSE
957,JFK,2013-07-29 9:00,N365NB,2013,7,29,914,915,-1,2,DL,867,BOS,50,187,9,15,145,78.08,68,71.19,330,3.45234,0,1017,10,Monday,FALSE,FALSE,-1.72617,2.989814143,FALSE
958,JFK,2013-07-29 10:00,N329JB,2013,7,29,1015,1017,-2,-6,B6,518,BOS,39,187,10,17,20,78.98,68,69.11,240,3.45234,0,1017.1,10,Monday,FALSE,FALSE,-2.989814143,-1.72617,FALSE
959,JFK,2013-07-29 12:00,N321NB,2013,7,29,1157,1200,-3,-6,DL,1006,BOS,43,187,12,0,145,80.96,66.92,62.4,200,12.65858,0,1016.9,10,Monday,FALSE,FALSE,-4.329489346,-11.89517422,FALSE
960,JFK,2013-07-29 12:00,N347AA,2013,7,29,1241,1245,-4,-9,AA,1850,BOS,45,187,12,45,14,80.96,66.92,62.4,200,12.65858,0,1016.9,10,Monday,FALSE,FALSE,-4.329489346,-11.89517422,FALSE
961,JFK,2013-07-29 12:00,N249JB,2013,7,29,1234,1242,-8,9,B6,1318,BOS,56,187,12,42,20,80.96,66.92,62.4,200,12.65858,0,1016.9,10,Monday,FALSE,FALSE,-4.329489346,-11.89517422,FALSE
962,JFK,2013-07-29 13:00,N323JB,2013,7,29,1403,1354,9,-8,B6,118,BOS,31,187,13,54,20,82.04,64.04,54.5,200,11.5078,0,1016.7,10,Monday,FALSE,FALSE,-3.935899405,-10.81379474,FALSE
965,JFK,2013-07-29 16:00,N304JB,2013,7,29,1735,1636,59,31,B6,918,BOS,36,187,16,36,20,82.94,64.94,54.63,190,12.65858,0,1016.6,10,Monday,FALSE,FALSE,-2.198139349,-12.46626773,FALSE
968,JFK,2013-07-29 19:00,N920XJ,2013,7,29,1946,1930,16,-13,9E,3385,BOS,38,187,19,30,95,80.96,48.02,31.59,280,12.65858,0,1017.4,10,Monday,FALSE,FALSE,-12.46626773,2.198139349,FALSE
969,JFK,2013-07-29 20:00,N249JB,2013,7,29,2104,2000,64,40,B6,418,BOS,41,187,20,0,20,78.98,50,36.29,270,12.65858,0,1018.1,10,Monday,FALSE,FALSE,-12.65858,-2.33E-15,FALSE
970,JFK,2013-07-29 21:00,N366NB,2013,7,29,2143,2145,-2,-22,DL,985,BOS,39,187,21,45,145,78.08,51.98,40.23,280,10.35702,0,1018.7,10,Monday,FALSE,FALSE,-10.19967359,1.798477649,FALSE
971,JFK,2013-07-29 23:00,N216JB,2013,7,29,310,2305,245,229,B6,718,BOS,34,187,23,5,20,75.92,51.08,41.8,300,12.65858,0,1019.3,10,Monday,FALSE,FALSE,-10.96265186,6.32929,FALSE
973,JFK,2013-07-30 7:00,N603JB,2013,7,30,809,749,20,5,B6,1818,BOS,33,187,7,49,200,73.04,53.96,51.18,300,6.90468,0,1021.5,10,Tuesday,FALSE,FALSE,-5.979628285,3.45234,FALSE
975,JFK,2013-07-30 9:00,N319NB,2013,7,30,907,915,-8,-33,DL,867,BOS,35,187,9,15,145,77,53.06,43.38,330,10.35702,0,1021.6,10,Tuesday,FALSE,FALSE,-5.17851,8.969442428,FALSE
977,JFK,2013-07-30 12:00,N274JB,2013,7,30,1259,1254,5,-5,B6,1318,BOS,36,187,12,54,20,82.94,51.08,33.2,260,12.65858,0,1020.6,10,Tuesday,FALSE,FALSE,-12.46626773,-2.198139349,FALSE
979,JFK,2013-07-30 12:00,N317NB,2013,7,30,1152,1200,-8,-17,DL,1006,BOS,36,187,12,0,145,82.94,51.08,33.2,260,12.65858,0,1020.6,10,Tuesday,FALSE,FALSE,-12.46626773,-2.198139349,FALSE
980,JFK,2013-07-30 13:00,N374JB,2013,7,30,1452,1354,58,55,B6,118,BOS,40,187,13,54,20,80.96,51.08,35.4,300,8.05546,0,1020.3,10,Tuesday,FALSE,FALSE,-6.976232999,4.02773,FALSE
982,JFK,2013-07-30 16:00,N274JB,2013,7,30,1635,1636,-1,-35,B6,918,BOS,34,187,16,36,20,80.96,51.08,35.4,330,9.20624,0,1019.4,10,Tuesday,FALSE,FALSE,-4.60312,7.972837713,FALSE
984,JFK,2013-07-30 16:00,N317NB,2013,7,30,1620,1625,-5,-43,DL,402,BOS,34,187,16,25,145,80.96,51.08,35.4,330,9.20624,0,1019.4,10,Tuesday,FALSE,FALSE,-4.60312,7.972837713,FALSE
986,JFK,2013-07-30 19:00,N901XJ,2013,7,30,2248,1930,198,153,9E,3385,BOS,36,187,19,30,95,78.98,51.08,37.78,310,12.65858,0,1020.1,10,Tuesday,FALSE,FALSE,-9.697034867,8.13677838,FALSE
987,JFK,2013-07-30 20:00,N283JB,2013,7,30,1959,2000,-1,-28,B6,418,BOS,33,187,20,0,20,77,51.98,41.69,320,9.20624,0,1020.3,10,Tuesday,FALSE,FALSE,-5.917657004,7.052388994,FALSE
988,JFK,2013-07-30 21:00,N317NB,2013,7,30,2144,2145,-1,-14,DL,985,BOS,32,187,21,45,145,75.92,53.06,44.97,290,6.90468,0,1020.5,10,Tuesday,FALSE,FALSE,-6.488276845,2.361539643,FALSE
989,JFK,2013-07-30 23:00,N307JB,2013,7,30,2311,2305,6,6,B6,718,BOS,36,187,23,5,20,73.94,55.04,51.65,0,0,0,1020.5,10,Tuesday,FALSE,FALSE,0,0,FALSE
990,JFK,2013-07-31 6:00,N192JB,2013,7,31,644,645,-1,6,B6,318,BOS,36,187,6,45,20,69.98,57.02,63.45,330,6.90468,0,1021.3,10,Wednesday,FALSE,FALSE,-3.45234,5.979628285,FALSE
992,JFK,2013-07-31 9:00,N317NB,2013,7,31,920,915,5,-17,DL,867,BOS,37,187,9,15,145,78.98,55.04,43.68,0,0,0,1021.1,10,Wednesday,FALSE,FALSE,0,0,FALSE
995,JFK,2013-07-31 12:00,N193JB,2013,7,31,1238,1242,-4,-9,B6,1318,BOS,39,187,12,42,20,80.06,57.02,45.3,190,11.5078,0,1020.3,10,Wednesday,FALSE,FALSE,-1.998308499,-11.33297066,FALSE
996,JFK,2013-07-31 12:00,N363NB,2013,7,31,1159,1200,-1,-21,DL,1006,BOS,34,187,12,0,145,80.06,57.02,45.3,190,11.5078,0,1020.3,10,Wednesday,FALSE,FALSE,-1.998308499,-11.33297066,FALSE
1000,JFK,2013-07-31 16:00,N363NB,2013,7,31,1627,1625,2,0,DL,402,BOS,45,187,16,25,145,78.08,60.08,53.95,170,11.5078,0,1018.7,10,Wednesday,FALSE,FALSE,1.998308499,-11.33297066,FALSE
1003,JFK,2013-07-31 19:00,N913XJ,2013,7,31,2038,1930,68,42,9E,3385,BOS,44,187,19,30,95,73.94,62.96,68.57,180,10.35702,0,1018,10,Wednesday,FALSE,FALSE,1.27E-15,-10.35702,FALSE
1004,JFK,2013-07-31 20:00,N231JB,2013,7,31,2104,2000,64,42,B6,418,BOS,40,187,20,0,20,73.04,62.96,70.68,190,10.35702,0,1018,10,Wednesday,FALSE,FALSE,-1.798477649,-10.19967359,FALSE
1006,JFK,2013-07-31 23:00,N265JB,2013,7,31,2346,2305,41,25,B6,718,BOS,37,187,23,5,20,71.96,66.02,81.57,190,5.7539,0,1017.9,10,Wednesday,FALSE,FALSE,-0.999154249,-5.66648533,FALSE
1008,LGA,2013-07-01 7:00,N952UW,2013,7,1,654,700,-6,-9,US,2116,BOS,39,184,7,0,20,75.92,69.98,81.85,170,9.20624,0,1013.8,10,Monday,FALSE,FALSE,1.598646799,-9.066376528,FALSE
1010,LGA,2013-07-01 9:00,N949UW,2013,7,1,854,900,-6,-13,US,2120,BOS,39,184,9,0,20,77,71.06,81.92,160,13.80936,0,1013.6,10,Monday,FALSE,FALSE,4.723079286,-12.97655369,FALSE
1025,LGA,2013-07-02 8:00,N961UW,2013,7,2,753,800,-7,-20,US,2118,BOS,37,184,8,0,20,75.02,69.98,84.34,170,6.90468,0,1020,10,Tuesday,FALSE,FALSE,1.198985099,-6.799782396,FALSE
1031,LGA,2013-07-02 14:00,N953UW,2013,7,2,1354,1400,-6,-18,US,2130,BOS,40,184,14,0,20,82.94,71.06,67.44,180,11.5078,0,1019.5,10,Tuesday,FALSE,FALSE,1.41E-15,-11.5078,FALSE
1032,LGA,2013-07-02 15:00,N945UW,2013,7,2,1545,1500,45,28,US,2132,BOS,36,184,15,0,20,80.06,69.98,71.39,160,13.80936,0,1019.4,10,Tuesday,FALSE,FALSE,4.723079286,-12.97655369,FALSE
1033,LGA,2013-07-02 16:00,N961UW,2013,7,2,1557,1600,-3,-22,US,2134,BOS,33,184,16,0,20,80.96,69.98,69.32,170,16.11092,0,1019.1,10,Tuesday,FALSE,FALSE,2.797631899,-15.86615892,FALSE
1034,LGA,2013-07-02 17:00,N952UW,2013,7,2,1654,1700,-6,-15,US,2136,BOS,31,184,17,0,20,80.96,69.98,69.32,170,11.5078,0,1019.3,10,Tuesday,FALSE,TRUE,1.998308499,-11.33297066,FALSE
1035,LGA,2013-07-02 18:00,N953UW,2013,7,2,1754,1800,-6,-8,US,2138,BOS,36,184,18,0,20,80.96,69.98,69.32,170,11.5078,0,1020,10,Tuesday,FALSE,TRUE,1.998308499,-11.33297066,FALSE
1036,LGA,2013-07-02 19:00,N945UW,2013,7,2,1853,1900,-7,-15,US,2140,BOS,34,184,19,0,20,78.98,69.98,73.97,180,10.35702,0,1020.4,10,Tuesday,FALSE,FALSE,1.27E-15,-10.35702,FALSE
1039,LGA,2013-07-03 6:00,N749US,2013,7,3,555,600,-5,-13,US,2114,BOS,33,184,6,0,179,75.02,69.08,81.79,230,8.05546,0,1023.5,10,Wednesday,FALSE,FALSE,-6.17084037,-5.177949878,FALSE
1040,LGA,2013-07-03 7:00,N953UW,2013,7,3,733,700,33,21,US,2116,BOS,36,184,7,0,20,75.92,69.08,79.37,210,8.05546,0,1023.6,10,Wednesday,FALSE,FALSE,-4.02773,-6.976232999,FALSE
1041,LGA,2013-07-03 8:00,N961UW,2013,7,3,752,800,-8,-10,US,2118,BOS,44,184,8,0,20,78.08,69.08,73.88,190,6.90468,0,1023.9,10,Wednesday,FALSE,FALSE,-1.198985099,-6.799782396,FALSE
1042,LGA,2013-07-03 9:00,N947UW,2013,7,3,854,900,-6,-7,US,2120,BOS,43,184,9,0,20,78.98,69.08,71.72,210,8.05546,0,1024.1,10,Wednesday,FALSE,FALSE,-4.02773,-6.976232999,FALSE
1043,LGA,2013-07-03 10:00,N945UW,2013,7,3,955,1000,-5,-17,US,2122,BOS,39,184,10,0,20,80.96,68,64.77,250,9.20624,0,1024,10,Wednesday,FALSE,FALSE,-8.651035793,-3.148719524,FALSE
1049,LGA,2013-07-03 16:00,N961UW,2013,7,3,1559,1600,-1,-20,US,2134,BOS,38,184,16,0,20,84.02,71.06,65.13,150,11.5078,0,1021.8,10,Wednesday,FALSE,FALSE,5.7539,-9.966047142,FALSE
1050,LGA,2013-07-03 17:00,N947UW,2013,7,3,1654,1700,-6,-18,US,2136,BOS,42,184,17,0,20,82.94,71.06,67.44,170,10.35702,0,1021.5,10,Wednesday,FALSE,TRUE,1.798477649,-10.19967359,FALSE
1051,LGA,2013-07-03 18:00,N945UW,2013,7,3,1802,1800,2,-7,US,2138,BOS,39,184,18,0,20,82.04,71.06,69.43,180,8.05546,0,1021.6,10,Wednesday,FALSE,TRUE,9.86E-16,-8.05546,FALSE
1054,LGA,2013-07-03 21:00,N947UW,2013,7,3,2054,2100,-6,-18,US,2144,BOS,40,184,21,0,20,78.08,73.94,87.12,200,5.7539,0,1023,10,Wednesday,FALSE,FALSE,-1.967949703,-5.406897371,FALSE
1055,LGA,2013-07-05 9:00,N965UW,2013,7,5,855,900,-5,-16,US,2120,BOS,37,184,9,0,20,84.02,71.06,65.13,230,4.60312,0,1022.3,10,Friday,FALSE,FALSE,-3.526194497,-2.958828502,FALSE
1056,LGA,2013-07-05 12:00,N957UW,2013,7,5,1154,1200,-6,-24,US,2126,BOS,37,184,12,0,20,89.06,66.92,48.12,220,5.7539,0,1021.6,10,Friday,FALSE,FALSE,-3.698535627,-4.407743121,FALSE
1058,LGA,2013-07-07 12:00,N945UW,2013,7,7,1153,1200,-7,-23,US,2126,BOS,40,184,12,0,20,93.02,68,44.12,250,9.20624,0,1015.6,10,Sunday,TRUE,FALSE,-8.651035793,-3.148719524,FALSE
1059,LGA,2013-07-07 14:00,N967UW,2013,7,7,1356,1400,-4,-14,US,2130,BOS,37,184,14,0,20,93.02,69.98,47.22,170,14.96014,0,1014.4,10,Sunday,TRUE,FALSE,2.597801049,-14.73286186,FALSE
1060,LGA,2013-07-07 16:00,N945UW,2013,7,7,1626,1600,26,59,US,2134,BOS,52,184,16,0,20,91.94,69.98,48.84,170,13.80936,0,1013.3,10,Sunday,TRUE,FALSE,2.397970199,-13.59956479,FALSE
1063,LGA,2013-07-07 21:00,N948UW,2013,7,7,47,2100,227,213,US,2144,BOS,36,184,21,0,20,84.92,62.96,47.82,350,8.05546,0,1013.7,10,Sunday,TRUE,FALSE,-1.398815949,7.933079462,FALSE
1065,LGA,2013-07-08 7:00,N953UW,2013,7,8,654,700,-6,-15,US,2116,BOS,37,184,7,0,20,77,66.02,68.9,280,8.05546,0,1016.6,10,Monday,FALSE,FALSE,-7.933079462,1.398815949,FALSE
1067,LGA,2013-07-08 9:00,N957UW,2013,7,8,850,900,-10,-25,US,2120,BOS,37,184,9,0,20,80.96,66.02,60.49,320,5.7539,0,1016.3,10,Monday,FALSE,FALSE,-3.698535627,4.407743121,FALSE
1068,LGA,2013-07-08 10:00,N945UW,2013,7,8,955,1000,-5,-10,US,2122,BOS,38,184,10,0,20,84.92,64.04,49.66,270,6.90468,0,1016.5,10,Monday,FALSE,FALSE,-6.90468,-1.27E-15,FALSE
1069,LGA,2013-07-08 11:00,N953UW,2013,7,8,1054,1100,-6,-6,US,2124,BOS,33,184,11,0,20,87.08,62.06,43.23,260,11.5078,0,1016.4,10,Monday,FALSE,FALSE,-11.33297066,-1.998308499,FALSE
1070,LGA,2013-07-08 12:00,N958UW,2013,7,8,1152,1200,-8,-10,US,2126,BOS,33,184,12,0,20,87.08,62.96,44.63,260,11.5078,0,1016.2,10,Monday,FALSE,FALSE,-11.33297066,-1.998308499,FALSE
1074,LGA,2013-07-08 16:00,N958UW,2013,7,8,1614,1600,14,1,US,2134,BOS,33,184,16,0,20,89.96,62.06,39.47,210,11.5078,0,1014.7,10,Monday,FALSE,FALSE,-5.7539,-9.966047142,FALSE
1075,LGA,2013-07-08 17:00,N957UW,2013,7,8,1652,1700,-8,-21,US,2136,BOS,39,184,17,0,20,87.98,62.06,42.02,220,13.80936,0,1014.4,10,Monday,FALSE,TRUE,-8.876485506,-10.57858349,FALSE
1077,LGA,2013-07-08 19:00,N953UW,2013,7,8,1907,1900,7,33,US,2140,BOS,39,184,19,0,20,84.92,66.92,54.9,210,16.11092,0,1015.2,10,Monday,FALSE,FALSE,-8.05546,-13.952466,FALSE
1079,LGA,2013-07-08 21:00,N957UW,2013,7,8,2135,2100,35,26,US,2144,BOS,35,184,21,0,20,84.02,64.94,52.75,260,8.05546,0,1016.9,10,Monday,FALSE,FALSE,-7.933079462,-1.398815949,FALSE
1080,LGA,2013-07-09 6:00,N755US,2013,7,9,553,600,-7,-11,US,2114,BOS,31,184,6,0,179,78.08,64.94,64.03,210,5.7539,0,1017.7,10,Tuesday,FALSE,FALSE,-2.87695,-4.983023571,FALSE
1082,LGA,2013-07-09 8:00,N956UW,2013,7,9,751,800,-9,-10,US,2118,BOS,37,184,8,0,20,80.96,64.94,58.25,0,0,0,1018,9,Tuesday,FALSE,FALSE,0,0,FALSE
1083,LGA,2013-07-09 9:00,N953UW,2013,7,9,852,900,-8,-16,US,2120,BOS,45,184,9,0,20,84.02,66.02,54.77,0,0,0,1017.7,9,Tuesday,FALSE,FALSE,0,0,FALSE
1084,LGA,2013-07-09 10:00,N957UW,2013,7,9,954,1000,-6,-24,US,2122,BOS,33,184,10,0,20,82.94,64.94,54.63,340,4.60312,0,1017.6,10,Tuesday,FALSE,FALSE,-1.574359762,4.325517897,FALSE
1085,LGA,2013-07-09 11:00,N965UW,2013,7,9,1053,1100,-7,-16,US,2124,BOS,42,184,11,0,20,87.08,64.94,47.83,230,9.20624,0,1017.5,10,Tuesday,FALSE,FALSE,-7.052388994,-5.917657004,FALSE
1088,LGA,2013-07-09 14:00,N957UW,2013,7,9,1352,1400,-8,8,US,2130,BOS,43,184,14,0,20,87.98,69.08,53.64,160,14.96014,0,1016.3,10,Tuesday,FALSE,FALSE,5.116669227,-14.05793316,FALSE
1090,LGA,2013-07-09 16:00,N956UW,2013,7,9,1553,1600,-7,36,US,2134,BOS,44,184,16,0,20,84.02,68,58.65,250,8.05546,0,1016,9,Tuesday,FALSE,FALSE,-7.569656319,-2.755129584,FALSE
1091,LGA,2013-07-09 17:00,N953UW,2013,7,9,1657,1700,-3,61,US,2136,BOS,40,184,17,0,20,87.08,64.94,47.83,210,10.35702,0,1015.4,10,Tuesday,FALSE,TRUE,-5.17851,-8.969442428,FALSE
1092,LGA,2013-07-09 18:00,N957UW,2013,7,9,1823,1800,23,90,US,2138,BOS,36,184,18,0,20,87.08,66.92,51.24,190,10.35702,0,1015.1,9,Tuesday,FALSE,TRUE,-1.798477649,-10.19967359,FALSE
1093,LGA,2013-07-09 19:00,N965UW,2013,7,9,2121,1900,141,137,US,2140,BOS,33,184,19,0,20,87.08,66.92,51.24,200,9.20624,0,1015.4,10,Tuesday,FALSE,FALSE,-3.148719524,-8.651035793,FALSE
1096,LGA,2013-07-10 6:00,N760US,2013,7,10,556,600,-4,-13,US,2114,BOS,31,184,6,0,179,75.92,69.98,81.85,180,6.90468,0,1014.3,8,Wednesday,FALSE,FALSE,8.46E-16,-6.90468,FALSE
1097,LGA,2013-07-10 7:00,N946UW,2013,7,10,649,700,-11,11,US,2116,BOS,65,184,7,0,20,78.08,69.98,76.19,180,8.05546,0,1014.4,8,Wednesday,FALSE,FALSE,9.86E-16,-8.05546,FALSE
1102,LGA,2013-07-10 12:00,N955UW,2013,7,10,1153,1200,-7,-6,US,2126,BOS,32,184,12,0,20,87.08,69.98,56.92,230,11.5078,0,1012.1,9,Wednesday,FALSE,FALSE,-8.815486243,-7.397071255,FALSE
1104,LGA,2013-07-10 14:00,N950UW,2013,7,10,1355,1400,-5,6,US,2130,BOS,38,184,14,0,20,84.92,71.96,65.23,220,12.65858,0,1010.7,8,Wednesday,FALSE,FALSE,-8.13677838,-9.697034867,FALSE
1106,LGA,2013-07-10 16:00,N955UW,2013,7,10,1801,1600,121,132,US,2134,BOS,45,184,16,0,20,87.08,69.08,55.19,200,16.11092,0,1009.7,10,Wednesday,FALSE,FALSE,-5.510259168,-15.13931264,FALSE
1107,LGA,2013-07-10 17:00,N965UW,2013,7,10,1807,1700,67,91,US,2136,BOS,40,184,17,0,20,87.08,66.92,51.24,220,14.96014,0,1009.1,10,Wednesday,FALSE,TRUE,-9.616192631,-11.46013212,FALSE
1108,LGA,2013-07-10 18:00,N950UW,2013,7,10,2108,1800,188,188,US,2138,BOS,46,184,18,0,20,91.04,66.92,45.22,220,11.5078,0,1009.7,10,Wednesday,FALSE,TRUE,-7.397071255,-8.815486243,FALSE
1109,LGA,2013-07-10 19:00,N946UW,2013,7,10,2140,1900,160,153,US,2140,BOS,38,184,19,0,20,87.98,66.02,48.26,250,16.11092,0,1010.1,10,Wednesday,FALSE,FALSE,-15.13931264,-5.510259168,FALSE
1111,LGA,2013-07-10 21:00,N965UW,2013,7,10,2142,2100,42,38,US,2144,BOS,38,184,21,0,20,87.08,68,53.18,240,8.05546,0,1010.5,10,Wednesday,FALSE,FALSE,-6.976232999,-4.02773,FALSE
1112,LGA,2013-07-11 6:00,N738US,2013,7,11,640,600,40,30,US,2114,BOS,36,184,6,0,179,78.98,69.98,73.97,210,10.35702,0,1010,10,Thursday,FALSE,FALSE,-5.17851,-8.969442428,FALSE
1114,LGA,2013-07-11 8:00,N946UW,2013,7,11,754,800,-6,-13,US,2118,BOS,36,184,8,0,20,80.06,69.98,71.39,290,5.7539,0,1010.4,10,Thursday,FALSE,FALSE,-5.406897371,1.967949703,FALSE
1116,LGA,2013-07-11 10:00,N950UW,2013,7,11,952,1000,-8,-19,US,2122,BOS,45,184,10,0,20,77,66.02,68.9,310,11.5078,0,1011.1,10,Thursday,FALSE,FALSE,-8.815486243,7.397071255,FALSE
1117,LGA,2013-07-11 11:00,N954UW,2013,7,11,1055,1100,-5,-6,US,2124,BOS,37,184,11,0,20,78.08,64.04,62.05,310,12.65858,0,1010.9,10,Thursday,FALSE,FALSE,-9.697034867,8.13677838,FALSE
1118,LGA,2013-07-11 12:00,N946UW,2013,7,11,1151,1200,-9,-3,US,2126,BOS,40,184,12,0,20,78.98,64.94,62.16,310,9.20624,0,1011.1,10,Thursday,FALSE,FALSE,-7.052388994,5.917657004,FALSE
1119,LGA,2013-07-11 13:00,N951UW,2013,7,11,1312,1300,12,16,US,2128,BOS,40,184,13,0,20,80.96,64.94,58.25,320,3.45234,0,1011.1,10,Thursday,FALSE,FALSE,-2.219121376,2.644645873,FALSE
1121,LGA,2013-07-11 15:00,N954UW,2013,7,11,1458,1500,-2,-1,US,2132,BOS,42,184,15,0,20,84.02,64.04,51.12,80,4.60312,0,1010.7,10,Thursday,FALSE,FALSE,4.533188264,0.7993234,FALSE
1122,LGA,2013-07-11 16:00,N946UW,2013,7,11,1555,1600,-5,-10,US,2134,BOS,37,184,16,0,20,84.02,62.96,49.22,70,3.45234,0,1010.5,10,Thursday,FALSE,FALSE,3.244138422,1.180769822,FALSE
1124,LGA,2013-07-11 18:00,N950UW,2013,7,11,1755,1800,-5,12,US,2138,BOS,38,184,18,0,20,84.02,64.04,51.12,50,5.7539,0,1011.2,10,Thursday,FALSE,TRUE,4.407743121,3.698535627,FALSE
1125,LGA,2013-07-11 19:00,N954UW,2013,7,11,1856,1900,-4,-5,US,2140,BOS,46,184,19,0,20,82.04,60.08,47.39,320,10.35702,0,1011.7,10,Thursday,FALSE,FALSE,-6.657364129,7.933937618,FALSE
1126,LGA,2013-07-11 20:00,N946UW,2013,7,11,1952,2000,-8,4,US,2142,BOS,37,184,20,0,20,80.96,60.08,49.09,340,6.90468,0,1012.1,10,Thursday,FALSE,FALSE,-2.361539643,6.488276845,FALSE
1127,LGA,2013-07-11 21:00,N951UW,2013,7,11,2057,2100,-3,-11,US,2144,BOS,36,184,21,0,20,78.08,60.98,55.7,40,8.05546,0,1013,10,Thursday,FALSE,FALSE,5.177949878,6.17084037,FALSE
1128,LGA,2013-07-12 6:00,N711UW,2013,7,12,554,600,-6,-13,US,2114,BOS,35,184,6,0,179,73.04,60.08,63.83,40,6.90468,0,1015.5,10,Friday,FALSE,FALSE,4.438242753,5.289291746,FALSE
1130,LGA,2013-07-12 8:00,N957UW,2013,7,12,752,800,-8,-11,US,2118,BOS,37,184,8,0,20,73.94,60.98,63.94,40,16.11092,0,1016,10,Friday,FALSE,FALSE,10.35589976,12.34168074,FALSE
1131,LGA,2013-07-12 9:00,N954UW,2013,7,12,853,900,-7,-9,US,2120,BOS,35,184,9,0,20,75.02,60.98,61.66,50,14.96014,0,1016.4,10,Friday,FALSE,FALSE,11.46013212,9.616192631,FALSE
1132,LGA,2013-07-12 10:00,N946UW,2013,7,12,954,1000,-6,-4,US,2122,BOS,39,184,10,0,20,75.02,62.06,64.07,50,17.2617,0,1016.9,10,Friday,FALSE,FALSE,13.22322936,11.09560688,FALSE
1133,LGA,2013-07-12 11:00,N949UW,2013,7,12,1051,1100,-9,-2,US,2124,BOS,36,184,11,0,20,77,62.96,61.91,60,17.2617,0,1017.1,10,Friday,FALSE,FALSE,14.94907071,8.63085,FALSE
1135,LGA,2013-07-12 13:00,N954UW,2013,7,12,1252,1300,-8,9,US,2128,BOS,37,184,13,0,20,77,64.04,64.3,60,16.11092,0,1017.1,10,Friday,FALSE,FALSE,13.952466,8.05546,FALSE
1136,LGA,2013-07-12 14:00,N946UW,2013,7,12,1352,1400,-8,8,US,2130,BOS,38,184,14,0,20,75.92,64.94,68.78,70,14.96014,0,1017.1,10,Friday,FALSE,FALSE,14.05793316,5.116669227,FALSE
1137,LGA,2013-07-12 15:00,N949UW,2013,7,12,1459,1500,-1,0,US,2132,BOS,36,184,15,0,20,73.94,66.02,76.31,50,10.35702,0,1017,10,Friday,FALSE,FALSE,7.933937618,6.657364129,FALSE
1140,LGA,2013-07-12 18:00,N946UW,2013,7,12,1754,1800,-6,-3,US,2138,BOS,35,184,18,0,20,73.04,68,84.22,50,9.20624,0,1017.4,10,Friday,FALSE,TRUE,7.052388994,5.917657004,FALSE
1144,LGA,2013-07-13 10:00,N946UW,2013,7,13,954,1000,-6,-9,US,2122,BOS,34,184,10,0,20,71.96,68,87.35,40,12.65858,0,1023.8,2.5,Saturday,TRUE,FALSE,8.13677838,9.697034867,FALSE
1147,LGA,2013-07-14 12:00,N956UW,2013,7,14,1154,1200,-6,-11,US,2126,BOS,34,184,12,0,20,87.08,69.98,56.92,290,6.90468,0,1025.7,10,Sunday,TRUE,FALSE,-6.488276845,2.361539643,FALSE
1150,LGA,2013-07-14 18:00,N945UW,2013,7,14,1759,1800,-1,-22,US,2138,BOS,34,184,18,0,20,91.04,64.94,42.21,290,8.05546,0,1023.6,10,Sunday,TRUE,TRUE,-7.569656319,2.755129584,FALSE
1151,LGA,2013-07-14 20:00,N956UW,2013,7,14,1955,2000,-5,-20,US,2142,BOS,38,184,20,0,20,89.06,64.94,44.92,250,6.90468,0,1023.7,10,Sunday,TRUE,FALSE,-6.488276845,-2.361539643,FALSE
1152,LGA,2013-07-14 21:00,N963UW,2013,7,14,2051,2100,-9,-21,US,2144,BOS,34,184,21,0,20,87.98,64.94,46.48,230,9.20624,0,1024.1,10,Sunday,TRUE,FALSE,-7.052388994,-5.917657004,FALSE
1155,LGA,2013-07-15 8:00,N957UW,2013,7,15,752,800,-8,-16,US,2118,BOS,39,184,8,0,20,84.02,69.08,60.87,310,9.20624,0,1023.7,10,Monday,FALSE,FALSE,-7.052388994,5.917657004,FALSE
1156,LGA,2013-07-15 9:00,N956UW,2013,7,15,856,900,-4,-17,US,2120,BOS,39,184,9,0,20,86,68,55.04,320,9.20624,0,1023.3,10,Monday,FALSE,FALSE,-5.917657004,7.052388994,FALSE
1158,LGA,2013-07-15 11:00,N945UW,2013,7,15,1052,1100,-8,-25,US,2124,BOS,37,184,11,0,20,89.96,69.08,50.39,320,6.90468,0,1022.5,10,Monday,FALSE,FALSE,-4.438242753,5.289291746,FALSE
1160,LGA,2013-07-15 13:00,N956UW,2013,7,15,1252,1300,-8,-19,US,2128,BOS,37,184,13,0,20,91.94,68,45.63,50,9.20624,0,1021.6,10,Monday,FALSE,FALSE,7.052388994,5.917657004,FALSE
1161,LGA,2013-07-15 14:00,N950UW,2013,7,15,1354,1400,-6,1,US,2130,BOS,32,184,14,0,20,93.02,69.08,45.79,340,10.35702,0,1021.3,10,Monday,FALSE,FALSE,-3.542309465,9.732415267,FALSE
1162,LGA,2013-07-15 15:00,N945UW,2013,7,15,1457,1500,-3,1,US,2132,BOS,33,184,15,0,20,93.92,66.92,41.34,330,8.05546,0,1020.7,10,Monday,FALSE,FALSE,-4.02773,6.976232999,FALSE
1163,LGA,2013-07-15 16:00,N957UW,2013,7,15,1554,1600,-6,7,US,2134,BOS,33,184,16,0,20,93.02,66.92,42.51,330,17.2617,0,1020.2,10,Monday,FALSE,FALSE,-8.63085,14.94907071,FALSE
1164,LGA,2013-07-15 17:00,N956UW,2013,7,15,1654,1700,-6,4,US,2136,BOS,33,184,17,0,20,93.92,66.02,40.07,340,9.20624,0,1020,10,Monday,FALSE,TRUE,-3.148719524,8.651035793,FALSE
1165,LGA,2013-07-15 18:00,N950UW,2013,7,15,1754,1800,-6,3,US,2138,BOS,39,184,18,0,20,91.04,69.98,50.23,60,9.20624,0,1019.9,10,Monday,FALSE,TRUE,7.972837713,4.60312,FALSE
1166,LGA,2013-07-15 19:00,N945UW,2013,7,15,1854,1900,-6,22,US,2140,BOS,42,184,19,0,20,89.06,69.98,53.46,70,9.20624,0,1020.1,10,Monday,FALSE,FALSE,8.651035793,3.148719524,FALSE
1167,LGA,2013-07-15 20:00,N957UW,2013,7,15,1954,2000,-6,23,US,2142,BOS,41,184,20,0,20,89.06,69.98,53.46,60,5.7539,0,1020.2,10,Monday,FALSE,FALSE,4.983023571,2.87695,FALSE
1168,LGA,2013-07-15 21:00,N956UW,2013,7,15,2054,2100,-6,12,US,2144,BOS,42,184,21,0,20,87.98,69.98,55.31,60,5.7539,0,1020.7,10,Monday,FALSE,FALSE,4.983023571,2.87695,FALSE
1170,LGA,2013-07-16 7:00,N954UW,2013,7,16,652,700,-8,-11,US,2116,BOS,34,184,7,0,20,82.04,64.94,56.24,350,12.65858,0,1022.3,10,Tuesday,FALSE,FALSE,-2.198139349,12.46626773,FALSE
1171,LGA,2013-07-16 8:00,N956UW,2013,7,16,750,800,-10,-13,US,2118,BOS,34,184,8,0,20,84.02,64.94,52.75,340,9.20624,0,1022.4,10,Tuesday,FALSE,FALSE,-3.148719524,8.651035793,FALSE
1172,LGA,2013-07-16 9:00,N957UW,2013,7,16,853,900,-7,-12,US,2120,BOS,33,184,9,0,20,84.92,64.04,49.66,360,16.11092,0,1022.2,10,Tuesday,FALSE,FALSE,-3.95E-15,16.11092,FALSE
1173,LGA,2013-07-16 10:00,N947UW,2013,7,16,953,1000,-7,8,US,2122,BOS,35,184,10,0,20,87.98,64.04,45.04,360,11.5078,0,1022,10,Tuesday,FALSE,FALSE,-2.82E-15,11.5078,FALSE
1175,LGA,2013-07-16 12:00,N956UW,2013,7,16,1153,1200,-7,29,US,2126,BOS,36,184,12,0,20,91.04,59,34.22,360,12.65858,0,1021.4,10,Tuesday,FALSE,FALSE,-3.10E-15,12.65858,FALSE
1176,LGA,2013-07-16 13:00,N957UW,2013,7,16,1255,1300,-5,11,US,2128,BOS,33,184,13,0,20,91.94,60.08,34.58,330,14.96014,0,1021.1,10,Tuesday,FALSE,FALSE,-7.48007,12.95586128,FALSE
1177,LGA,2013-07-16 14:00,N947UW,2013,7,16,1353,1400,-7,21,US,2130,BOS,35,184,14,0,20,93.02,55.94,28.82,330,13.80936,0,1020.9,10,Tuesday,FALSE,FALSE,-6.90468,11.95925657,FALSE
1178,LGA,2013-07-16 15:00,N954UW,2013,7,16,1452,1500,-8,-6,US,2132,BOS,33,184,15,0,20,93.02,60.98,34.52,30,11.5078,0,1020.5,10,Tuesday,FALSE,FALSE,5.7539,9.966047142,FALSE
1179,LGA,2013-07-16 16:00,N956UW,2013,7,16,1554,1600,-6,-5,US,2134,BOS,35,184,16,0,20,93.02,59,32.17,350,14.96014,0,1020.2,10,Tuesday,FALSE,FALSE,-2.597801049,14.73286186,FALSE
1182,LGA,2013-07-16 19:00,N954UW,2013,7,16,1854,1900,-6,0,US,2140,BOS,36,184,19,0,20,89.06,60.98,39.08,360,11.5078,0,1020.3,10,Tuesday,FALSE,FALSE,-2.82E-15,11.5078,FALSE
1183,LGA,2013-07-16 20:00,N956UW,2013,7,16,1955,2000,-5,17,US,2142,BOS,32,184,20,0,20,87.08,62.06,43.23,360,8.05546,0,1020.6,10,Tuesday,FALSE,FALSE,-1.97E-15,8.05546,FALSE
1184,LGA,2013-07-16 21:00,N957UW,2013,7,16,2047,2100,-13,-3,US,2144,BOS,33,184,21,0,20,87.08,62.06,43.23,10,3.45234,0,1021,10,Tuesday,FALSE,FALSE,0.59949255,3.399891198,FALSE
1185,LGA,2013-07-17 6:00,N721UW,2013,7,17,555,600,-5,-14,US,2114,BOS,32,184,6,0,179,80.96,68,64.77,20,4.60312,0,1021.8,10,Wednesday,FALSE,FALSE,1.574359762,4.325517897,FALSE
1186,LGA,2013-07-17 7:00,N944UW,2013,7,17,729,700,29,34,US,2116,BOS,34,184,7,0,20,84.02,68,58.65,0,0,0,1021.9,10,Wednesday,FALSE,FALSE,0,0,FALSE
1187,LGA,2013-07-17 8:00,N957UW,2013,7,17,751,800,-9,-5,US,2118,BOS,34,184,8,0,20,86,68,55.04,40,3.45234,0,1022.1,10,Wednesday,FALSE,FALSE,2.219121376,2.644645873,FALSE
1191,LGA,2013-07-17 12:00,N957UW,2013,7,17,1152,1200,-8,-7,US,2126,BOS,35,184,12,0,20,93.92,66.02,40.07,60,6.90468,0,1020.8,10,Wednesday,FALSE,FALSE,5.979628285,3.45234,FALSE
1192,LGA,2013-07-17 13:00,N956UW,2013,7,17,1253,1300,-7,5,US,2128,BOS,45,184,13,0,20,95,64.04,36.17,20,6.90468,0,1020.2,10,Wednesday,FALSE,FALSE,2.361539643,6.488276845,FALSE
1195,LGA,2013-07-17 16:00,N957UW,2013,7,17,1552,1600,-8,6,US,2134,BOS,47,184,16,0,20,93.02,66.02,41.2,160,8.05546,0,1018.5,10,Wednesday,FALSE,FALSE,2.755129584,-7.569656319,FALSE
1196,LGA,2013-07-17 17:00,N956UW,2013,7,17,1653,1700,-7,2,US,2136,BOS,42,184,17,0,20,91.04,64.04,40.9,170,14.96014,0,1018.2,10,Wednesday,FALSE,TRUE,2.597801049,-14.73286186,FALSE
1197,LGA,2013-07-17 18:00,N944UW,2013,7,17,1901,1800,61,57,US,2138,BOS,39,184,18,0,20,89.06,64.94,44.92,160,11.5078,0,1018.3,10,Wednesday,FALSE,TRUE,3.935899405,-10.81379474,FALSE
1199,LGA,2013-07-17 20:00,N957UW,2013,7,17,2006,2000,6,9,US,2142,BOS,40,184,20,0,20,87.08,66.02,49.66,170,11.5078,0,1017.9,10,Wednesday,FALSE,FALSE,1.998308499,-11.33297066,FALSE
1201,LGA,2013-07-18 6:00,N745VJ,2013,7,18,551,600,-9,-7,US,2114,BOS,42,184,6,0,179,82.94,69.08,63.03,310,9.20624,0,1016.9,10,Thursday,FALSE,FALSE,-7.052388994,5.917657004,FALSE
1202,LGA,2013-07-18 7:00,N944UW,2013,7,18,653,700,-7,-6,US,2116,BOS,40,184,7,0,20,84.02,69.98,62.77,300,9.20624,0,1017.2,10,Thursday,FALSE,FALSE,-7.972837713,4.60312,FALSE
1204,LGA,2013-07-18 9:00,N956UW,2013,7,18,852,900,-8,-21,US,2120,BOS,33,184,9,0,20,89.06,71.06,55.46,330,5.7539,0,1017.2,10,Thursday,FALSE,FALSE,-2.87695,4.983023571,FALSE
1205,LGA,2013-07-18 10:00,N947UW,2013,7,18,953,1000,-7,-24,US,2122,BOS,36,184,10,0,20,91.94,69.08,47.36,330,10.35702,0,1016.9,10,Thursday,FALSE,FALSE,-5.17851,8.969442428,FALSE
1206,LGA,2013-07-18 11:00,N944UW,2013,7,18,1055,1100,-5,-20,US,2124,BOS,35,184,11,0,20,93.92,68,42.91,330,9.20624,0,1016.8,10,Thursday,FALSE,FALSE,-4.60312,7.972837713,FALSE
1207,LGA,2013-07-18 12:00,N957UW,2013,7,18,1154,1200,-6,-16,US,2126,BOS,35,184,12,0,20,95,64.94,37.33,300,5.7539,0,1016.4,10,Thursday,FALSE,FALSE,-4.983023571,2.87695,FALSE
1216,LGA,2013-07-18 21:00,N955UW,2013,7,18,2133,2100,33,26,US,2144,BOS,39,184,21,0,20,91.94,68,45.63,280,3.45234,0,1014.7,10,Thursday,FALSE,FALSE,-3.399891198,0.59949255,FALSE
1217,LGA,2013-07-19 6:00,N745VJ,2013,7,19,552,600,-8,-16,US,2114,BOS,38,184,6,0,179,87.08,71.06,59.05,210,8.05546,0,1013.6,10,Friday,FALSE,FALSE,-4.02773,-6.976232999,FALSE
1218,LGA,2013-07-19 7:00,N944UW,2013,7,19,654,700,-6,-3,US,2116,BOS,41,184,7,0,20,87.08,73.04,63.14,210,8.05546,0,1014,9,Friday,FALSE,FALSE,-4.02773,-6.976232999,FALSE
1219,LGA,2013-07-19 8:00,N947UW,2013,7,19,754,800,-6,-18,US,2118,BOS,39,184,8,0,20,89.96,71.96,55.58,220,8.05546,0,1013.9,9,Friday,FALSE,FALSE,-5.177949878,-6.17084037,FALSE
1220,LGA,2013-07-19 9:00,N955UW,2013,7,19,854,900,-6,-18,US,2120,BOS,42,184,9,0,20,93.02,73.04,52.39,220,9.20624,0,1013.7,9,Friday,FALSE,FALSE,-5.917657004,-7.052388994,FALSE
1221,LGA,2013-07-19 10:00,N958UW,2013,7,19,955,1000,-5,-24,US,2122,BOS,40,184,10,0,20,95,73.04,49.27,230,10.35702,0,1013.3,9,Friday,FALSE,FALSE,-7.933937618,-6.657364129,FALSE
1222,LGA,2013-07-19 11:00,N944UW,2013,7,19,1052,1100,-8,-21,US,2124,BOS,42,184,11,0,20,95,71.96,47.51,220,10.35702,0,1012.8,9,Friday,FALSE,FALSE,-6.657364129,-7.933937618,FALSE
1223,LGA,2013-07-19 12:00,N947UW,2013,7,19,1151,1200,-9,-13,US,2126,BOS,41,184,12,0,20,96.08,69.98,42.96,230,17.2617,0,1012.1,10,Friday,FALSE,FALSE,-13.22322936,-11.09560688,FALSE
1224,LGA,2013-07-19 13:00,N955UW,2013,7,19,1253,1300,-7,-9,US,2128,BOS,43,184,13,0,20,98.06,69.08,39.22,240,16.11092,0,1011.3,10,Friday,FALSE,FALSE,-13.952466,-8.05546,FALSE
1225,LGA,2013-07-19 14:00,N958UW,2013,7,19,1352,1400,-8,-16,US,2130,BOS,40,184,14,0,20,98.06,69.98,40.44,220,13.80936,0,1010.6,10,Friday,FALSE,FALSE,-8.876485506,-10.57858349,FALSE
1226,LGA,2013-07-19 15:00,N944UW,2013,7,19,1515,1500,15,5,US,2132,BOS,41,184,15,0,20,98.96,69.08,38.16,240,16.11092,0,1009.9,10,Friday,FALSE,FALSE,-13.952466,-8.05546,FALSE
1227,LGA,2013-07-19 16:00,N947UW,2013,7,19,1600,1600,0,-11,US,2134,BOS,43,184,16,0,20,98.96,69.08,38.16,230,14.96014,0,1009.1,10,Friday,FALSE,FALSE,-11.46013212,-9.616192631,FALSE
1228,LGA,2013-07-19 17:00,N955UW,2013,7,19,1728,1700,28,19,US,2136,BOS,46,184,17,0,20,96.98,69.98,41.8,230,18.41248,0,1008.5,10,Friday,FALSE,TRUE,-14.10477799,-11.83531401,FALSE
1229,LGA,2013-07-19 18:00,N958UW,2013,7,19,1758,1800,-2,-7,US,2138,BOS,45,184,18,0,20,95,71.96,47.51,230,14.96014,0,1008.7,10,Friday,FALSE,TRUE,-11.46013212,-9.616192631,FALSE
1230,LGA,2013-07-19 19:00,N944UW,2013,7,19,1950,1900,50,34,US,2140,BOS,39,184,19,0,20,93.92,71.96,49.12,230,11.5078,0,1008.9,9,Friday,FALSE,FALSE,-8.815486243,-7.397071255,FALSE
1231,LGA,2013-07-19 20:00,N947UW,2013,7,19,2136,2000,96,98,US,2142,BOS,36,184,20,0,20,93.02,73.04,52.39,230,12.65858,0,1009.8,10,Friday,FALSE,FALSE,-9.697034867,-8.13677838,FALSE
1233,LGA,2013-07-20 10:00,N958UW,2013,7,20,956,1000,-4,-26,US,2122,BOS,38,184,10,0,20,87.98,68,51.68,240,14.96014,0,1008.7,10,Saturday,TRUE,FALSE,-12.95586128,-7.48007,FALSE
1234,LGA,2013-07-20 12:00,N944UW,2013,7,20,1203,1200,3,-5,US,2126,BOS,38,184,12,0,20,91.94,68,45.63,240,17.2617,0,1007.3,10,Saturday,TRUE,FALSE,-14.94907071,-8.63085,FALSE
1235,LGA,2013-07-20 15:00,N955UW,2013,7,20,1454,1500,-6,-15,US,2132,BOS,41,184,15,0,20,93.92,66.92,41.34,270,16.11092,0,1006.5,10,Saturday,TRUE,FALSE,-16.11092,-2.96E-15,FALSE
1236,LGA,2013-07-21 12:00,N945UW,2013,7,21,1150,1200,-10,-16,US,2126,BOS,32,184,12,0,20,82.04,57.92,43.87,40,12.65858,0,1013.9,10,Sunday,TRUE,FALSE,8.13677838,9.697034867,FALSE
1238,LGA,2013-07-21 16:00,N945UW,2013,7,21,1630,1600,30,22,US,2134,BOS,32,184,16,0,20,84.92,57.92,39.97,50,9.20624,0,1013.1,10,Sunday,TRUE,FALSE,7.052388994,5.917657004,FALSE
1239,LGA,2013-07-21 18:00,N956UW,2013,7,21,1754,1800,-6,-13,US,2138,BOS,32,184,18,0,20,82.04,62.06,50.84,50,8.05546,0,1013,10,Sunday,TRUE,TRUE,6.17084037,5.177949878,FALSE
1241,LGA,2013-07-21 21:00,N953UW,2013,7,21,2100,2100,0,-17,US,2144,BOS,32,184,21,0,20,78.98,66.92,66.58,150,5.7539,0,1014.4,10,Sunday,TRUE,FALSE,2.87695,-4.983023571,FALSE
1242,LGA,2013-07-22 6:00,N708UW,2013,7,22,620,600,20,18,US,2114,BOS,32,184,6,0,179,75.02,69.98,84.34,40,10.35702,0,1013.9,10,Monday,FALSE,FALSE,6.657364129,7.933937618,FALSE
1247,LGA,2013-07-22 11:00,N959UW,2013,7,22,1056,1100,-4,-8,US,2124,BOS,35,184,11,0,20,78.98,71.06,76.74,50,16.11092,0,1013.9,7,Monday,FALSE,FALSE,12.34168074,10.35589976,FALSE
1251,LGA,2013-07-22 15:00,N959UW,2013,7,22,1453,1500,-7,-5,US,2132,BOS,34,184,15,0,20,78.98,71.96,79.12,50,12.65858,0,1011.3,8,Monday,FALSE,FALSE,9.697034867,8.13677838,FALSE
1259,LGA,2013-07-23 7:00,N963UW,2013,7,23,657,700,-3,4,US,2116,BOS,50,184,7,0,20,75.92,69.08,79.37,230,8.05546,0,1004.7,10,Tuesday,FALSE,FALSE,-6.17084037,-5.177949878,FALSE
1260,LGA,2013-07-23 8:00,N952UW,2013,7,23,817,800,17,13,US,2118,BOS,38,184,8,0,20,77,69.98,78.96,220,10.35702,0,1004,10,Tuesday,FALSE,FALSE,-6.657364129,-7.933937618,FALSE
1261,LGA,2013-07-23 9:00,N954UW,2013,7,23,851,900,-9,-14,US,2120,BOS,35,184,9,0,20,77,69.08,76.57,250,8.05546,0,1003.7,10,Tuesday,FALSE,FALSE,-7.569656319,-2.755129584,FALSE
1264,LGA,2013-07-23 12:00,N952UW,2013,7,23,1158,1200,-2,-8,US,2126,BOS,39,184,12,0,20,84.92,69.08,59.14,250,9.20624,0,1003.1,10,Tuesday,FALSE,FALSE,-8.651035793,-3.148719524,FALSE
1268,LGA,2013-07-23 16:00,N952UW,2013,7,23,1718,1600,78,133,US,2134,BOS,49,184,16,0,20,87.98,66.92,49.79,230,9.20624,0,1000.9,10,Tuesday,FALSE,FALSE,-7.052388994,-5.917657004,FALSE
1270,LGA,2013-07-23 18:00,N959UW,2013,7,23,1819,1800,19,51,US,2138,BOS,54,184,18,0,20,87.08,66.92,51.24,230,9.20624,0,1000.9,10,Tuesday,FALSE,TRUE,-7.052388994,-5.917657004,FALSE
1271,LGA,2013-07-23 19:00,N954UW,2013,7,23,1956,1900,56,71,US,2140,BOS,43,184,19,0,20,84.92,66.92,54.9,250,13.80936,0,1001.4,10,Tuesday,FALSE,FALSE,-12.97655369,-4.723079286,FALSE
1272,LGA,2013-07-23 20:00,N952UW,2013,7,23,2137,2000,97,97,US,2142,BOS,37,184,20,0,20,80.06,69.08,69.23,340,8.05546,0,1002,10,Tuesday,FALSE,FALSE,-2.755129584,7.569656319,FALSE
1273,LGA,2013-07-23 21:00,N963UW,2013,7,23,2155,2100,55,52,US,2144,BOS,38,184,21,0,20,80.06,69.08,69.23,350,4.60312,0,1002.8,10,Tuesday,FALSE,FALSE,-0.7993234,4.533188264,FALSE
1274,LGA,2013-07-24 6:00,N740UW,2013,7,24,554,600,-6,-14,US,2114,BOS,37,184,6,0,179,77,66.92,71.08,280,3.45234,0,1003.9,10,Wednesday,FALSE,FALSE,-3.399891198,0.59949255,FALSE
1276,LGA,2013-07-24 8:00,N954UW,2013,7,24,752,800,-8,-18,US,2118,BOS,38,184,8,0,20,78.08,64.94,64.03,320,17.2617,0,1005.4,10,Wednesday,FALSE,FALSE,-11.09560688,13.22322936,FALSE
1277,LGA,2013-07-24 9:00,N963UW,2013,7,24,854,900,-6,-9,US,2120,BOS,31,184,9,0,20,78.98,64.04,60.23,320,11.5078,0,1006,10,Wednesday,FALSE,FALSE,-7.397071255,8.815486243,FALSE
1279,LGA,2013-07-24 11:00,N959UW,2013,7,24,1053,1100,-7,-1,US,2124,BOS,39,184,11,0,20,80.96,64.94,58.25,320,17.2617,0,1006.8,10,Wednesday,FALSE,FALSE,-11.09560688,13.22322936,FALSE
1281,LGA,2013-07-24 13:00,N963UW,2013,7,24,1252,1300,-8,-1,US,2128,BOS,39,184,13,0,20,80.06,62.06,54.23,310,9.20624,0,1007.4,10,Wednesday,FALSE,FALSE,-7.052388994,5.917657004,FALSE
1283,LGA,2013-07-24 15:00,N959UW,2013,7,24,1457,1500,-3,-10,US,2132,BOS,45,184,15,0,20,82.04,60.98,48.93,330,12.65858,0,1008.1,10,Wednesday,FALSE,FALSE,-6.32929,10.96265186,FALSE
1284,LGA,2013-07-24 16:00,N954UW,2013,7,24,1553,1600,-7,-14,US,2134,BOS,38,184,16,0,20,80.96,60.08,49.09,300,10.35702,0,1008.2,10,Wednesday,FALSE,FALSE,-8.969442428,5.17851,FALSE
1285,LGA,2013-07-24 17:00,N963UW,2013,7,24,1659,1700,-1,4,US,2136,BOS,39,184,17,0,20,80.06,57.92,46.79,330,9.20624,0,1008.4,10,Wednesday,FALSE,TRUE,-4.60312,7.972837713,FALSE
1286,LGA,2013-07-24 18:00,N952UW,2013,7,24,1755,1800,-5,14,US,2138,BOS,41,184,18,0,20,80.06,57.02,45.3,330,8.05546,0,1009.1,10,Wednesday,FALSE,TRUE,-4.02773,6.976232999,FALSE
1288,LGA,2013-07-24 20:00,N954UW,2013,7,24,1952,2000,-8,-7,US,2142,BOS,33,184,20,0,20,77,55.04,46.64,330,12.65858,0,1010.8,10,Wednesday,FALSE,FALSE,-6.32929,10.96265186,FALSE
1289,LGA,2013-07-24 21:00,N963UW,2013,7,24,2051,2100,-9,-21,US,2144,BOS,33,184,21,0,20,75.02,57.02,53.52,340,11.5078,0,1011.9,10,Wednesday,FALSE,FALSE,-3.935899405,10.81379474,FALSE
1291,LGA,2013-07-25 7:00,N946UW,2013,7,25,654,700,-6,-12,US,2116,BOS,36,184,7,0,20,64.94,51.08,60.77,20,13.80936,0,1015.8,10,Thursday,FALSE,FALSE,4.723079286,12.97655369,FALSE
1292,LGA,2013-07-25 8:00,N957UW,2013,7,25,754,800,-6,-1,US,2118,BOS,36,184,8,0,20,66.02,51.08,58.53,40,11.5078,0,1016.2,10,Thursday,FALSE,FALSE,7.397071255,8.815486243,FALSE
1295,LGA,2013-07-25 11:00,N946UW,2013,7,25,1054,1100,-6,-5,US,2124,BOS,40,184,11,0,20,66.02,51.08,58.53,60,17.2617,0,1017.6,10,Thursday,FALSE,FALSE,14.94907071,8.63085,FALSE
1296,LGA,2013-07-25 12:00,N957UW,2013,7,25,1152,1200,-8,-7,US,2126,BOS,45,184,12,0,20,66.92,51.98,58.65,30,14.96014,0,1017.3,10,Thursday,FALSE,FALSE,7.48007,12.95586128,FALSE
1297,LGA,2013-07-25 13:00,N959UW,2013,7,25,1253,1300,-7,-14,US,2128,BOS,37,184,13,0,20,66.02,53.96,65.07,30,11.5078,0,1017.3,10,Thursday,FALSE,FALSE,5.7539,9.966047142,FALSE
1298,LGA,2013-07-25 14:00,N954UW,2013,7,25,1355,1400,-5,2,US,2130,BOS,52,184,14,0,20,66.02,53.96,65.07,60,14.96014,0,1017.2,10,Thursday,FALSE,FALSE,12.95586128,7.48007,FALSE
1302,LGA,2013-07-25 18:00,N954UW,2013,7,25,1827,1800,27,65,US,2138,BOS,44,184,18,0,20,66.92,55.94,67.79,50,16.11092,0,1017.3,10,Thursday,FALSE,TRUE,12.34168074,10.35589976,FALSE
1303,LGA,2013-07-25 19:00,N946UW,2013,7,25,1936,1900,36,42,US,2140,BOS,36,184,19,0,20,68,55.04,63.21,40,14.96014,0,1017.3,10,Thursday,FALSE,FALSE,9.616192631,11.46013212,FALSE
1304,LGA,2013-07-25 20:00,N959UW,2013,7,25,1950,2000,-10,2,US,2142,BOS,38,184,20,0,20,66.92,55.04,65.61,40,10.35702,0,1017.1,10,Thursday,FALSE,FALSE,6.657364129,7.933937618,FALSE
1307,LGA,2013-07-26 7:00,N954UW,2013,7,26,700,700,0,23,US,2116,BOS,39,184,7,0,20,68,57.02,67.91,10,9.20624,0,1016.2,10,Friday,FALSE,FALSE,1.598646799,9.066376528,FALSE
1309,LGA,2013-07-26 9:00,N946UW,2013,7,26,854,900,-6,2,US,2120,BOS,37,184,9,0,20,71.06,57.92,63.18,20,9.20624,0,1016.6,10,Friday,FALSE,FALSE,3.148719524,8.651035793,FALSE
1310,LGA,2013-07-26 10:00,N949UW,2013,7,26,954,1000,-6,17,US,2122,BOS,40,184,10,0,20,73.04,57.92,59.08,330,11.5078,0,1016.7,10,Friday,FALSE,FALSE,-5.7539,9.966047142,FALSE
1311,LGA,2013-07-26 11:00,N954UW,2013,7,26,1105,1100,5,20,US,2124,BOS,43,184,11,0,20,77,57.02,50.11,360,8.05546,0,1016.8,10,Friday,FALSE,FALSE,-1.97E-15,8.05546,FALSE
1312,LGA,2013-07-26 12:00,N952UW,2013,7,26,1155,1200,-5,47,US,2126,BOS,46,184,12,0,20,78.08,57.02,48.35,330,8.05546,0,1016.5,10,Friday,FALSE,FALSE,-4.02773,6.976232999,FALSE
1313,LGA,2013-07-26 13:00,N946UW,2013,7,26,1256,1300,-4,32,US,2128,BOS,45,184,13,0,20,80.06,57.02,45.3,10,3.45234,0,1016.2,10,Friday,FALSE,FALSE,0.59949255,3.399891198,FALSE
1315,LGA,2013-07-26 15:00,N954UW,2013,7,26,1501,1500,1,27,US,2132,BOS,40,184,15,0,20,80.96,59,47.23,50,11.5078,0,1015.7,10,Friday,FALSE,FALSE,8.815486243,7.397071255,FALSE
1316,LGA,2013-07-26 16:00,N952UW,2013,7,26,1602,1600,2,26,US,2134,BOS,39,184,16,0,20,80.96,57.92,45.44,40,8.05546,0,1015.5,10,Friday,FALSE,FALSE,5.177949878,6.17084037,FALSE
1319,LGA,2013-07-26 19:00,N954UW,2013,7,26,1857,1900,-3,3,US,2140,BOS,38,184,19,0,20,80.96,59,47.23,180,8.05546,0,1015.7,10,Friday,FALSE,FALSE,9.86E-16,-8.05546,FALSE
1320,LGA,2013-07-26 20:00,N952UW,2013,7,26,2005,2000,5,17,US,2142,BOS,41,184,20,0,20,77,62.96,61.91,170,6.90468,0,1016,10,Friday,FALSE,FALSE,1.198985099,-6.799782396,FALSE
1322,LGA,2013-07-27 10:00,N965UW,2013,7,27,1024,1000,24,7,US,2122,BOS,38,184,10,0,20,80.06,55.94,43.56,210,4.60312,0,1017.5,10,Saturday,TRUE,FALSE,-2.30156,-3.986418857,FALSE
1323,LGA,2013-07-27 12:00,N956UW,2013,7,27,1148,1200,-12,-12,US,2126,BOS,41,184,12,0,20,82.94,59,44.29,160,12.65858,0,1017.1,10,Saturday,TRUE,FALSE,4.329489346,-11.89517422,FALSE
1324,LGA,2013-07-27 15:00,N952UW,2013,7,27,1454,1500,-6,-9,US,2132,BOS,34,184,15,0,20,82.04,57.02,42.47,180,12.65858,0,1015.9,10,Saturday,TRUE,FALSE,1.55E-15,-12.65858,FALSE
1325,LGA,2013-07-28 12:00,N961UW,2013,7,28,1148,1200,-12,-15,US,2126,BOS,40,184,12,0,20,77,62.06,59.98,160,11.5078,0,1014.8,10,Sunday,TRUE,FALSE,3.935899405,-10.81379474,FALSE
1326,LGA,2013-07-28 14:00,N949UW,2013,7,28,1351,1400,-9,-19,US,2130,BOS,35,184,14,0,20,77,64.04,64.3,150,14.96014,0,1013.7,10,Sunday,TRUE,FALSE,7.48007,-12.95586128,FALSE
1327,LGA,2013-07-28 16:00,N961UW,2013,7,28,1552,1600,-8,-20,US,2134,BOS,33,184,16,0,20,80.06,62.96,55.97,160,13.80936,0,1013.3,10,Sunday,TRUE,FALSE,4.723079286,-12.97655369,FALSE
1330,LGA,2013-07-28 21:00,N951UW,2013,7,28,36,2100,216,216,US,2144,BOS,34,184,21,0,20,73.94,69.08,84.8,180,8.05546,0,1015,8,Sunday,TRUE,FALSE,9.86E-16,-8.05546,FALSE
1331,LGA,2013-07-29 6:00,N767UW,2013,7,29,555,600,-5,-16,US,2114,BOS,31,184,6,0,179,71.96,66.92,84.16,90,4.60312,0,1015.1,10,Monday,FALSE,FALSE,4.60312,2.82E-16,FALSE
1332,LGA,2013-07-29 7:00,N955UW,2013,7,29,653,700,-7,-11,US,2116,BOS,33,184,7,0,20,73.94,68,81.71,320,3.45234,0,1015.9,10,Monday,FALSE,FALSE,-2.219121376,2.644645873,FALSE
1333,LGA,2013-07-29 8:00,N951UW,2013,7,29,756,800,-4,-18,US,2118,BOS,32,184,8,0,20,75.02,64.94,70.88,360,4.60312,0,1016.5,10,Monday,FALSE,FALSE,-1.13E-15,4.60312,FALSE
1335,LGA,2013-07-29 10:00,N961UW,2013,7,29,954,1000,-6,6,US,2122,BOS,37,184,10,0,20,78.98,62.06,56.18,110,4.60312,0,1016.6,10,Monday,FALSE,FALSE,4.325517897,-1.574359762,FALSE
1336,LGA,2013-07-29 11:00,N955UW,2013,7,29,1053,1100,-7,-3,US,2124,BOS,41,184,11,0,20,82.04,62.06,50.84,50,4.60312,0,1016.4,10,Monday,FALSE,FALSE,3.526194497,2.958828502,FALSE
1337,LGA,2013-07-29 12:00,N951UW,2013,7,29,1154,1200,-6,24,US,2126,BOS,45,184,12,0,20,82.94,60.98,47.52,0,0,0,1016,10,Monday,FALSE,FALSE,0,0,FALSE
1338,LGA,2013-07-29 13:00,N954UW,2013,7,29,1254,1300,-6,24,US,2128,BOS,42,184,13,0,20,86,55.94,35.95,210,10.35702,0,1015.8,10,Monday,FALSE,FALSE,-5.17851,-8.969442428,FALSE
1339,LGA,2013-07-29 14:00,N961UW,2013,7,29,1352,1400,-8,21,US,2130,BOS,32,184,14,0,20,87.08,57.92,37.31,240,8.05546,0,1015.8,10,Monday,FALSE,FALSE,-6.976232999,-4.02773,FALSE
1340,LGA,2013-07-29 15:00,N955UW,2013,7,29,1455,1500,-5,15,US,2132,BOS,32,184,15,0,20,84.92,57.92,39.97,230,13.80936,0,1015.7,10,Monday,FALSE,FALSE,-10.57858349,-8.876485506,FALSE
1341,LGA,2013-07-29 16:00,N951UW,2013,7,29,1550,1600,-10,0,US,2134,BOS,31,184,16,0,20,84.92,55.04,36.02,230,10.35702,0,1015.8,10,Monday,FALSE,FALSE,-7.933937618,-6.657364129,FALSE
1343,LGA,2013-07-29 18:00,N961UW,2013,7,29,1751,1800,-9,-20,US,2138,BOS,32,184,18,0,20,82.94,42.98,24.46,270,12.65858,0,1016.4,10,Monday,FALSE,TRUE,-12.65858,-2.33E-15,FALSE
1344,LGA,2013-07-29 19:00,N955UW,2013,7,29,1852,1900,-8,-28,US,2140,BOS,34,184,19,0,20,80.96,48.92,32.67,270,10.35702,0,1017,10,Monday,FALSE,FALSE,-10.35702,-1.90E-15,FALSE
1346,LGA,2013-07-29 21:00,N967UW,2013,7,29,2051,2100,-9,-27,US,2144,BOS,38,184,21,0,20,78.08,51.98,40.23,290,12.65858,0,1018.3,10,Monday,FALSE,FALSE,-11.89517422,4.329489346,FALSE
1349,LGA,2013-07-30 8:00,N950UW,2013,7,30,755,800,-5,18,US,2118,BOS,39,184,8,0,20,71.96,53.96,53.08,300,6.90468,0,1021.5,10,Tuesday,FALSE,FALSE,-5.979628285,3.45234,FALSE
1351,LGA,2013-07-30 10:00,N951UW,2013,7,30,956,1000,-4,-6,US,2122,BOS,36,184,10,0,20,75.92,53.96,46.47,330,11.5078,0,1021.1,10,Tuesday,FALSE,FALSE,-5.7539,9.966047142,FALSE
1352,LGA,2013-07-30 11:00,N956UW,2013,7,30,1053,1100,-7,-10,US,2124,BOS,33,184,11,0,20,78.08,53.06,41.86,300,11.5078,0,1020.8,10,Tuesday,FALSE,FALSE,-9.966047142,5.7539,FALSE
1353,LGA,2013-07-30 12:00,N950UW,2013,7,30,1151,1200,-9,-7,US,2126,BOS,35,184,12,0,20,78.98,51.98,39.05,300,10.35702,0,1020.4,10,Tuesday,FALSE,FALSE,-8.969442428,5.17851,FALSE
1355,LGA,2013-07-30 14:00,N951UW,2013,7,30,1400,1400,0,-19,US,2130,BOS,34,184,14,0,20,78.98,51.08,37.78,310,6.90468,0,1019.6,10,Tuesday,FALSE,FALSE,-5.289291746,4.438242753,FALSE
1356,LGA,2013-07-30 15:00,N956UW,2013,7,30,1454,1500,-6,-10,US,2132,BOS,38,184,15,0,20,80.96,53.06,38.08,330,9.20624,0,1019.3,10,Tuesday,FALSE,FALSE,-4.60312,7.972837713,FALSE
1357,LGA,2013-07-30 16:00,N950UW,2013,7,30,1555,1600,-5,-27,US,2134,BOS,34,184,16,0,20,80.96,51.08,35.4,310,11.5078,0,1019,10,Tuesday,FALSE,FALSE,-8.815486243,7.397071255,FALSE
1359,LGA,2013-07-30 18:00,N951UW,2013,7,30,1753,1800,-7,-21,US,2138,BOS,36,184,18,0,20,78.98,53.06,40.64,320,10.35702,0,1019.5,10,Tuesday,FALSE,TRUE,-6.657364129,7.933937618,FALSE
1360,LGA,2013-07-30 19:00,N956UW,2013,7,30,1854,1900,-6,-19,US,2140,BOS,32,184,19,0,20,78.08,55.04,45,320,8.05546,0,1019.9,10,Tuesday,FALSE,FALSE,-5.177949878,6.17084037,FALSE
1361,LGA,2013-07-30 20:00,N950UW,2013,7,30,1953,2000,-7,-22,US,2142,BOS,32,184,20,0,20,77,55.04,46.64,320,10.35702,0,1019.7,10,Tuesday,FALSE,FALSE,-6.657364129,7.933937618,FALSE
1362,LGA,2013-07-30 21:00,N955UW,2013,7,30,2051,2100,-9,-31,US,2144,BOS,32,184,21,0,20,75.92,55.94,49.95,330,5.7539,0,1020.1,10,Tuesday,FALSE,FALSE,-2.87695,4.983023571,FALSE
1363,LGA,2013-07-31 6:00,N732US,2013,7,31,551,600,-9,-20,US,2114,BOS,33,184,6,0,179,71.06,55.04,56.93,0,0,0,1021,10,Wednesday,FALSE,FALSE,0,0,FALSE
1364,LGA,2013-07-31 7:00,N951UW,2013,7,31,656,700,-4,-15,US,2116,BOS,34,184,7,0,20,73.04,55.94,55.01,300,5.7539,0,1021.2,10,Wednesday,FALSE,FALSE,-4.983023571,2.87695,FALSE
1365,LGA,2013-07-31 8:00,N963UW,2013,7,31,750,800,-10,-19,US,2118,BOS,36,184,8,0,20,73.94,55.04,51.65,300,3.45234,0,1021,10,Wednesday,FALSE,FALSE,-2.989814143,1.72617,FALSE
1366,LGA,2013-07-31 9:00,N956UW,2013,7,31,857,900,-3,-1,US,2120,BOS,38,184,9,0,20,75.02,55.04,49.81,40,4.60312,0,1020.8,10,Wednesday,FALSE,FALSE,2.958828502,3.526194497,FALSE
1367,LGA,2013-07-31 10:00,N950UW,2013,7,31,955,1000,-5,7,US,2122,BOS,45,184,10,0,20,78.08,55.04,45,30,6.90468,0,1020.7,10,Wednesday,FALSE,FALSE,3.45234,5.979628285,FALSE
1369,LGA,2013-07-31 12:00,N963UW,2013,7,31,1153,1200,-7,-17,US,2126,BOS,33,184,12,0,20,80.96,55.04,40.94,320,3.45234,0,1019.7,10,Wednesday,FALSE,FALSE,-2.219121376,2.644645873,FALSE
1370,LGA,2013-07-31 13:00,N956UW,2013,7,31,1255,1300,-5,-14,US,2128,BOS,33,184,13,0,20,82.04,53.96,38,300,6.90468,0,1019.2,10,Wednesday,FALSE,FALSE,-5.979628285,3.45234,FALSE
1372,LGA,2013-07-31 15:00,N948UW,2013,7,31,1459,1500,-1,-8,US,2132,BOS,34,184,15,0,20,80.96,55.94,42.3,160,10.35702,0,1018.3,10,Wednesday,FALSE,FALSE,3.542309465,-9.732415267,FALSE
1374,LGA,2013-07-31 17:00,N956UW,2013,7,31,1653,1700,-7,-2,US,2136,BOS,45,184,17,0,20,78.98,57.02,46.93,170,12.65858,0,1017.7,10,Wednesday,FALSE,TRUE,2.198139349,-12.46626773,FALSE
1375,LGA,2013-07-31 18:00,N947UW,2013,7,31,1754,1800,-6,-14,US,2138,BOS,35,184,18,0,20,78.08,57.02,48.35,180,12.65858,0,1017.5,10,Wednesday,FALSE,TRUE,1.55E-15,-12.65858,FALSE
1376,LGA,2013-07-31 19:00,N948UW,2013,7,31,1853,1900,-7,-17,US,2140,BOS,34,184,19,0,20,77,57.02,50.11,180,10.35702,0,1017.3,10,Wednesday,FALSE,FALSE,1.27E-15,-10.35702,FALSE
1377,LGA,2013-07-31 20:00,N963UW,2013,7,31,1954,2000,-6,-24,US,2142,BOS,33,184,20,0,20,75.92,57.02,51.94,180,11.5078,0,1017.4,10,Wednesday,FALSE,FALSE,1.41E-15,-11.5078,FALSE
1378,LGA,2013-07-31 21:00,N956UW,2013,7,31,2053,2100,-7,-13,US,2144,BOS,44,184,21,0,20,75.92,59,55.77,180,9.20624,0,1017.5,10,Wednesday,FALSE,FALSE,1.13E-15,-9.20624,FALSE
